{
"type": "FeatureCollection",
"name": "LON_5km",
"crs": { "type": "name", "properties": { "name": "urn:ogc:def:crs:OGC:1.3:CRS84" } },
"features": [
{ "type": "Feature", "properties": { "city": "LON", "radius_km": 5 }, "geometry": { "type": "Polygon", "coordinates": [ [ [ -0.055797298244996, 51.506228258597154 ], [ -0.056331523775967, 51.501829918989031 ], [ -0.057553760881414, 51.497485400926379 ], [ -0.059452048959186, 51.493236537055495 ], [ -0.062007931909555, 51.489124196336569 ], [ -0.065196643561253, 51.48518796061456 ], [ -0.068987307795598, 51.4814656863227 ], [ -0.073343342597099, 51.477993156281634 ], [ -0.078222796373166, 51.474803766058024 ], [ -0.08357867759001, 51.471928166414649 ], [ -0.089359459540577, 51.469393979969347 ], [ -0.095509526999006, 51.467225563519044 ], [ -0.101969767634207, 51.46544374826302 ], [ -0.108678108899805, 51.464065640323902 ], [ -0.115570087665333, 51.463104486987937 ], [ -0.122579549500199, 51.462569507737882 ], [ -0.129639175757038, 51.462465845505015 ], [ -0.136681179554158, 51.462794493542717 ], [ -0.143637964115299, 51.463552284145294 ], [ -0.150442680681169, 51.464731962177737 ], [ -0.157029967091917, 51.4663222036205 ], [ -0.163336528783082, 51.468307736006359 ], [ -0.169301748467934, 51.470669482840442 ], [ -0.174868257750004, 51.473384757222298 ], [ -0.179982489996695, 51.476427475403597 ], [ -0.184595207652594, 51.479768392802356 ], [ -0.188661947473712, 51.483375394061554 ], [ -0.192143364174192, 51.487213820720932 ], [ -0.195005918628017, 51.491246742742675 ], [ -0.197221857511603, 51.495435377780382 ], [ -0.198769716909012, 51.499739412976112 ], [ -0.199634422519731, 51.504117417858602 ], [ -0.199807455931851, 51.508527242525034 ], [ -0.199286953905076, 51.512926418784886 ], [ -0.198077729788933, 51.517272569989551 ], [ -0.196191236377531, 51.521523818637299 ], [ -0.193645476669886, 51.52563918640768 ], [ -0.190464831971401, 51.529578997345801 ], [ -0.186679810787384, 51.533305260452522 ], [ -0.182326767487966, 51.536782029052311 ], [ -0.177447582127966, 51.539975764291867 ], [ -0.172089247378174, 51.542855647393459 ], [ -0.166303419591428, 51.545393882721072 ], [ -0.160145873589744, 51.547565974299786 ], [ -0.153676005642971, 51.549350944944436 ], [ -0.146956261415629, 51.550731556242013 ], [ -0.140051521768831, 51.55169447458097 ], [ -0.13302846203958, 51.552230400682284 ], [ -0.125954920914586, 51.552334139888231 ], [ -0.118899213804931, 51.552004719066758 ], [ -0.111929484695824, 51.551245222416476 ], [ -0.105113034304724, 51.550063084742995 ], [ -0.098515719625789, 51.548469711624001 ], [ -0.092201189123441, 51.546480497268881 ], [ -0.086230341947053, 51.544114691315116 ], [ -0.080660790654759, 51.541395072796959 ], [ -0.07554625650693, 51.538347929400381 ], [ -0.07093595002884, 51.535002705759609 ], [ -0.066874291772265, 51.531391669058472 ], [ -0.063400319091815, 51.527549648517713 ], [ -0.060547360226547, 51.523513660452004 ], [ -0.058342762217901, 51.519322623752537 ], [ -0.056807584678221, 51.515016940392158 ], [ -0.055956428315478, 51.51063808864842 ], [ -0.055797298244996, 51.506228258597154 ] ] ] } }
]
}
