{
"type": "FeatureCollection",
"name": "NYC_5km",
"crs": { "type": "name", "properties": { "name": "urn:ogc:def:crs:OGC:1.3:CRS84" } },
"features": [
{ "type": "Feature", "properties": { "city": "NYC", "radius_km": 5 }, "geometry": { "type": "Polygon", "coordinates": [ [ [ -73.946813953580985, 40.712275147829487 ], [ -73.947168481721377, 40.707863463065493 ], [ -73.94808945507387, 40.70349945521135 ], [ -73.949567897867766, 40.69922513747224 ], [ -73.951589474893453, 40.695081651819002 ], [ -73.954134633274478, 40.691108873620209 ], [ -73.957178793985818, 40.687345028725197 ], [ -73.960692591151385, 40.683826326642887 ], [ -73.964642156718526, 40.680586613298566 ], [ -73.968989447697183, 40.677657046656236 ], [ -73.973692612772552, 40.675065798269763 ], [ -73.978706394752592, 40.672837783575616 ], [ -73.983982564998286, 40.670994423463078 ], [ -73.989470385708117, 40.669553439360804 ], [ -73.995117095688499, 40.66852868376013 ], [ -74.000868415041552, 40.667930007762429 ], [ -74.006669064040906, 40.667763166889586 ], [ -74.012463291346208, 40.668029766039155 ], [ -74.018195406627655, 40.66872724409955 ], [ -74.023810312635021, 40.669848898370731 ], [ -74.029254031748991, 40.671383948564639 ], [ -74.034474222099121, 40.673317639789914 ], [ -74.039420678419631, 40.675631383560493 ], [ -74.044045812942841, 40.67830293551205 ], [ -74.048305111798868, 40.681306608163567 ], [ -74.052157562599504, 40.684613516731318 ], [ -74.055566049131286, 40.688191855687322 ], [ -74.058497709368382, 40.692007203460932 ], [ -74.060924253336736, 40.696022852410223 ], [ -74.062822237716617, 40.700200160943886 ], [ -74.064173294457305, 40.704498924456232 ], [ -74.064964311094542, 40.708877761549104 ], [ -74.065187560903695, 40.713294511859054 ], [ -74.064840781487192, 40.717706641685638 ], [ -74.063927200879633, 40.722071653530222 ], [ -74.062455510753367, 40.726347495604962 ], [ -74.060439786817199, 40.730492967359886 ], [ -74.057899357016737, 40.734468117101876 ], [ -74.054858618660134, 40.738234627844776 ], [ -74.051346806103723, 40.741756187632774 ], [ -74.047397711132021, 40.744998840720697 ], [ -74.043049358649554, 40.747931316171872 ], [ -74.038343640763244, 40.750525330648465 ], [ -74.03332591276758, 40.752755862414624 ], [ -74.028044554944316, 40.754601393851118 ], [ -74.022550504450535, 40.756044120086315 ], [ -74.016896761887153, 40.757070121679483 ], [ -74.011137877410789, 40.757669499646262 ], [ -74.005329421471984, 40.757836471488339 ], [ -73.999527445428271, 40.757569427275079 ], [ -73.993787937389953, 40.756870945221671 ], [ -73.988166278707411, 40.755747766611201 ], [ -73.982716706501918, 40.754210730311421 ], [ -73.977491787575062, 40.752274667538885 ], [ -73.972541908908951, 40.7499582579171 ], [ -73.967914789789575, 40.747283848257759 ], [ -73.963655020353002, 40.744277235862107 ], [ -73.959803631070713, 40.740967418486619 ], [ -73.956397697361794, 40.737386313443054 ], [ -73.953469983147883, 40.733568448601098 ], [ -73.951048626759103, 40.729550628332042 ], [ -73.949156872159321, 40.725371577669485 ], [ -73.947812847992523, 40.721071568167993 ], [ -73.947029396465595, 40.716692029108152 ], [ -73.946813953580985, 40.712275147829487 ] ] ] } }
]
}
