{
"type": "FeatureCollection",
"name": "PAR_5km",
"crs": { "type": "name", "properties": { "name": "urn:ogc:def:crs:OGC:1.3:CRS84" } },
"features": [
{ "type": "Feature", "properties": { "city": "PAR", "radius_km": 5 }, "geometry": { "type": "Polygon", "coordinates": [ [ [ 2.415481999373224, 48.855237688371311 ], [ 2.415205144722369, 48.850827517992208 ], [ 2.41427470908951, 48.846456483830664 ], [ 2.412699818942245, 48.842166666453124 ], [ 2.410495794869844, 48.837999353956398 ], [ 2.407683998154873, 48.833994645315279 ], [ 2.404291619874612, 48.830191065538571 ], [ 2.40035141476036, 48.826625196288781 ], [ 2.395901382539789, 48.82333132545925 ], [ 2.390984399952289, 48.820341119011616 ], [ 2.3856478070569, 48.817683318155339 ], [ 2.379942951844433, 48.81538346470392 ], [ 2.373924697517902, 48.813463657170587 ], [ 2.36765089711682, 48.811942339873362 ], [ 2.36118184043006, 48.810834127007169 ], [ 2.354579678367919, 48.810149663312735 ], [ 2.347907830146168, 48.809895522630356 ], [ 2.341230378772613, 48.81007414527496 ], [ 2.334611460419935, 48.810683814809785 ], [ 2.328114653316886, 48.811718674431646 ], [ 2.321802371793439, 48.813168782815637 ], [ 2.315735271074129, 48.815020208902681 ], [ 2.309971668327615, 48.817255164753107 ], [ 2.304566985349797, 48.819852175236512 ], [ 2.299573218082763, 48.822786282985454 ], [ 2.29503843795306, 48.826029286709606 ], [ 2.291006329750725, 48.829550010653385 ], [ 2.287515770466231, 48.833314602683195 ], [ 2.284600453157053, 48.837286858215897 ], [ 2.282288559530439, 48.841428566948977 ], [ 2.280602484506044, 48.845699879127345 ], [ 2.279558615563747, 48.850059687886038 ], [ 2.279167169190878, 48.854466024041663 ], [ 2.279432086222598, 48.858876459573267 ], [ 2.280350987323259, 48.863248515934373 ], [ 2.281915189289343, 48.86754007327626 ], [ 2.28410978227134, 48.871709776636528 ], [ 2.286913767417777, 48.87571743516132 ], [ 2.290300253845845, 48.879524410479796 ], [ 2.294236713245748, 48.883093990441083 ], [ 2.298685289836953, 48.886391744551517 ], [ 2.30360316282082, 48.889385857617242 ], [ 2.308942957922635, 48.892047438299599 ], [ 2.314653204094114, 48.894350799528247 ], [ 2.320678830961759, 48.896273707987774 ], [ 2.326961702163858, 48.897797600192852 ], [ 2.33344117932547, 48.898907762995883 ], [ 2.340054711082365, 48.899593476720817 ], [ 2.346738441286345, 48.899848119489128 ], [ 2.353427830309955, 48.899669231690929 ], [ 2.360058283221562, 48.899058539952733 ], [ 2.36656577852426, 48.898021940360664 ], [ 2.372887491145506, 48.896569441106024 ], [ 2.378962403428546, 48.894715065128089 ], [ 2.384731898010979, 48.89247671372965 ], [ 2.390140326677884, 48.889875992530428 ], [ 2.395135549543878, 48.886938001498848 ], [ 2.399669439246292, 48.883691091157722 ], [ 2.40369834521547, 48.880166587391649 ], [ 2.407183513522486, 48.876398487590478 ], [ 2.410091458283155, 48.872423131138682 ], [ 2.412394281113556, 48.868278847504989 ], [ 2.414069935679372, 48.864005585396015 ], [ 2.415102434952176, 48.859644526611149 ], [ 2.415481999373224, 48.855237688371311 ] ] ] } }
]
}
