{
"type": "FeatureCollection",
"name": "SIN_5km",
"crs": { "type": "name", "properties": { "name": "urn:ogc:def:crs:OGC:1.3:CRS84" } },
"features": [
{ "type": "Feature", "properties": { "city": "SIN", "radius_km": 5 }, "geometry": { "type": "Polygon", "coordinates": [ [ [ 103.864728188322673, 1.352099833687401 ], [ 103.864511790387098, 1.347667676355907 ], [ 103.863864796024544, 1.34327820840415 ], [ 103.862793438352298, 1.338973702424428 ], [ 103.861308037141171, 1.334795612580186 ], [ 103.859422899356474, 1.330784175404895 ], [ 103.857156181311595, 1.326978022333192 ], [ 103.854529713763483, 1.323413807694465 ], [ 103.851568791636225, 1.320125855750085 ], [ 103.848301930398421, 1.317145830172011 ], [ 103.844760591441201, 1.314502429144494 ], [ 103.840978879100973, 1.312221109023806 ], [ 103.836993212244479, 1.310323839216104 ], [ 103.832841973577246, 1.308828890632978 ], [ 103.828565140051495, 1.307750659761018 ], [ 103.824203897930829, 1.307099530038926 ], [ 103.819800246216374, 1.306881771876585 ], [ 103.815396592251403, 1.307099482278491 ], [ 103.811035343396227, 1.307750564652738 ], [ 103.806758498703118, 1.308828748999883 ], [ 103.8026072445209, 1.310323652287304 ], [ 103.798621557921223, 1.312220878427841 ], [ 103.794839821763148, 1.314502156900247 ], [ 103.791298455101071, 1.317145518677019 ], [ 103.788031562492961, 1.320125507766074 ], [ 103.785070605584934, 1.323413426329905 ], [ 103.782444100133489, 1.326977611022686 ], [ 103.780177341382455, 1.330783737885259 ], [ 103.778292160439051, 1.334795152863078 ], [ 103.77680671399574, 1.338973224765475 ], [ 103.775735309423425, 1.343277717268561 ], [ 103.775088266922253, 1.347667176380656 ], [ 103.774871820059403, 1.35209932964014 ], [ 103.775088055654194, 1.356531493202522 ], [ 103.775734893592528, 1.36092098289727 ], [ 103.776806106768362, 1.365225525296518 ], [ 103.778291380963807, 1.369403664837241 ], [ 103.780176414094683, 1.373415163076165 ], [ 103.782443053869429, 1.377221386232016 ], [ 103.785069472538936, 1.380785677282113 ], [ 103.788030377057567, 1.384073709028645 ], [ 103.791297252633328, 1.387053814732896 ], [ 103.794838637324162, 1.389697293131416 ], [ 103.798620425036134, 1.391978684894604 ], [ 103.802606194006017, 1.393876017863118 ], [ 103.806757557604129, 1.39537101869813 ], [ 103.811034534077208, 1.396449288905037 ], [ 103.815395931668277, 1.397100443533512 ], [ 103.819799745401568, 1.397318211216533 ], [ 103.824203561707478, 1.397100494583727 ], [ 103.828564966987031, 1.39644939046645 ], [ 103.832841956176637, 1.395371169699723 ], [ 103.836993337374565, 1.393876216715753 ], [ 103.840979128628021, 1.391978929511515 ], [ 103.844760943056144, 1.389697580954902 ], [ 103.848302358596669, 1.387054142766719 ], [ 103.851569268813279, 1.384074073875499 ], [ 103.854530211383164, 1.380786075185501 ], [ 103.857156671100853, 1.377221813121756 ], [ 103.859423354480057, 1.373415614616741 ], [ 103.861308433310029, 1.369404136478177 ], [ 103.862793754822491, 1.365226012323962 ], [ 103.863865016447576, 1.360921480485988 ], [ 103.864511903478473, 1.35653199646755 ], [ 103.864728188322673, 1.352099833687401 ] ] ] } }
]
}
