{
"type": "FeatureCollection",
"name": "TYO_5km",
"crs": { "type": "name", "properties": { "name": "urn:ogc:def:crs:OGC:1.3:CRS84" } },
"features": [
{ "type": "Feature", "properties": { "city": "TYO", "radius_km": 5 }, "geometry": { "type": "Polygon", "coordinates": [ [ [ 139.822338768832623, 35.681217716128167 ], [ 139.822073399570769, 35.676800195541844 ], [ 139.821278693354117, 35.672425162243982 ], [ 139.819962387503125, 35.66813473998149 ], [ 139.818137236029258, 35.663970231267335 ], [ 139.815820883845873, 35.659971720256706 ], [ 139.813035694246651, 35.656177687576154 ], [ 139.809808531411704, 35.652624640781525 ], [ 139.806170500116934, 35.649346763963358 ], [ 139.802156645211795, 35.646375589828196 ], [ 139.797805613797209, 35.643739697364737 ], [ 139.793159283367316, 35.641464437954561 ], [ 139.788262359483298, 35.639571692514629 ], [ 139.783161946816108, 35.63807966196056 ], [ 139.777907097628116, 35.637002692964018 ], [ 139.772548341960629, 35.636351140642397 ], [ 139.767137203953126, 35.636131269470667 ], [ 139.761725708839521, 35.63634519334569 ], [ 139.756365885247277, 35.636990855365106 ], [ 139.751109267465722, 35.638062047510331 ], [ 139.746006402349508, 35.639548470048929 ], [ 139.741106365484427, 35.641435830098928 ], [ 139.736456291161659, 35.643705978429466 ], [ 139.732100920587868, 35.646337083212629 ], [ 139.728082172600125, 35.649303839092383 ], [ 139.724438740959044, 35.652577709602227 ], [ 139.721205722058613, 35.656127200645848 ], [ 139.718414276625566, 35.659918162458247 ], [ 139.716091328675503, 35.663914117190608 ], [ 139.714259304661738, 35.668076609013831 ], [ 139.712935915387078, 35.672365573414851 ], [ 139.7121339828592, 35.676739722170048 ], [ 139.711861313855081, 35.681156940321841 ], [ 139.712120621525315, 35.685574691360749 ], [ 139.71290949591571, 35.689950426726838 ], [ 139.714220423819143, 35.694241995693218 ], [ 139.716040857895365, 35.69840805167992 ], [ 139.718353334517815, 35.702408451071072 ], [ 139.721135639328622, 35.70620464067089 ], [ 139.724361019008654, 35.709760030034502 ], [ 139.727998437308258, 35.713040345047837 ], [ 139.732012872935542, 35.716013959305911 ], [ 139.736365656473339, 35.718652200047487 ], [ 139.74101484309486, 35.720929625647791 ], [ 139.745915617477436, 35.722824271944312 ], [ 139.751020726977657, 35.72431786497237 ], [ 139.756280938836426, 35.725395998015138 ], [ 139.7616455169277, 35.726048271221472 ], [ 139.767062713359024, 35.726268392413047 ], [ 139.772480270074084, 35.72605423808487 ], [ 139.777845925500941, 35.725407873995515 ], [ 139.783107921235683, 35.724335535143837 ], [ 139.788215503751559, 35.72284756532968 ], [ 139.793119416175642, 35.720958316896123 ], [ 139.79777237528134, 35.71868601164374 ], [ 139.802129529001689, 35.716052564289868 ], [ 139.806148889974736, 35.713083370214321 ], [ 139.809791740883838, 35.70980705958214 ], [ 139.813023007652674, 35.706255220262129 ], [ 139.815811596888494, 35.702462092262152 ], [ 139.818130694338066, 35.698464236676237 ], [ 139.819958021520705, 35.694300182382051 ], [ 139.821276048130073, 35.690010053937371 ], [ 139.822072158242491, 35.685635184299208 ], [ 139.822338768832623, 35.681217716128167 ] ] ] } }
]
}
