{
"type": "FeatureCollection",
"name": "LON_30km",
"crs": { "type": "name", "properties": { "name": "urn:ogc:def:crs:OGC:1.3:CRS84" } },
"features": [
{ "type": "Feature", "properties": { "city": "LON", "radius_km": 30 }, "geometry": { "type": "Polygon", "coordinates": [ [ [ 0.319233861729709, 51.491736298757559 ], [ 0.315240242302587, 51.465399050036446 ], [ 0.307140454869293, 51.439432393057416 ], [ 0.295019063704372, 51.41408544614432 ], [ 0.278998658399109, 51.389600987969231 ], [ 0.259238453795987, 51.366213171712843 ], [ 0.235932573729002, 51.344145334050026 ], [ 0.209308041568389, 51.323607917537863 ], [ 0.179622501706782, 51.304796523586042 ], [ 0.147161696895902, 51.287890111735479 ], [ 0.11223672680932, 51.273049359479351 ], [ 0.075181113429204, 51.260415195342709 ], [ 0.036347698894447, 51.250107516406011 ], [ -0.003894598638204, 51.242224099917962 ], [ -0.045164145726763, 51.236839717101077 ], [ -0.087070045761434, 51.234005455710538 ], [ -0.129215657429739, 51.233748256363228 ], [ -0.171202154620641, 51.23607066610932 ], [ -0.212632102922272, 51.240950811170748 ], [ -0.253113027853444, 51.248342589217508 ], [ -0.292260949873574, 51.258176079991109 ], [ -0.329703861044675, 51.27035817151279 ], [ -0.365085117988007, 51.284773397530628 ], [ -0.398066725510613, 51.301284980264043 ], [ -0.42833248500578, 51.31973607089639 ], [ -0.455590981497125, 51.339951178650644 ], [ -0.479578383045606, 51.361737777661602 ], [ -0.50006102622616, 51.384888079240589 ], [ -0.51683776156377, 51.409180955521876 ], [ -0.529742033258198, 51.434383998900167 ], [ -0.538643668284213, 51.460255700128499 ], [ -0.543450351088964, 51.486547726467712 ], [ -0.54410876167532, 51.513007279883901 ], [ -0.540605356906272, 51.539379514005311 ], [ -0.532966777426815, 51.565409987403847 ], [ -0.521259865697695, 51.590847129790468 ], [ -0.505591284274468, 51.615444696938553 ], [ -0.486106727629874, 51.638964189610462 ], [ -0.462989725470572, 51.661177211488358 ], [ -0.436460040580322, 51.681867741132983 ], [ -0.406771669648253, 51.700834293335618 ], [ -0.374210461207346, 51.717891945911987 ], [ -0.339091370591108, 51.732874209022242 ], [ -0.301755377575075, 51.745634715494518 ], [ -0.262566097953457, 51.756048712376227 ], [ -0.221906125553965, 51.764014336022186 ], [ -0.180173145960661, 51.769453655426915 ], [ -0.137775867349507, 51.772313471187175 ], [ -0.09512981721274, 51.772565860393229 ], [ -0.052653056246671, 51.770208460844763 ], [ -0.010761862220476, 51.765264491208853 ], [ 0.030133562820608, 51.757782507022242 ], [ 0.069633309152822, 51.747835895721813 ], [ 0.10735184840297, 51.735522117102278 ], [ 0.14292194609144, 51.720961698684739 ], [ 0.175998352096464, 51.704296998378062 ], [ 0.206261227535345, 51.68569074947397 ], [ 0.23341927127957, 51.665324405396007 ], [ 0.257212514527669, 51.64339630368589 ], [ 0.277414757398195, 51.620119670437617 ], [ 0.293835627218893, 51.595720487765121 ], [ 0.306322243925964, 51.570435247911284 ], [ 0.314760483609779, 51.5445086182797 ], [ 0.319075836625993, 51.51819104201158 ], [ 0.319233861729709, 51.491736298757559 ] ] ] } }
]
}
