{
"type": "FeatureCollection",
"name": "NYC_30km",
"crs": { "type": "name", "properties": { "name": "urn:ogc:def:crs:OGC:1.3:CRS84" } },
"features": [
{ "type": "Feature", "properties": { "city": "NYC", "radius_km": 30 }, "geometry": { "type": "Polygon", "coordinates": [ [ [ -73.621930641186097, 40.749030289938318 ], [ -73.624187098068916, 40.722568290767711 ], [ -73.629838477922974, 40.696401578510134 ], [ -73.638826551016692, 40.670781603899009 ], [ -73.651061303770163, 40.645954287417794 ], [ -73.666421935862147, 40.622157683198679 ], [ -73.684758134778846, 40.599619727291135 ], [ -73.705891611523057, 40.578556090361346 ], [ -73.72961787959764, 40.559168153642439 ], [ -73.755708258041594, 40.541641125605238 ], [ -73.783912078199194, 40.526142315378287 ], [ -73.813959073020285, 40.512819577426278 ], [ -73.845561926990172, 40.50179994041337 ], [ -73.878418964243181, 40.493188431539004 ], [ -73.912216951999653, 40.48706710595274 ], [ -73.946633996155157, 40.483494289135123 ], [ -73.981342505623843, 40.482504038384391 ], [ -74.016012201877942, 40.484105827777846 ], [ -74.050313150018852, 40.488284459189366 ], [ -74.083918787654611, 40.495000200145611 ], [ -74.116508927840812, 40.504189147499162 ], [ -74.147772712367299, 40.515763814092097 ], [ -74.177411491748416, 40.529613933784468 ], [ -74.205141608411466, 40.545607478435478 ], [ -74.230697059789094, 40.563591878656489 ], [ -74.253832018329376, 40.583395438413618 ], [ -74.274323185861732, 40.604828931850257 ], [ -74.291971960325441, 40.627687369037901 ], [ -74.30660639360633, 40.651751915756989 ], [ -74.318082920167853, 40.676791950871433 ], [ -74.326287837328806, 40.702567243405149 ], [ -74.331138519465384, 40.728830230072461 ], [ -74.332584350116065, 40.755328372775352 ], [ -74.33060735797126, 40.781806574477031 ], [ -74.325222545040674, 40.808009630916843 ], [ -74.316477897921189, 40.83368469486571 ], [ -74.304454076025678, 40.858583729058232 ], [ -74.289263773866693, 40.882465923599739 ], [ -74.271050757987155, 40.905100053553014 ], [ -74.249988582852922, 40.926266752583281 ], [ -74.226278993917532, 40.945760678992947 ], [ -74.200150030069608, 40.963392551225816 ], [ -74.171853841705939, 40.97899103096757 ], [ -74.141664244652247, 40.992404433319074 ], [ -74.109874033990323, 41.003502245163673 ], [ -74.076792085452539, 41.012176434777992 ], [ -74.04274027532017, 41.018342537926451 ], [ -74.008050252625679, 41.021940508105857 ], [ -73.97306009982988, 41.022935321234094 ], [ -73.938110919958177, 41.021317327865233 ], [ -73.903543389382321, 41.017102348917291 ], [ -73.869694315990486, 41.010331513869936 ], [ -73.836893242383297, 41.001070843376141 ], [ -73.805459132969801, 40.989410581182817 ], [ -73.775697182438293, 40.975464283121205 ], [ -73.747895781083216, 40.959367673658932 ], [ -73.722323669939883, 40.941277283061744 ], [ -73.69922731568316, 40.921368880553246 ], [ -73.678828531868334, 40.899835720955977 ], [ -73.661322369419082, 40.876886624122221 ], [ -73.646875295393244, 40.852743908000406 ], [ -73.635623675070548, 40.827641197423972 ], [ -73.627672568398694, 40.801821131651558 ], [ -73.623094847883166, 40.775532994333282 ], [ -73.621930641186097, 40.749030289938318 ] ] ] } }
]
}
