{
"type": "FeatureCollection",
"name": "PAR_30km",
"crs": { "type": "name", "properties": { "name": "urn:ogc:def:crs:OGC:1.3:CRS84" } },
"features": [
{ "type": "Feature", "properties": { "city": "PAR", "radius_km": 30 }, "geometry": { "type": "Polygon", "coordinates": [ [ [ 2.756289131220145, 48.856461754336671 ], [ 2.7544491298437, 48.830005357236423 ], [ 2.748694127725229, 48.803795093018401 ], [ 2.73908547785519, 48.778082815946618 ], [ 2.725721177188319, 48.753115218425471 ], [ 2.708734716915367, 48.729131492351776 ], [ 2.68829361790232, 48.706361074925411 ], [ 2.664597671851466, 48.685021498651764 ], [ 2.63787691023648, 48.665316363913782 ], [ 2.608389324193658, 48.647433451051974 ], [ 2.576418359359974, 48.631542987386403 ], [ 2.542270210186206, 48.617796083062338 ], [ 2.506270938571116, 48.606323348015472 ], [ 2.468763441810808, 48.597233700744098 ], [ 2.43010429488347, 48.590613377953119 ], [ 2.390660492036758, 48.58652515250467 ], [ 2.350806112550813, 48.585007765476782 ], [ 2.310918935445789, 48.586075576497734 ], [ 2.271377027812952, 48.589718434891168 ], [ 2.232555331389887, 48.595901772536649 ], [ 2.194822271982273, 48.604566917721414 ], [ 2.158536416358052, 48.61563162763273 ], [ 2.124043201298119, 48.628990835515282 ], [ 2.091671759566145, 48.644517606895477 ], [ 2.061731867636655, 48.662064297654972 ], [ 2.034511040065693, 48.681463905121376 ], [ 2.010271795366257, 48.702531601738933 ], [ 1.989249118119389, 48.725066439289691 ], [ 1.971648141765035, 48.748853210066542 ], [ 1.957642076024682, 48.77366444985951 ], [ 1.947370402159207, 48.799262566123375 ], [ 1.9409373582094, 48.825402073258459 ], [ 1.938410734955506, 48.851831915581251 ], [ 1.93982100152311, 48.878297857304965 ], [ 1.945160777321488, 48.904544917719726 ], [ 1.954384664303675, 48.930319828783524 ], [ 1.967409450374971, 48.955373491536918 ], [ 1.984114691154671, 48.979463407167586 ], [ 2.004343673238306, 49.002356058202899 ], [ 2.027904757658025, 49.023829215229 ], [ 2.054573097459892, 49.043674144748252 ], [ 2.08409271829089, 49.06169769431343 ], [ 2.116178945715653, 49.077724231933139 ], [ 2.15052115777816, 49.091597417937201 ], [ 2.18678583621393, 49.103181789021555 ], [ 2.224619884837172, 49.11236413605446 ], [ 2.263654179110551, 49.119054659398735 ], [ 2.303507306884222, 49.123187887963688 ], [ 2.34378945688741, 49.12472335090807 ], [ 2.38410640887614, 49.123645993827971 ], [ 2.42406357747065, 49.119966334331167 ], [ 2.463270060715992, 49.113720355063101 ], [ 2.501342644302653, 49.104969135453246 ], [ 2.537909713193649, 49.093798226629389 ], [ 2.572615024094493, 49.08031677704389 ], [ 2.605121294717607, 49.064656419311021 ], [ 2.635113569053099, 49.04696993151645 ], [ 2.662302321761016, 49.02742968878237 ], [ 2.686426269227795, 49.006225923117306 ], [ 2.707254859651498, 48.98356481151712 ], [ 2.7245904196017, 48.959666413895619 ], [ 2.738269939705596, 48.934762483696694 ], [ 2.748166487313532, 48.909094174973553 ], [ 2.754190239076373, 48.882909670322142 ], [ 2.756289131220145, 48.856461754336671 ] ] ] } }
]
}
