{
"type": "FeatureCollection",
"name": "SIN_30km",
"crs": { "type": "name", "properties": { "name": "urn:ogc:def:crs:OGC:1.3:CRS84" } },
"features": [
{ "type": "Feature", "properties": { "city": "SIN", "radius_km": 30 }, "geometry": { "type": "Polygon", "coordinates": [ [ [ 104.120963336089858, 1.283124837470861 ], [ 104.119673956972306, 1.256523926143274 ], [ 104.115800132749314, 1.230178343733486 ], [ 104.109379258588618, 1.204341855514471 ], [ 104.100473260732429, 1.1792633140329 ], [ 104.089167997385545, 1.155184261849569 ], [ 104.075572429369387, 1.132336604901949 ], [ 104.059817568545114, 1.110940378877325 ], [ 104.042055214129007, 1.091201630100159 ], [ 104.022456489053553, 1.07331043134712 ], [ 104.0012101904492, 1.05743905171594 ], [ 103.978520970116605, 1.043740298200116 ], [ 103.954607362507389, 1.032346044972737 ], [ 103.929699679216782, 1.023365964573859 ], [ 103.904037790295121, 1.016886473243485 ], [ 103.877868813793413, 1.012969900565158 ], [ 103.851444735855537, 1.011653891404076 ], [ 103.825019984346241, 1.01295104586111 ], [ 103.798848979450682, 1.016848800643908 ], [ 103.773183684891762, 1.023309552903298 ], [ 103.748271183385214, 1.03227102522293 ], [ 103.724351299688507, 1.043646868107935 ], [ 103.701654294103648, 1.057327494019215 ], [ 103.680398648573572, 1.07318113476809 ], [ 103.660788966575964, 1.091055111943823 ], [ 103.643014006882083, 1.11077730801521 ], [ 103.627244869924112, 1.132157823845764 ], [ 103.613633354020251, 1.154990806606868 ], [ 103.602310497060145, 1.179056430479203 ], [ 103.593385317470066, 1.204123011112008 ], [ 103.586943766378582, 1.229949233572571 ], [ 103.583047900904731, 1.256286472472968 ], [ 103.581735286410975, 1.282881182114044 ], [ 103.583018633419584, 1.30947733384281 ], [ 103.586885672699339, 1.335818877382713 ], [ 103.593299269808583, 1.361652202668898 ], [ 103.60219777814288, 1.386728578704403 ], [ 103.613495627302981, 1.410806546148653 ], [ 103.627084141382426, 1.43365424075629 ], [ 103.6428325795966, 1.455051625400891 ], [ 103.660589389550381, 1.474792609241669 ], [ 103.680183661391226, 1.492687033617845 ], [ 103.701426769137441, 1.508562505479035 ], [ 103.724114183626781, 1.522266060573023 ], [ 103.748027439820405, 1.533665640204789 ], [ 103.772936239640373, 1.542651367140203 ], [ 103.798600670136793, 1.549136608139826 ], [ 103.824773515589669, 1.553058812655441 ], [ 103.851202641169664, 1.554380119384708 ], [ 103.87763342502457, 1.553087724636047 ], [ 103.903811215136173, 1.549194008782653 ], [ 103.92948378701395, 1.54273641945652 ], [ 103.954403778263682, 1.533777112524223 ], [ 103.978331076288697, 1.522402354269351 ], [ 104.001035135850401, 1.508721690555474 ], [ 104.022297203923259, 1.492866891032119 ], [ 104.041912430218673, 1.47499067864987 ], [ 104.059691842910496, 1.455265256845794 ], [ 104.075464170453799, 1.433880648725711 ], [ 104.089077491933509, 1.411042864386016 ], [ 104.100400700087903, 1.386971914168025 ], [ 104.109324763007137, 1.361899687107633 ], [ 104.115763772483703, 1.336067715120399 ], [ 104.119655769073702, 1.309724844537215 ], [ 104.120963336089858, 1.283124837470861 ] ] ] } }
]
}
