{
"type": "FeatureCollection",
"name": "TYO_30km",
"crs": { "type": "name", "properties": { "name": "urn:ogc:def:crs:OGC:1.3:CRS84" } },
"features": [
{ "type": "Feature", "properties": { "city": "TYO", "radius_km": 30 }, "geometry": { "type": "Polygon", "coordinates": [ [ [ 140.098531840367855, 35.684105940510037 ], [ 140.097234130306418, 35.657584311037702 ], [ 140.092759123495512, 35.631293997136687 ], [ 140.085152960104381, 35.605487887870403 ], [ 140.074491712739956, 35.58041397597119 ], [ 140.060880547129756, 35.556312990979748 ], [ 140.044452615772315, 35.533416110202921 ], [ 140.02536769861149, 35.511942768353144 ], [ 140.003810606567555, 35.492098585553236 ], [ 139.979989365291573, 35.474073432077219 ], [ 139.95413319782179, 35.458039646769031 ], [ 139.926490325922458, 35.444150424550152 ], [ 139.897325610800976, 35.432538386811295 ], [ 139.866918054643293, 35.42331434679312 ], [ 139.835558185001503, 35.416566280310839 ], [ 139.803545344529454, 35.412358510377516 ], [ 139.771184908903962, 35.410731112442427 ], [ 139.738785456011954, 35.411699545094088 ], [ 139.706655909628211, 35.415254509191399 ], [ 139.675102680873067, 35.421362036490834 ], [ 139.644426830718999, 35.429963806941309 ], [ 139.614921276720139, 35.440977691929895 ], [ 139.586868066958488, 35.454298518889232 ], [ 139.56053574394025, 35.469799050830936 ], [ 139.536176820813779, 35.487331172555095 ], [ 139.51402539182132, 35.506727273515011 ], [ 139.494294898310415, 35.52780181559563 ], [ 139.477176070914112, 35.550353072405265 ], [ 139.462835067636234, 35.574165025091261 ], [ 139.451411826531029, 35.599009398184911 ], [ 139.443018650430986, 35.624647817569247 ], [ 139.437739039727575, 35.650834071360265 ], [ 139.43562678753554, 35.677316453312336 ], [ 139.436705349658524, 35.703840167317772 ], [ 139.4409674996121, 35.730149770686111 ], [ 139.448375276550621, 35.755991633180038 ], [ 139.458860231289208, 35.781116388268472 ], [ 139.472323972726485, 35.805281352754399 ], [ 139.488639013879919, 35.828252890861627 ], [ 139.507649913475262, 35.849808699038512 ], [ 139.529174705627867, 35.869739988170515 ], [ 139.553006606666372, 35.887853540600197 ], [ 139.578915984639451, 35.903973620336842 ], [ 139.606652573579055, 35.917943716102954 ], [ 139.635947911242681, 35.929628098405047 ], [ 139.666517975893896, 35.938913173622488 ], [ 139.698065994782638, 35.945708620164822 ], [ 139.730285394422651, 35.949948294029717 ], [ 139.762862860601928, 35.951590893574696 ], [ 139.795481474357985, 35.950620375957854 ], [ 139.827823888951315, 35.947046120468904 ], [ 139.859575512209659, 35.94090283681826 ], [ 139.890427658512834, 35.93225021933128 ], [ 139.920080635144245, 35.92117235086296 ], [ 139.948246728740315, 35.907776863056654 ], [ 139.974653059095033, 35.892193862275363 ], [ 139.999044269581645, 35.874574633093232 ], [ 140.021185025885956, 35.855090133611753 ], [ 140.040862297541366, 35.833929299026991 ], [ 140.057887399846777, 35.81129717179369 ], [ 140.072097777059213, 35.787412878391748 ], [ 140.083358511211287, 35.762507474084089 ], [ 140.09156354443391, 35.736821678156254 ], [ 140.096636606198388, 35.710603522946151 ], [ 140.098531840367855, 35.684105940510037 ] ] ] } }
]
}
