{
"type": "FeatureCollection",
"name": "radius_40km",
"crs": { "type": "name", "properties": { "name": "urn:ogc:def:crs:OGC:1.3:CRS84" } },
"features": [
{ "type": "Feature", "properties": { "city": "TYO", "radius_km": 40 }, "geometry": { "type": "Polygon", "coordinates": [ [ [ 140.209034997640487, 35.684882697827689 ], [ 140.207256095931541, 35.649521445086492 ], [ 140.201242411242276, 35.614472409901516 ], [ 140.191057255973874, 35.580072584752529 ], [ 140.176803712693157, 35.546652297686215 ], [ 140.158623453570783, 35.514532070170517 ], [ 140.136695212084874, 35.484019583094707 ], [ 140.111232927550304, 35.455406777977139 ], [ 140.082483584983208, 35.428967118762692 ], [ 140.050724774408877, 35.404953037769367 ], [ 140.01626199500447, 35.383593587401734 ], [ 139.979425730477004, 35.365092317205388 ], [ 139.940568322850027, 35.34962539371061 ], [ 139.90006067240634, 35.337339978316678 ], [ 139.858288791949207, 35.328352876216663 ], [ 139.81565024382661, 35.322749467065606 ], [ 139.772550488345274, 35.320582925763752 ], [ 139.729399172305108, 35.321873739372101 ], [ 139.686606386425694, 35.326609523807328 ], [ 139.644578920433389, 35.334745141588066 ], [ 139.603716544531437, 35.346203119531978 ], [ 139.564408345894435, 35.360874362942432 ], [ 139.527029148706163, 35.378619160481534 ], [ 139.491936046088796, 35.39926847161275 ], [ 139.45946507203854, 35.422625486216369 ], [ 139.4299280411675, 35.448467443744434 ], [ 139.403609583631379, 35.476547697094752 ], [ 139.380764402064926, 35.506598004255387 ], [ 139.361614776621849, 35.538331028710694 ], [ 139.346348343283267, 35.57144302761818 ], [ 139.335116169419621, 35.605616704876518 ], [ 139.328031149126559, 35.640524204422526 ], [ 139.32516673906332, 35.675830217439163 ], [ 139.326556053372911, 35.711195175649408 ], [ 139.332191333719379, 35.746278501535542 ], [ 139.34202380752663, 35.780741885191418 ], [ 139.355963944130792, 35.814252556614271 ], [ 139.373882114770254, 35.846486521607893 ], [ 139.395609658157127, 35.877131729132223 ], [ 139.420940348837291, 35.905891137928954 ], [ 139.449632260712008, 35.932485650607958 ], [ 139.481410013038925, 35.956656884121934 ], [ 139.515967381044732, 35.978169746705468 ], [ 139.552970248077315, 35.996814792921477 ], [ 139.592059871120568, 36.012410330446158 ], [ 139.632856426617309, 36.024804254623227 ], [ 139.674962799028236, 36.0338755896111 ], [ 139.717968570521663, 36.039535718099614 ], [ 139.761454166762718, 36.041729285044241 ], [ 139.804995111053614, 36.040434764601194 ], [ 139.848166337154538, 36.035664683383089 ], [ 139.890546510051848, 36.027465497223567 ], [ 139.931722303765696, 36.015917122763931 ], [ 139.971292586017228, 36.001132129280236 ], [ 140.008872461173581, 35.983254600178654 ], [ 140.044097125316654, 35.962458677427691 ], [ 140.076625490454546, 35.938946805801201 ], [ 140.106143538721653, 35.912947697118135 ], [ 140.132367371777661, 35.88471403763365 ], [ 140.155045925395143, 35.854519964325235 ], [ 140.173963324286603, 35.822658337999215 ], [ 140.188940857440514, 35.789437842903936 ], [ 140.199838559481236, 35.755179943871667 ], [ 140.206556388732253, 35.720215732928793 ], [ 140.209034997640487, 35.684882697827689 ] ] ] } },
{ "type": "Feature", "properties": { "city": "LON", "radius_km": 40 }, "geometry": { "type": "Polygon", "coordinates": [ [ [ 0.463014579470011, 51.487574372142355 ], [ 0.457581398460921, 51.452466565229898 ], [ 0.446680304812538, 51.41785921272443 ], [ 0.430427892340548, 51.38408388400903 ], [ 0.408991019346812, 51.35146348019807 ], [ 0.382584817477956, 51.320309218653406 ], [ 0.351470301632475, 51.290917750372344 ], [ 0.315951614838867, 51.26356843346074 ], [ 0.276372942520669, 51.238520783909834 ], [ 0.233115130540489, 51.21601212289189 ], [ 0.186592040991463, 51.196255437797085 ], [ 0.137246678996108, 51.179437472267416 ], [ 0.085547122888138, 51.165717058550257 ], [ 0.031982289191807, 51.155223703596931 ], [ -0.022942437135872, 51.148056438471357 ], [ -0.07870967759723, 51.144282938802299 ], [ -0.13479461129165, 51.143938922207099 ], [ -0.19066957392878, 51.147027826823084 ], [ -0.245808676636953, 51.153520773297878 ], [ -0.299692416528801, 51.163356810801076 ], [ -0.351812250776075, 51.176443445816489 ], [ -0.401675105492413, 51.192657450649257 ], [ -0.448807790049684, 51.211845946725049 ], [ -0.492761286597058, 51.233827755863317 ], [ -0.533114883563123, 51.258395010768446 ], [ -0.569480120863897, 51.285315013996815 ], [ -0.601504513490715, 51.314332332626051 ], [ -0.628875019200691, 51.34517111377717 ], [ -0.651321215278394, 51.377537604028731 ], [ -0.668618148888754, 51.411122853628207 ], [ -0.680588825511686, 51.445605584265614 ], [ -0.68710630045383, 51.480655197056102 ], [ -0.688095339584733, 51.515934895309002 ], [ -0.683533617347773, 51.551104894683199 ], [ -0.673452422839523, 51.585825691483272 ], [ -0.657936848403735, 51.61976135819183 ], [ -0.6371254397884, 51.652582833913272 ], [ -0.611209292473698, 51.683971176282647 ], [ -0.580430585263227, 51.713620740628976 ], [ -0.545080549566276, 51.741242251831466 ], [ -0.505496880866029, 51.766565734423864 ], [ -0.462060607503769, 51.789343267129006 ], [ -0.415192440908559, 51.809351529177142 ], [ -0.36534864052522, 51.826394107498515 ], [ -0.313016435674814, 51.840303536183768 ], [ -0.258709055139074, 51.850943042464174 ], [ -0.202960423108505, 51.858207976840717 ], [ -0.146319586999376, 51.862026908837741 ], [ -0.089344948279445, 51.862362374100172 ], [ -0.032598371635917, 51.859211263109835 ], [ 0.023360749586539, 51.852604846567083 ], [ 0.077981392854988, 51.84260843736039 ], [ 0.130726692839831, 51.829320693919264 ], [ 0.181079539281341, 51.812872574500766 ], [ 0.228547915021626, 51.793425956492726 ], [ 0.272669908471657, 51.771171939028655 ], [ 0.313018341594303, 51.746328851015804 ], [ 0.349204962278731, 51.719139990012856 ], [ 0.380884158485218, 51.689871120203655 ], [ 0.40775616046681, 51.658807759971175 ], [ 0.429569706442905, 51.626252291266759 ], [ 0.446124156042837, 51.592520924101215 ], [ 0.457271044414872, 51.557940550079834 ], [ 0.462915077903248, 51.522845518996299 ], [ 0.463014579470011, 51.487574372142355 ] ] ] } },
{ "type": "Feature", "properties": { "city": "NYC", "radius_km": 40 }, "geometry": { "type": "Polygon", "coordinates": [ [ [ -73.503513578796259, 40.747555363757478 ], [ -73.506584096196576, 40.71227681713362 ], [ -73.514178038456919, 40.677396422000413 ], [ -73.526215530330333, 40.643249104519604 ], [ -73.542574535523372, 40.610162263081733 ], [ -73.563092260793553, 40.578452673632299 ], [ -73.587566918088058, 40.548423512256861 ], [ -73.615759820913667, 40.520361520757362 ], [ -73.647397789553779, 40.494534339189066 ], [ -73.682175838558948, 40.471188027467548 ], [ -73.719760119078884, 40.450544796215532 ], [ -73.75979108801593, 40.432800965017123 ], [ -73.801886875609213, 40.418125164197356 ], [ -73.845646822849574, 40.406656794155715 ], [ -73.890655160031244, 40.398504754162325 ], [ -73.936484797723878, 40.393746450380569 ], [ -73.982701201463925, 40.392427090714008 ], [ -74.02886632148666, 40.394559271893378 ], [ -74.074542548832483, 40.400122862022108 ], [ -74.119296669146934, 40.409065179593277 ], [ -74.162703785449821, 40.421301467774796 ], [ -74.204351181077399, 40.436715660541616 ], [ -74.243842093910757, 40.455161435013835 ], [ -74.280799372913094, 40.476463542142788 ], [ -74.314868987932158, 40.500419405679345 ], [ -74.345723363712992, 40.526800977163205 ], [ -74.373064509150879, 40.555356832498369 ], [ -74.396626913038915, 40.585814493534045 ], [ -74.416180177979086, 40.617882955965086 ], [ -74.431531364785073, 40.651255402813284 ], [ -74.442527020665409, 40.685612080767299 ], [ -74.449054865794636, 40.720623314765653 ], [ -74.451045114609357, 40.755952634425647 ], [ -74.448471410358437, 40.791259984282583 ], [ -74.441351354127619, 40.826204988336208 ], [ -74.42974661277897, 40.860450238143329 ], [ -74.413762594005263, 40.893664572683775 ], [ -74.393547680992356, 40.925526317499973 ], [ -74.369292023980847, 40.955726450210094 ], [ -74.341225891268479, 40.983971659457261 ], [ -74.309617587825201, 41.009987264718603 ], [ -74.274770955599323, 41.033519965185015 ], [ -74.237022475660169, 41.054340387159172 ], [ -74.196737998406832, 41.072245401113747 ], [ -74.154309134022839, 41.087060181705858 ], [ -74.110149341010271, 41.098639986644898 ], [ -74.064689755831012, 41.106871633330741 ], [ -74.018374811260813, 41.111674655581822 ], [ -73.971657694877422, 41.113002126501208 ], [ -73.924995702036469, 41.110841137524055 ], [ -73.878845539637226, 41.10521292787417 ], [ -73.83365863788255, 41.096172662953805 ], [ -73.789876527059889, 41.083808864511738 ], [ -73.747926335122798, 41.068242499697327 ], [ -73.708216459574587, 41.049625740226162 ], [ -73.671132463928032, 41.028140406782114 ], [ -73.637033244941904, 41.003996117386286 ], [ -73.606247512050629, 40.977428161722237 ], [ -73.579070615055869, 40.948695126265662 ], [ -73.555761750399583, 40.918076297496711 ], [ -73.536541570350551, 40.885868872451255 ], [ -73.521590213369009, 40.852385007386523 ], [ -73.511045767918148, 40.817948736404318 ], [ -73.505003176197434, 40.782892792504072 ], [ -73.503513578796259, 40.747555363757478 ] ] ] } },
{ "type": "Feature", "properties": { "city": "PAR", "radius_km": 40 }, "geometry": { "type": "Polygon", "coordinates": [ [ [ 2.89261682982328, 48.85666931475172 ], [ 2.89006820500604, 48.821396930534419 ], [ 2.882303270887892, 48.786458736222855 ], [ 2.869407318133588, 48.752190180844266 ], [ 2.851514201063069, 48.718919617518083 ], [ 2.828804686621563, 48.686965208684789 ], [ 2.801504400644845, 48.656631950763362 ], [ 2.769881402203442, 48.62820884329853 ], [ 2.73424341796887, 48.601966225686866 ], [ 2.694934769163098, 48.578153302544017 ], [ 2.652333023825055, 48.556995876719078 ], [ 2.606845406952568, 48.538694306895387 ], [ 2.558905000649715, 48.523421704658183 ], [ 2.508966765817738, 48.511322383864744 ], [ 2.45750341625433, 48.502510573131048 ], [ 2.405001175343331, 48.497069400250574 ], [ 2.351955444886343, 48.495050155387283 ], [ 2.298866415099303, 48.496471837932233 ], [ 2.246234644409069, 48.501320989978346 ], [ 2.19455663746346, 48.50955181744628 ], [ 2.144320449727262, 48.521086597978922 ], [ 2.096001347178049, 48.535816372807865 ], [ 2.05005754992935, 48.553601917876804 ], [ 2.006926089071949, 48.574274987576274 ], [ 1.967018806602605, 48.597639822500128 ], [ 1.930718528956324, 48.623474910668804 ], [ 1.898375445315259, 48.651534989680478 ], [ 1.870303722464765, 48.681553275245122 ], [ 1.846778388425453, 48.713243899535499 ], [ 1.828032517321265, 48.746304540758814 ], [ 1.814254747853292, 48.78041922332747 ], [ 1.80558716723972, 48.815261266004129 ], [ 1.802123591456964, 48.850496353439794 ], [ 1.803908270983547, 48.885785704644952 ], [ 1.810935048924548, 48.920789310168026 ], [ 1.823146995313839, 48.955169208147851 ], [ 1.84043653750811, 48.988592768003329 ], [ 1.862646101881943, 49.02073594937626 ], [ 1.889569276518884, 49.051286503107249 ], [ 1.920952498317027, 49.079947080551165 ], [ 1.956497260973902, 49.106438217480687 ], [ 1.995862832807365, 49.130501159227705 ], [ 2.038669465466265, 49.151900494610437 ], [ 2.084502066479297, 49.170426567614676 ], [ 2.132914300501383, 49.185897637751509 ], [ 2.183433076281549, 49.198161762500206 ], [ 2.235563369039965, 49.207098378238364 ], [ 2.288793321347009, 49.21261955953026 ], [ 2.342599559971087, 49.214670940526084 ], [ 2.396452661705153, 49.213232286455842 ], [ 2.449822698057031, 49.208317707691073 ], [ 2.502184787012258, 49.199975513505841 ], [ 2.553024579913211, 49.188287707390401 ], [ 2.601843612851353, 49.173369130454006 ], [ 2.648164454789746, 49.1553662639948 ], [ 2.69153558881586, 49.134455706617075 ], [ 2.731535968316945, 49.110842345252294 ], [ 2.767779196279168, 49.084757243016874 ], [ 2.79991728311488, 49.056455269954554 ], [ 2.827643946180223, 49.026212505325425 ], [ 2.850697422211796, 48.994323442188922 ], [ 2.868862772046537, 48.961098026578178 ], [ 2.881973664969583, 48.926858564585757 ], [ 2.889913637661659, 48.891936531196862 ], [ 2.89261682982328, 48.85666931475172 ] ] ] } },
{ "type": "Feature", "properties": { "city": "SIN", "radius_km": 40 }, "geometry": { "type": "Polygon", "coordinates": [ [ [ 104.210843602930126, 1.283154329939779 ], [ 104.209123134447424, 1.247685694980185 ], [ 104.203956657547494, 1.212557638617095 ], [ 104.195394079206835, 1.178108530489113 ], [ 104.183518012288388, 1.144670185670543 ], [ 104.16844297585466, 1.11256466855149 ], [ 104.150314288853934, 1.082101190823606 ], [ 104.129306667777882, 1.053573133374879 ], [ 104.105622541692682, 1.027255220743042 ], [ 104.079490100742774, 1.003400875352105 ], [ 104.051161096791262, 0.982239777068017 ], [ 104.020908417270434, 0.963975651668136 ], [ 103.989023455539723, 0.948784309638713 ], [ 103.955813303063437, 0.936811954312006 ], [ 103.921597790497557, 0.92817377575095 ], [ 103.886706406290728, 0.922952844009042 ], [ 103.851475122635293, 0.921199312464596 ], [ 103.816243159532831, 0.922929938883324 ], [ 103.781349718348679, 0.928127928735496 ], [ 103.747130716512729, 0.936743102119916 ], [ 103.713915554975941, 0.948692382463932 ], [ 103.682023949654223, 0.963860602013901 ], [ 103.651762857392583, 0.982101616040574 ], [ 103.623423525974061, 1.003239714693382 ], [ 103.597278696400025, 1.02707131857867 ], [ 103.573579984099823, 1.053366941438441 ], [ 103.552555463914885, 1.081873400793058 ], [ 103.534407481671423, 1.112316255104931 ], [ 103.519310712932423, 1.144402443937433 ], [ 103.507410487132375, 1.177823105737558 ], [ 103.498821392772228, 1.212256546272124 ], [ 103.493626176710521, 1.247371329402637 ], [ 103.491874947854768, 1.282829460798012 ], [ 103.493584692751824, 1.318289634360411 ], [ 103.498739107719075, 1.353410510579326 ], [ 103.507288749264248, 1.387853995734362 ], [ 103.519151501630105, 1.421288490838835 ], [ 103.534213357385127, 1.453392079455555 ], [ 103.552329504081683, 1.483855624023726 ], [ 103.573325707137727, 1.512385741112368 ], [ 103.596999976287279, 1.538707627060727 ], [ 103.623124500212029, 1.562567706778169 ], [ 103.651447831338231, 1.583736080051498 ], [ 103.681697300286189, 1.602008741540304 ], [ 103.71358163712506, 1.617209552721304 ], [ 103.746793774444612, 1.629191946357495 ], [ 103.781013805337864, 1.637840346599741 ], [ 103.815912067726615, 1.643071290555428 ], [ 103.851152325081756, 1.64483424005469 ], [ 103.88639501251788, 1.643112075379392 ], [ 103.921300516496927, 1.637921265859506 ], [ 103.955532455973511, 1.629311715449381 ], [ 103.98876093276229, 1.617366284633843 ], [ 104.020665719209887, 1.602199993241879 ], [ 104.050939351902585, 1.583958911924302 ], [ 104.079290101128407, 1.562818753143278 ], [ 104.105444787118131, 1.538983175489819 ], [ 104.129151415695489, 1.512681817957308 ], [ 104.150181607843507, 1.48416808342534 ], [ 104.168332799814706, 1.453716693023193 ], [ 104.183430192746158, 1.421621035224732 ], [ 104.195328433255753, 1.388190335459452 ], [ 104.203913009161639, 1.353746673694312 ], [ 104.209101347254119, 1.318621878838324 ], [ 104.210843602930126, 1.283154329939779 ] ] ] } }
]
}
