{
"type": "FeatureCollection",
"name": "radius_50km",
"crs": { "type": "name", "properties": { "name": "urn:ogc:def:crs:OGC:1.3:CRS84" } },
"features": [
{ "type": "Feature", "properties": { "city": "TYO", "radius_km": 50 }, "geometry": { "type": "Polygon", "coordinates": [ [ [ 140.319542107179387, 35.685558038284235 ], [ 140.317257734019222, 35.641357785156956 ], [ 140.309681974246985, 35.597552540027912 ], [ 140.296896199074098, 35.554563292321667 ], [ 140.279031312065598, 35.512802532619141 ], [ 140.256266197932007, 35.472670342736073 ], [ 140.22882574739495, 35.43455062626397 ], [ 140.19697848595203, 35.398807512417967 ], [ 140.161033836265943, 35.365781963823096 ], [ 140.121339045338118, 35.335788616524937 ], [ 140.078275808665438, 35.309112878058571 ], [ 140.032256624283974, 35.286008306871686 ], [ 139.98372091004731, 35.266694293789762 ], [ 139.933130917724185, 35.251354063547943 ], [ 139.880967477587888, 35.240133011704458 ], [ 139.827725607156367, 35.233137389506886 ], [ 139.773910017664548, 35.230433346510438 ], [ 139.72003055174153, 35.232046337959247 ], [ 139.666597585655097, 35.237960901142891 ], [ 139.614117429380912, 35.248120802141202 ], [ 139.563087757677209, 35.262429551579437 ], [ 139.513993105291206, 35.28075128524042 ], [ 139.467300459392192, 35.30291200262802 ], [ 139.423454982307589, 35.328701153855789 ], [ 139.382875897611143, 35.357873562548335 ], [ 139.34595257255458, 35.390151669799899 ], [ 139.313040829707461, 35.425228081636448 ], [ 139.284459520432989, 35.462768399881149 ], [ 139.260487392432282, 35.502414313832531 ], [ 139.24136028297093, 35.54378692773917 ], [ 139.227268668502091, 35.586490296703445 ], [ 139.218355600147675, 35.630115141386028 ], [ 139.214715052822356, 35.674242709730962 ], [ 139.21639071362128, 35.718448751915325 ], [ 139.223375232373343, 35.762307572879671 ], [ 139.235609953944135, 35.8053961251549 ], [ 139.252985147914728, 35.847298103312426 ], [ 139.275340746656099, 35.887608000279492 ], [ 139.302467597568949, 35.925935085030702 ], [ 139.334109229409052, 35.961907260848307 ], [ 139.36996412623472, 35.995174763487476 ], [ 139.409688495698333, 36.025413659238978 ], [ 139.452899511292202, 36.052329104088898 ], [ 139.499179000904576, 36.075658326962916 ], [ 139.548077546833724, 36.095173302425785 ], [ 139.599118955440503, 36.110683081181421 ], [ 139.651805048101238, 36.122035750267216 ], [ 139.705620719257666, 36.129119998914447 ], [ 139.760039202342995, 36.131866270599815 ], [ 139.814527480361988, 36.130247486759842 ], [ 139.868551775063054, 36.124279332893103 ], [ 139.921583047058078, 36.114020103224767 ], [ 139.973102438985563, 36.099570105646379 ], [ 140.02260659487817, 36.081070634151466 ], [ 140.069612791253633, 36.058702521351385 ], [ 140.113663819013482, 36.032684288766056 ], [ 140.154332559879094, 36.003269917342024 ], [ 140.19122620666505, 35.970746264971197 ], [ 140.223990082996522, 35.93543016159888 ], [ 140.252311024921397, 35.897665215768086 ], [ 140.275920294043658, 35.857818369120892 ], [ 140.294595999107031, 35.816276237450396 ], [ 140.30816501019919, 35.77344127837717 ], [ 140.316504356756184, 35.729727826630871 ], [ 140.319542107179387, 35.685558038284235 ] ] ] } },
{ "type": "Feature", "properties": { "city": "LON", "radius_km": 50 }, "geometry": { "type": "Polygon", "coordinates": [ [ [ 0.606760080963342, 51.483236476659215 ], [ 0.599833380488933, 51.439362640406294 ], [ 0.586080698896514, 51.396122259387539 ], [ 0.565652544355275, 51.353929044653775 ], [ 0.538761698125919, 51.313185606282865 ], [ 0.505680574391293, 51.274279725314159 ], [ 0.466738110343728, 51.237580799431527 ], [ 0.422316232586018, 51.20343648942719 ], [ 0.372845945230145, 51.17216959085777 ], [ 0.31880308375727, 51.144075152753487 ], [ 0.260703776922989, 51.119417862778853 ], [ 0.19909965693277, 51.098429715881046 ], [ 0.134572855936724, 51.081307981200702 ], [ 0.067730824744989, 51.068213479852282 ], [ -0.000798992331367, 51.059269184098838 ], [ -0.070374594351452, 51.05455914643111 ], [ -0.140344941572574, 51.054127765099167 ], [ -0.210055524491361, 51.057979390716419 ], [ -0.278853954928204, 51.06607827664191 ], [ -0.346095550098751, 51.078348873931411 ], [ -0.411148880264399, 51.094676469709299 ], [ -0.47340124974857, 51.114908165839005 ], [ -0.532264079876912, 51.138854192740297 ], [ -0.58717816079482, 51.16628955110405 ], [ -0.637618737200818, 51.196955972077149 ], [ -0.683100390894634, 51.230564184218117 ], [ -0.723181680779021, 51.266796473154336 ], [ -0.757469498699667, 51.30530951739631 ], [ -0.785623097401756, 51.345737481188173 ], [ -0.807357745086794, 51.387695342603656 ], [ -0.822447959745091, 51.43078243234914 ], [ -0.830730275803782, 51.474586155937764 ], [ -0.832105495856063, 51.518685869087101 ], [ -0.826540381508632, 51.562656873417524 ], [ -0.814068739869791, 51.606074496848684 ], [ -0.794791866043118, 51.648518220582638 ], [ -0.768878307296339, 51.689575812302976 ], [ -0.736562921396997, 51.728847423305325 ], [ -0.698145209941098, 51.765949605795697 ], [ -0.653986917273684, 51.800519205650794 ], [ -0.604508896662048, 51.832217085614488 ], [ -0.550187257506733, 51.860731634293913 ], [ -0.491548820262137, 51.885782017479094 ], [ -0.429165919020805, 51.907121130291145 ], [ -0.363650604973711, 51.924538211482648 ], [ -0.295648316738421, 51.937861084864352 ], [ -0.225831095380616, 51.946957997272371 ], [ -0.154890432386398, 51.951739027648571 ], [ -0.083529847455157, 51.952157047582226 ], [ -0.01245729941948, 51.948208219921824 ], [ 0.057622462411737, 51.939932028661872 ], [ 0.126015497819307, 51.927410840073144 ], [ 0.19204611878581, 51.910769001799032 ], [ 0.255064072714191, 51.890171493212968 ], [ 0.314451368686167, 51.865822146553342 ], [ 0.369628658244178, 51.837961464074532 ], [ 0.420061092553181, 51.806864061545539 ], [ 0.465263589574658, 51.772835772795119 ], [ 0.504805457607937, 51.736210453570365 ], [ 0.538314334755001, 51.697346525713179 ], [ 0.565479417087746, 51.656623304556959 ], [ 0.586053961120298, 51.614437153530915 ], [ 0.599857058245173, 51.571197510281443 ], [ 0.60677468977994, 51.527322828248678 ], [ 0.606760080963342, 51.483236476659215 ] ] ] } },
{ "type": "Feature", "properties": { "city": "NYC", "radius_km": 50 }, "geometry": { "type": "Polygon", "coordinates": [ [ [ -73.38510564771029, 40.745959001131453 ], [ -73.389021105443504, 40.701866151173562 ], [ -73.398586823767545, 40.658276520091007 ], [ -73.413700179203516, 40.615608327746315 ], [ -73.434206125613287, 40.574270193840718 ], [ -73.459899040674216, 40.534657295438898 ], [ -73.490525004653975, 40.497147676776173 ], [ -73.525784479297869, 40.462098742205143 ], [ -73.56533535339058, 40.429843960829224 ], [ -73.60879632080561, 40.400689808992745 ], [ -73.655750556513212, 40.374912974374062 ], [ -73.705749655985827, 40.352757842975947 ], [ -73.758317803629112, 40.334434287836551 ], [ -73.812956136196021, 40.320115775800481 ], [ -73.869147267539304, 40.309937806195357 ], [ -73.926359941463204, 40.30399669275748 ], [ -73.984053779799424, 40.302348697637257 ], [ -74.04168409311653, 40.30500952379419 ], [ -74.098706721649606, 40.311954169558405 ], [ -74.154582874089826, 40.32311714659366 ], [ -74.208783931796404, 40.338393059943499 ], [ -74.260796185788919, 40.357637546280273 ], [ -74.310125473558699, 40.380668563906006 ], [ -74.356301682328734, 40.407268025476036 ], [ -74.398883084923852, 40.437183761833346 ], [ -74.437460473932916, 40.470131802754715 ], [ -74.471661059404951, 40.50579895782343 ], [ -74.501152094989195, 40.543845678061381 ], [ -74.525644197277742, 40.58390917638328 ], [ -74.54489432322471, 40.625606782389745 ], [ -74.558708370987574, 40.668539504506192 ], [ -74.566943370459526, 40.712295770026643 ], [ -74.569509231230896, 40.756455311258321 ], [ -74.566370017825363, 40.800593163723576 ], [ -74.557544724880827, 40.844283740299971 ], [ -74.543107528553932, 40.887104943318668 ], [ -74.523187494862526, 40.928642275050748 ], [ -74.497967730958479, 40.96849290575409 ], [ -74.467683971426638, 41.006269657591666 ], [ -74.432622598579187, 41.041604862331205 ], [ -74.39311810326339, 41.074154050857807 ], [ -74.349550000789094, 41.103599433226812 ], [ -74.302339225035752, 41.129653129300046 ], [ -74.251944032408559, 41.152060111971814 ], [ -74.19885545584269, 41.170600827613633 ], [ -74.14359235724983, 41.185093461640633 ], [ -74.086696134400171, 41.195395820996872 ], [ -74.028725144980314, 41.201406809818934 ], [ -73.97024891622759, 41.203067479494024 ], [ -73.911842212906876, 41.200361639685568 ], [ -73.854079039307067, 41.193316022547151 ], [ -73.797526652280581, 41.181999998161395 ], [ -73.74273966207916, 41.166524845096134 ], [ -73.690254295864804, 41.147042585733594 ], [ -73.640582895366123, 41.123744401573425 ], [ -73.594208715339292, 41.096858648918626 ], [ -73.55158108345401, 41.066648500122028 ], [ -73.51311097518014, 41.033409239812286 ], [ -73.47916704944106, 40.997465249169373 ], [ -73.450072182488597, 40.959166714334287 ], [ -73.426100528899113, 40.918886097398932 ], [ -73.407475130043082, 40.87701441012576 ], [ -73.394366082067549, 40.833957331617768 ], [ -73.386889267551922, 40.790131211629394 ], [ -73.38510564771029, 40.745959001131453 ] ] ] } },
{ "type": "Feature", "properties": { "city": "PAR", "radius_km": 50 }, "geometry": { "type": "Polygon", "coordinates": [ [ [ 3.028945481904857, 48.856715685844925 ], [ 3.025640672596096, 48.812628966715138 ], [ 3.015820256836956, 48.768967484391993 ], [ 2.999595184009917, 48.726150089368865 ], [ 2.977136727296661, 48.684586498142693 ], [ 2.948674275356635, 48.644673455019088 ], [ 2.914492642687647, 48.606791051406546 ], [ 2.874928941043367, 48.571299232311432 ], [ 2.830369054658954, 48.538534517106783 ], [ 2.781243761701996, 48.508806959012922 ], [ 2.728024543481796, 48.482397365123845 ], [ 2.671219121672002, 48.459554796263483 ], [ 2.611366762276677, 48.440494363469746 ], [ 2.549033383432045, 48.425395335488403 ], [ 2.484806502503695, 48.414399569311804 ], [ 2.419290056413394, 48.407610273515715 ], [ 2.353099127794837, 48.405091111922012 ], [ 2.286854608500303, 48.406865652937057 ], [ 2.221177831210314, 48.412917167774594 ], [ 2.156685199469587, 48.423188778655252 ], [ 2.093982846402817, 48.437583955970979 ], [ 2.033661352655874, 48.455967361299471 ], [ 1.976290554748716, 48.478166031037517 ], [ 1.922414475987435, 48.503970893282144 ], [ 1.872546413319328, 48.533138608410489 ], [ 1.827164214965063, 48.565393721583817 ], [ 1.786705785246588, 48.600431113117104 ], [ 1.751564854651485, 48.63791873030695 ], [ 1.722087054719452, 48.677500581892431 ], [ 1.698566338673773, 48.718799973840149 ], [ 1.681241789705322, 48.761422962601188 ], [ 1.670294859293285, 48.804961999405343 ], [ 1.665847077754868, 48.848999736558277 ], [ 1.667958278195831, 48.893112964132605 ], [ 1.676625373034004, 48.936876642937818 ], [ 1.691781719156208, 48.979867997280692 ], [ 1.71329710344026, 49.021670628854572 ], [ 1.740978374760998, 49.061878611202722 ], [ 1.774570741682969, 49.100100522674929 ], [ 1.813759746858847, 49.135963374722081 ], [ 1.858173919799841, 49.169116391842358 ], [ 1.907388099325508, 49.199234599581125 ], [ 1.96092740586321, 49.226022177768243 ], [ 2.018271832139513, 49.249215537701488 ], [ 2.078861409025772, 49.268586084288543 ], [ 2.14210189174406, 49.283942627247704 ], [ 2.207370900704586, 49.295133409321807 ], [ 2.27402444132984, 49.302047724028583 ], [ 2.341403718701871, 49.304617100679849 ], [ 2.408842156083857, 49.302816040142737 ], [ 2.47567252159095, 49.296662290964512 ], [ 2.541234064715721, 49.286216661888041 ], [ 2.60487956415824, 49.271582373294414 ], [ 2.665982190480661, 49.252903956555549 ], [ 2.723942091414909, 49.230365716506029 ], [ 2.778192614021183, 49.204189778099291 ], [ 2.82820608606544, 49.174633743665289 ], [ 2.873499088631351, 49.141987991924573 ], [ 2.913637162736191, 49.106572653951858 ], [ 2.948238904185573, 49.068734304565218 ], [ 2.97697941268012, 49.028842410116589 ], [ 2.999593072895943, 48.98728557537688 ], [ 3.015875656552141, 48.944467633170142 ], [ 3.025685745052637, 48.900803620665386 ], [ 3.028945481904857, 48.856715685844925 ] ] ] } },
{ "type": "Feature", "properties": { "city": "SIN", "radius_km": 50 }, "geometry": { "type": "Polygon", "coordinates": [ [ [ 104.300725825975434, 1.283180645093316 ], [ 104.298573635786369, 1.238844018688708 ], [ 104.292113863671105, 1.194933283378392 ], [ 104.281408947787284, 1.151871414510906 ], [ 104.266562203593921, 1.110073190052035 ], [ 104.247716823696905, 1.069941196169118 ], [ 104.225054495000748, 1.031861950238401 ], [ 104.198793646264434, 0.996202178443019 ], [ 104.169187342627097, 0.963305283733511 ], [ 104.136520847025892, 0.933488038192258 ], [ 104.101108871642808, 0.907037531782502 ], [ 104.063292545558141, 0.88420840707973 ], [ 104.023436127616137, 0.865220406890633 ], [ 103.981923496087987, 0.850256258680468 ], [ 103.939154449007049, 0.839459916477213 ], [ 103.895540851013735, 0.832935177430578 ], [ 103.851502664148597, 0.830744686511887 ], [ 103.807463901240268, 0.832909338989018 ], [ 103.76384854132823, 0.839408086345621 ], [ 103.721076446921515, 0.85017814728576 ], [ 103.679559322819259, 0.865115621425994 ], [ 103.639696755708272, 0.884076499279096 ], [ 103.601872372820225, 0.906878058227786 ], [ 103.566450156597483, 0.933300630420978 ], [ 103.533770950609181, 0.963089724942161 ], [ 103.504149189914358, 0.995958483237417 ], [ 103.477869886722246, 1.031590443680358 ], [ 103.455185899594426, 1.069642588317533 ], [ 103.436315511606722, 1.109748642298529 ], [ 103.421440339881471, 1.151522594262018 ], [ 103.410703595746526, 1.194562404029053 ], [ 103.404208711508261, 1.238453862350546 ], [ 103.402018346467628, 1.28277456616698 ], [ 103.404153781382831, 1.327097971863106 ], [ 103.410594707107165, 1.370997488336668 ], [ 103.421279409619416, 1.4140505713466 ], [ 103.436105350131697, 1.455842780562506 ], [ 103.45493013541477, 1.495971761005244 ], [ 103.477572869941426, 1.534051111151215 ], [ 103.503815877928034, 1.569714100874952 ], [ 103.533406779874952, 1.602617203630569 ], [ 103.566060904795634, 1.632443408826706 ], [ 103.601464016010283, 1.658905282233715 ], [ 103.639275325203414, 1.681747744474918 ], [ 103.679130766444558, 1.700750540189692 ], [ 103.720646499093746, 1.715730373303242 ], [ 103.76342260600542, 1.726542686977711 ], [ 103.807046951251479, 1.733083070226098 ], [ 103.851099159750945, 1.735288276811336 ], [ 103.895154679759329, 1.733136845887983 ], [ 103.938788888167309, 1.726649317827385 ], [ 103.981581198008911, 1.715888042748092 ], [ 104.023119127499768, 1.700956583397654 ], [ 104.063002290316462, 1.681998718144094 ], [ 104.100846267683806, 1.659197053880021 ], [ 104.136286324136933, 1.63277126256634 ], [ 104.168980930546226, 1.602975958896399 ], [ 104.198615060095378, 1.570098240100964 ], [ 104.224903225350914, 1.534454912201519 ], [ 104.247592227306939, 1.496389430022621 ], [ 104.266463590287998, 1.456268580969116 ], [ 104.281335659800433, 1.41447894494288 ], [ 104.292065343794846, 1.37142316480476 ], [ 104.298549481299688, 1.327516063473649 ], [ 104.300725825975434, 1.283180645093316 ] ] ] } }
]
}
