{
"type": "FeatureCollection",
"name": "radius_30km",
"crs": { "type": "name", "properties": { "name": "urn:ogc:def:crs:OGC:1.3:CRS84" } },
"features": [
{ "type": "Feature", "properties": { "city": "TYO", "radius_km": 30 }, "geometry": { "type": "Polygon", "coordinates": [ [ [ 140.098531840367855, 35.684105940510037 ], [ 140.097234130306418, 35.657584311037702 ], [ 140.092759123495512, 35.631293997136687 ], [ 140.085152960104381, 35.605487887870403 ], [ 140.074491712739956, 35.58041397597119 ], [ 140.060880547129756, 35.556312990979748 ], [ 140.044452615772315, 35.533416110202921 ], [ 140.02536769861149, 35.511942768353144 ], [ 140.003810606567555, 35.492098585553236 ], [ 139.979989365291573, 35.474073432077219 ], [ 139.95413319782179, 35.458039646769031 ], [ 139.926490325922458, 35.444150424550152 ], [ 139.897325610800976, 35.432538386811295 ], [ 139.866918054643293, 35.42331434679312 ], [ 139.835558185001503, 35.416566280310839 ], [ 139.803545344529454, 35.412358510377516 ], [ 139.771184908903962, 35.410731112442427 ], [ 139.738785456011954, 35.411699545094088 ], [ 139.706655909628211, 35.415254509191399 ], [ 139.675102680873067, 35.421362036490834 ], [ 139.644426830718999, 35.429963806941309 ], [ 139.614921276720139, 35.440977691929895 ], [ 139.586868066958488, 35.454298518889232 ], [ 139.56053574394025, 35.469799050830936 ], [ 139.536176820813779, 35.487331172555095 ], [ 139.51402539182132, 35.506727273515011 ], [ 139.494294898310415, 35.52780181559563 ], [ 139.477176070914112, 35.550353072405265 ], [ 139.462835067636234, 35.574165025091261 ], [ 139.451411826531029, 35.599009398184911 ], [ 139.443018650430986, 35.624647817569247 ], [ 139.437739039727575, 35.650834071360265 ], [ 139.43562678753554, 35.677316453312336 ], [ 139.436705349658524, 35.703840167317772 ], [ 139.4409674996121, 35.730149770686111 ], [ 139.448375276550621, 35.755991633180038 ], [ 139.458860231289208, 35.781116388268472 ], [ 139.472323972726485, 35.805281352754399 ], [ 139.488639013879919, 35.828252890861627 ], [ 139.507649913475262, 35.849808699038512 ], [ 139.529174705627867, 35.869739988170515 ], [ 139.553006606666372, 35.887853540600197 ], [ 139.578915984639451, 35.903973620336842 ], [ 139.606652573579055, 35.917943716102954 ], [ 139.635947911242681, 35.929628098405047 ], [ 139.666517975893896, 35.938913173622488 ], [ 139.698065994782638, 35.945708620164822 ], [ 139.730285394422651, 35.949948294029717 ], [ 139.762862860601928, 35.951590893574696 ], [ 139.795481474357985, 35.950620375957854 ], [ 139.827823888951315, 35.947046120468904 ], [ 139.859575512209659, 35.94090283681826 ], [ 139.890427658512834, 35.93225021933128 ], [ 139.920080635144245, 35.92117235086296 ], [ 139.948246728740315, 35.907776863056654 ], [ 139.974653059095033, 35.892193862275363 ], [ 139.999044269581645, 35.874574633093232 ], [ 140.021185025885956, 35.855090133611753 ], [ 140.040862297541366, 35.833929299026991 ], [ 140.057887399846777, 35.81129717179369 ], [ 140.072097777059213, 35.787412878391748 ], [ 140.083358511211287, 35.762507474084089 ], [ 140.09156354443391, 35.736821678156254 ], [ 140.096636606198388, 35.710603522946151 ], [ 140.098531840367855, 35.684105940510037 ] ] ] } },
{ "type": "Feature", "properties": { "city": "LON", "radius_km": 30 }, "geometry": { "type": "Polygon", "coordinates": [ [ [ 0.319233861729709, 51.491736298757559 ], [ 0.315240242302587, 51.465399050036446 ], [ 0.307140454869293, 51.439432393057416 ], [ 0.295019063704372, 51.41408544614432 ], [ 0.278998658399109, 51.389600987969231 ], [ 0.259238453795987, 51.366213171712843 ], [ 0.235932573729002, 51.344145334050026 ], [ 0.209308041568389, 51.323607917537863 ], [ 0.179622501706782, 51.304796523586042 ], [ 0.147161696895902, 51.287890111735479 ], [ 0.11223672680932, 51.273049359479351 ], [ 0.075181113429204, 51.260415195342709 ], [ 0.036347698894447, 51.250107516406011 ], [ -0.003894598638204, 51.242224099917962 ], [ -0.045164145726763, 51.236839717101077 ], [ -0.087070045761434, 51.234005455710538 ], [ -0.129215657429739, 51.233748256363228 ], [ -0.171202154620641, 51.23607066610932 ], [ -0.212632102922272, 51.240950811170748 ], [ -0.253113027853444, 51.248342589217508 ], [ -0.292260949873574, 51.258176079991109 ], [ -0.329703861044675, 51.27035817151279 ], [ -0.365085117988007, 51.284773397530628 ], [ -0.398066725510613, 51.301284980264043 ], [ -0.42833248500578, 51.31973607089639 ], [ -0.455590981497125, 51.339951178650644 ], [ -0.479578383045606, 51.361737777661602 ], [ -0.50006102622616, 51.384888079240589 ], [ -0.51683776156377, 51.409180955521876 ], [ -0.529742033258198, 51.434383998900167 ], [ -0.538643668284213, 51.460255700128499 ], [ -0.543450351088964, 51.486547726467712 ], [ -0.54410876167532, 51.513007279883901 ], [ -0.540605356906272, 51.539379514005311 ], [ -0.532966777426815, 51.565409987403847 ], [ -0.521259865697695, 51.590847129790468 ], [ -0.505591284274468, 51.615444696938553 ], [ -0.486106727629874, 51.638964189610462 ], [ -0.462989725470572, 51.661177211488358 ], [ -0.436460040580322, 51.681867741132983 ], [ -0.406771669648253, 51.700834293335618 ], [ -0.374210461207346, 51.717891945911987 ], [ -0.339091370591108, 51.732874209022242 ], [ -0.301755377575075, 51.745634715494518 ], [ -0.262566097953457, 51.756048712376227 ], [ -0.221906125553965, 51.764014336022186 ], [ -0.180173145960661, 51.769453655426915 ], [ -0.137775867349507, 51.772313471187175 ], [ -0.09512981721274, 51.772565860393229 ], [ -0.052653056246671, 51.770208460844763 ], [ -0.010761862220476, 51.765264491208853 ], [ 0.030133562820608, 51.757782507022242 ], [ 0.069633309152822, 51.747835895721813 ], [ 0.10735184840297, 51.735522117102278 ], [ 0.14292194609144, 51.720961698684739 ], [ 0.175998352096464, 51.704296998378062 ], [ 0.206261227535345, 51.68569074947397 ], [ 0.23341927127957, 51.665324405396007 ], [ 0.257212514527669, 51.64339630368589 ], [ 0.277414757398195, 51.620119670437617 ], [ 0.293835627218893, 51.595720487765121 ], [ 0.306322243925964, 51.570435247911284 ], [ 0.314760483609779, 51.5445086182797 ], [ 0.319075836625993, 51.51819104201158 ], [ 0.319233861729709, 51.491736298757559 ] ] ] } },
{ "type": "Feature", "properties": { "city": "NYC", "radius_km": 30 }, "geometry": { "type": "Polygon", "coordinates": [ [ [ -73.621930641186097, 40.749030289938318 ], [ -73.624187098068916, 40.722568290767711 ], [ -73.629838477922974, 40.696401578510134 ], [ -73.638826551016692, 40.670781603899009 ], [ -73.651061303770163, 40.645954287417794 ], [ -73.666421935862147, 40.622157683198679 ], [ -73.684758134778846, 40.599619727291135 ], [ -73.705891611523057, 40.578556090361346 ], [ -73.72961787959764, 40.559168153642439 ], [ -73.755708258041594, 40.541641125605238 ], [ -73.783912078199194, 40.526142315378287 ], [ -73.813959073020285, 40.512819577426278 ], [ -73.845561926990172, 40.50179994041337 ], [ -73.878418964243181, 40.493188431539004 ], [ -73.912216951999653, 40.48706710595274 ], [ -73.946633996155157, 40.483494289135123 ], [ -73.981342505623843, 40.482504038384391 ], [ -74.016012201877942, 40.484105827777846 ], [ -74.050313150018852, 40.488284459189366 ], [ -74.083918787654611, 40.495000200145611 ], [ -74.116508927840812, 40.504189147499162 ], [ -74.147772712367299, 40.515763814092097 ], [ -74.177411491748416, 40.529613933784468 ], [ -74.205141608411466, 40.545607478435478 ], [ -74.230697059789094, 40.563591878656489 ], [ -74.253832018329376, 40.583395438413618 ], [ -74.274323185861732, 40.604828931850257 ], [ -74.291971960325441, 40.627687369037901 ], [ -74.30660639360633, 40.651751915756989 ], [ -74.318082920167853, 40.676791950871433 ], [ -74.326287837328806, 40.702567243405149 ], [ -74.331138519465384, 40.728830230072461 ], [ -74.332584350116065, 40.755328372775352 ], [ -74.33060735797126, 40.781806574477031 ], [ -74.325222545040674, 40.808009630916843 ], [ -74.316477897921189, 40.83368469486571 ], [ -74.304454076025678, 40.858583729058232 ], [ -74.289263773866693, 40.882465923599739 ], [ -74.271050757987155, 40.905100053553014 ], [ -74.249988582852922, 40.926266752583281 ], [ -74.226278993917532, 40.945760678992947 ], [ -74.200150030069608, 40.963392551225816 ], [ -74.171853841705939, 40.97899103096757 ], [ -74.141664244652247, 40.992404433319074 ], [ -74.109874033990323, 41.003502245163673 ], [ -74.076792085452539, 41.012176434777992 ], [ -74.04274027532017, 41.018342537926451 ], [ -74.008050252625679, 41.021940508105857 ], [ -73.97306009982988, 41.022935321234094 ], [ -73.938110919958177, 41.021317327865233 ], [ -73.903543389382321, 41.017102348917291 ], [ -73.869694315990486, 41.010331513869936 ], [ -73.836893242383297, 41.001070843376141 ], [ -73.805459132969801, 40.989410581182817 ], [ -73.775697182438293, 40.975464283121205 ], [ -73.747895781083216, 40.959367673658932 ], [ -73.722323669939883, 40.941277283061744 ], [ -73.69922731568316, 40.921368880553246 ], [ -73.678828531868334, 40.899835720955977 ], [ -73.661322369419082, 40.876886624122221 ], [ -73.646875295393244, 40.852743908000406 ], [ -73.635623675070548, 40.827641197423972 ], [ -73.627672568398694, 40.801821131651558 ], [ -73.623094847883166, 40.775532994333282 ], [ -73.621930641186097, 40.749030289938318 ] ] ] } },
{ "type": "Feature", "properties": { "city": "PAR", "radius_km": 30 }, "geometry": { "type": "Polygon", "coordinates": [ [ [ 2.756289131220145, 48.856461754336671 ], [ 2.7544491298437, 48.830005357236423 ], [ 2.748694127725229, 48.803795093018401 ], [ 2.73908547785519, 48.778082815946618 ], [ 2.725721177188319, 48.753115218425471 ], [ 2.708734716915367, 48.729131492351776 ], [ 2.68829361790232, 48.706361074925411 ], [ 2.664597671851466, 48.685021498651764 ], [ 2.63787691023648, 48.665316363913782 ], [ 2.608389324193658, 48.647433451051974 ], [ 2.576418359359974, 48.631542987386403 ], [ 2.542270210186206, 48.617796083062338 ], [ 2.506270938571116, 48.606323348015472 ], [ 2.468763441810808, 48.597233700744098 ], [ 2.43010429488347, 48.590613377953119 ], [ 2.390660492036758, 48.58652515250467 ], [ 2.350806112550813, 48.585007765476782 ], [ 2.310918935445789, 48.586075576497734 ], [ 2.271377027812952, 48.589718434891168 ], [ 2.232555331389887, 48.595901772536649 ], [ 2.194822271982273, 48.604566917721414 ], [ 2.158536416358052, 48.61563162763273 ], [ 2.124043201298119, 48.628990835515282 ], [ 2.091671759566145, 48.644517606895477 ], [ 2.061731867636655, 48.662064297654972 ], [ 2.034511040065693, 48.681463905121376 ], [ 2.010271795366257, 48.702531601738933 ], [ 1.989249118119389, 48.725066439289691 ], [ 1.971648141765035, 48.748853210066542 ], [ 1.957642076024682, 48.77366444985951 ], [ 1.947370402159207, 48.799262566123375 ], [ 1.9409373582094, 48.825402073258459 ], [ 1.938410734955506, 48.851831915581251 ], [ 1.93982100152311, 48.878297857304965 ], [ 1.945160777321488, 48.904544917719726 ], [ 1.954384664303675, 48.930319828783524 ], [ 1.967409450374971, 48.955373491536918 ], [ 1.984114691154671, 48.979463407167586 ], [ 2.004343673238306, 49.002356058202899 ], [ 2.027904757658025, 49.023829215229 ], [ 2.054573097459892, 49.043674144748252 ], [ 2.08409271829089, 49.06169769431343 ], [ 2.116178945715653, 49.077724231933139 ], [ 2.15052115777816, 49.091597417937201 ], [ 2.18678583621393, 49.103181789021555 ], [ 2.224619884837172, 49.11236413605446 ], [ 2.263654179110551, 49.119054659398735 ], [ 2.303507306884222, 49.123187887963688 ], [ 2.34378945688741, 49.12472335090807 ], [ 2.38410640887614, 49.123645993827971 ], [ 2.42406357747065, 49.119966334331167 ], [ 2.463270060715992, 49.113720355063101 ], [ 2.501342644302653, 49.104969135453246 ], [ 2.537909713193649, 49.093798226629389 ], [ 2.572615024094493, 49.08031677704389 ], [ 2.605121294717607, 49.064656419311021 ], [ 2.635113569053099, 49.04696993151645 ], [ 2.662302321761016, 49.02742968878237 ], [ 2.686426269227795, 49.006225923117306 ], [ 2.707254859651498, 48.98356481151712 ], [ 2.7245904196017, 48.959666413895619 ], [ 2.738269939705596, 48.934762483696694 ], [ 2.748166487313532, 48.909094174973553 ], [ 2.754190239076373, 48.882909670322142 ], [ 2.756289131220145, 48.856461754336671 ] ] ] } },
{ "type": "Feature", "properties": { "city": "SIN", "radius_km": 30 }, "geometry": { "type": "Polygon", "coordinates": [ [ [ 104.120963336089858, 1.283124837470861 ], [ 104.119673956972306, 1.256523926143274 ], [ 104.115800132749314, 1.230178343733486 ], [ 104.109379258588618, 1.204341855514471 ], [ 104.100473260732429, 1.1792633140329 ], [ 104.089167997385545, 1.155184261849569 ], [ 104.075572429369387, 1.132336604901949 ], [ 104.059817568545114, 1.110940378877325 ], [ 104.042055214129007, 1.091201630100159 ], [ 104.022456489053553, 1.07331043134712 ], [ 104.0012101904492, 1.05743905171594 ], [ 103.978520970116605, 1.043740298200116 ], [ 103.954607362507389, 1.032346044972737 ], [ 103.929699679216782, 1.023365964573859 ], [ 103.904037790295121, 1.016886473243485 ], [ 103.877868813793413, 1.012969900565158 ], [ 103.851444735855537, 1.011653891404076 ], [ 103.825019984346241, 1.01295104586111 ], [ 103.798848979450682, 1.016848800643908 ], [ 103.773183684891762, 1.023309552903298 ], [ 103.748271183385214, 1.03227102522293 ], [ 103.724351299688507, 1.043646868107935 ], [ 103.701654294103648, 1.057327494019215 ], [ 103.680398648573572, 1.07318113476809 ], [ 103.660788966575964, 1.091055111943823 ], [ 103.643014006882083, 1.11077730801521 ], [ 103.627244869924112, 1.132157823845764 ], [ 103.613633354020251, 1.154990806606868 ], [ 103.602310497060145, 1.179056430479203 ], [ 103.593385317470066, 1.204123011112008 ], [ 103.586943766378582, 1.229949233572571 ], [ 103.583047900904731, 1.256286472472968 ], [ 103.581735286410975, 1.282881182114044 ], [ 103.583018633419584, 1.30947733384281 ], [ 103.586885672699339, 1.335818877382713 ], [ 103.593299269808583, 1.361652202668898 ], [ 103.60219777814288, 1.386728578704403 ], [ 103.613495627302981, 1.410806546148653 ], [ 103.627084141382426, 1.43365424075629 ], [ 103.6428325795966, 1.455051625400891 ], [ 103.660589389550381, 1.474792609241669 ], [ 103.680183661391226, 1.492687033617845 ], [ 103.701426769137441, 1.508562505479035 ], [ 103.724114183626781, 1.522266060573023 ], [ 103.748027439820405, 1.533665640204789 ], [ 103.772936239640373, 1.542651367140203 ], [ 103.798600670136793, 1.549136608139826 ], [ 103.824773515589669, 1.553058812655441 ], [ 103.851202641169664, 1.554380119384708 ], [ 103.87763342502457, 1.553087724636047 ], [ 103.903811215136173, 1.549194008782653 ], [ 103.92948378701395, 1.54273641945652 ], [ 103.954403778263682, 1.533777112524223 ], [ 103.978331076288697, 1.522402354269351 ], [ 104.001035135850401, 1.508721690555474 ], [ 104.022297203923259, 1.492866891032119 ], [ 104.041912430218673, 1.47499067864987 ], [ 104.059691842910496, 1.455265256845794 ], [ 104.075464170453799, 1.433880648725711 ], [ 104.089077491933509, 1.411042864386016 ], [ 104.100400700087903, 1.386971914168025 ], [ 104.109324763007137, 1.361899687107633 ], [ 104.115763772483703, 1.336067715120399 ], [ 104.119655769073702, 1.309724844537215 ], [ 104.120963336089858, 1.283124837470861 ] ] ] } }
]
}
