{
"type": "FeatureCollection",
"name": "radius_5km",
"crs": { "type": "name", "properties": { "name": "urn:ogc:def:crs:OGC:1.3:CRS84" } },
"features": [
{ "type": "Feature", "properties": { "city": "TYO", "radius_km": 5 }, "geometry": { "type": "Polygon", "coordinates": [ [ [ 139.822338768832623, 35.681217716128167 ], [ 139.822073399570769, 35.676800195541844 ], [ 139.821278693354117, 35.672425162243982 ], [ 139.819962387503125, 35.66813473998149 ], [ 139.818137236029258, 35.663970231267335 ], [ 139.815820883845873, 35.659971720256706 ], [ 139.813035694246651, 35.656177687576154 ], [ 139.809808531411704, 35.652624640781525 ], [ 139.806170500116934, 35.649346763963358 ], [ 139.802156645211795, 35.646375589828196 ], [ 139.797805613797209, 35.643739697364737 ], [ 139.793159283367316, 35.641464437954561 ], [ 139.788262359483298, 35.639571692514629 ], [ 139.783161946816108, 35.63807966196056 ], [ 139.777907097628116, 35.637002692964018 ], [ 139.772548341960629, 35.636351140642397 ], [ 139.767137203953126, 35.636131269470667 ], [ 139.761725708839521, 35.63634519334569 ], [ 139.756365885247277, 35.636990855365106 ], [ 139.751109267465722, 35.638062047510331 ], [ 139.746006402349508, 35.639548470048929 ], [ 139.741106365484427, 35.641435830098928 ], [ 139.736456291161659, 35.643705978429466 ], [ 139.732100920587868, 35.646337083212629 ], [ 139.728082172600125, 35.649303839092383 ], [ 139.724438740959044, 35.652577709602227 ], [ 139.721205722058613, 35.656127200645848 ], [ 139.718414276625566, 35.659918162458247 ], [ 139.716091328675503, 35.663914117190608 ], [ 139.714259304661738, 35.668076609013831 ], [ 139.712935915387078, 35.672365573414851 ], [ 139.7121339828592, 35.676739722170048 ], [ 139.711861313855081, 35.681156940321841 ], [ 139.712120621525315, 35.685574691360749 ], [ 139.71290949591571, 35.689950426726838 ], [ 139.714220423819143, 35.694241995693218 ], [ 139.716040857895365, 35.69840805167992 ], [ 139.718353334517815, 35.702408451071072 ], [ 139.721135639328622, 35.70620464067089 ], [ 139.724361019008654, 35.709760030034502 ], [ 139.727998437308258, 35.713040345047837 ], [ 139.732012872935542, 35.716013959305911 ], [ 139.736365656473339, 35.718652200047487 ], [ 139.74101484309486, 35.720929625647791 ], [ 139.745915617477436, 35.722824271944312 ], [ 139.751020726977657, 35.72431786497237 ], [ 139.756280938836426, 35.725395998015138 ], [ 139.7616455169277, 35.726048271221472 ], [ 139.767062713359024, 35.726268392413047 ], [ 139.772480270074084, 35.72605423808487 ], [ 139.777845925500941, 35.725407873995515 ], [ 139.783107921235683, 35.724335535143837 ], [ 139.788215503751559, 35.72284756532968 ], [ 139.793119416175642, 35.720958316896123 ], [ 139.79777237528134, 35.71868601164374 ], [ 139.802129529001689, 35.716052564289868 ], [ 139.806148889974736, 35.713083370214321 ], [ 139.809791740883838, 35.70980705958214 ], [ 139.813023007652674, 35.706255220262129 ], [ 139.815811596888494, 35.702462092262152 ], [ 139.818130694338066, 35.698464236676237 ], [ 139.819958021520705, 35.694300182382051 ], [ 139.821276048130073, 35.690010053937371 ], [ 139.822072158242491, 35.685635184299208 ], [ 139.822338768832623, 35.681217716128167 ] ] ] } },
{ "type": "Feature", "properties": { "city": "LON", "radius_km": 5 }, "geometry": { "type": "Polygon", "coordinates": [ [ [ -0.055797298244996, 51.506228258597154 ], [ -0.056331523775967, 51.501829918989031 ], [ -0.057553760881414, 51.497485400926379 ], [ -0.059452048959186, 51.493236537055495 ], [ -0.062007931909555, 51.489124196336569 ], [ -0.065196643561253, 51.48518796061456 ], [ -0.068987307795598, 51.4814656863227 ], [ -0.073343342597099, 51.477993156281634 ], [ -0.078222796373166, 51.474803766058024 ], [ -0.08357867759001, 51.471928166414649 ], [ -0.089359459540577, 51.469393979969347 ], [ -0.095509526999006, 51.467225563519044 ], [ -0.101969767634207, 51.46544374826302 ], [ -0.108678108899805, 51.464065640323902 ], [ -0.115570087665333, 51.463104486987937 ], [ -0.122579549500199, 51.462569507737882 ], [ -0.129639175757038, 51.462465845505015 ], [ -0.136681179554158, 51.462794493542717 ], [ -0.143637964115299, 51.463552284145294 ], [ -0.150442680681169, 51.464731962177737 ], [ -0.157029967091917, 51.4663222036205 ], [ -0.163336528783082, 51.468307736006359 ], [ -0.169301748467934, 51.470669482840442 ], [ -0.174868257750004, 51.473384757222298 ], [ -0.179982489996695, 51.476427475403597 ], [ -0.184595207652594, 51.479768392802356 ], [ -0.188661947473712, 51.483375394061554 ], [ -0.192143364174192, 51.487213820720932 ], [ -0.195005918628017, 51.491246742742675 ], [ -0.197221857511603, 51.495435377780382 ], [ -0.198769716909012, 51.499739412976112 ], [ -0.199634422519731, 51.504117417858602 ], [ -0.199807455931851, 51.508527242525034 ], [ -0.199286953905076, 51.512926418784886 ], [ -0.198077729788933, 51.517272569989551 ], [ -0.196191236377531, 51.521523818637299 ], [ -0.193645476669886, 51.52563918640768 ], [ -0.190464831971401, 51.529578997345801 ], [ -0.186679810787384, 51.533305260452522 ], [ -0.182326767487966, 51.536782029052311 ], [ -0.177447582127966, 51.539975764291867 ], [ -0.172089247378174, 51.542855647393459 ], [ -0.166303419591428, 51.545393882721072 ], [ -0.160145873589744, 51.547565974299786 ], [ -0.153676005642971, 51.549350944944436 ], [ -0.146956261415629, 51.550731556242013 ], [ -0.140051521768831, 51.55169447458097 ], [ -0.13302846203958, 51.552230400682284 ], [ -0.125954920914586, 51.552334139888231 ], [ -0.118899213804931, 51.552004719066758 ], [ -0.111929484695824, 51.551245222416476 ], [ -0.105113034304724, 51.550063084742995 ], [ -0.098515719625789, 51.548469711624001 ], [ -0.092201189123441, 51.546480497268881 ], [ -0.086230341947053, 51.544114691315116 ], [ -0.080660790654759, 51.541395072796959 ], [ -0.07554625650693, 51.538347929400381 ], [ -0.07093595002884, 51.535002705759609 ], [ -0.066874291772265, 51.531391669058472 ], [ -0.063400319091815, 51.527549648517713 ], [ -0.060547360226547, 51.523513660452004 ], [ -0.058342762217901, 51.519322623752537 ], [ -0.056807584678221, 51.515016940392158 ], [ -0.055956428315478, 51.51063808864842 ], [ -0.055797298244996, 51.506228258597154 ] ] ] } },
{ "type": "Feature", "properties": { "city": "NYC", "radius_km": 5 }, "geometry": { "type": "Polygon", "coordinates": [ [ [ -73.946813953580985, 40.712275147829487 ], [ -73.947168481721377, 40.707863463065493 ], [ -73.94808945507387, 40.70349945521135 ], [ -73.949567897867766, 40.69922513747224 ], [ -73.951589474893453, 40.695081651819002 ], [ -73.954134633274478, 40.691108873620209 ], [ -73.957178793985818, 40.687345028725197 ], [ -73.960692591151385, 40.683826326642887 ], [ -73.964642156718526, 40.680586613298566 ], [ -73.968989447697183, 40.677657046656236 ], [ -73.973692612772552, 40.675065798269763 ], [ -73.978706394752592, 40.672837783575616 ], [ -73.983982564998286, 40.670994423463078 ], [ -73.989470385708117, 40.669553439360804 ], [ -73.995117095688499, 40.66852868376013 ], [ -74.000868415041552, 40.667930007762429 ], [ -74.006669064040906, 40.667763166889586 ], [ -74.012463291346208, 40.668029766039155 ], [ -74.018195406627655, 40.66872724409955 ], [ -74.023810312635021, 40.669848898370731 ], [ -74.029254031748991, 40.671383948564639 ], [ -74.034474222099121, 40.673317639789914 ], [ -74.039420678419631, 40.675631383560493 ], [ -74.044045812942841, 40.67830293551205 ], [ -74.048305111798868, 40.681306608163567 ], [ -74.052157562599504, 40.684613516731318 ], [ -74.055566049131286, 40.688191855687322 ], [ -74.058497709368382, 40.692007203460932 ], [ -74.060924253336736, 40.696022852410223 ], [ -74.062822237716617, 40.700200160943886 ], [ -74.064173294457305, 40.704498924456232 ], [ -74.064964311094542, 40.708877761549104 ], [ -74.065187560903695, 40.713294511859054 ], [ -74.064840781487192, 40.717706641685638 ], [ -74.063927200879633, 40.722071653530222 ], [ -74.062455510753367, 40.726347495604962 ], [ -74.060439786817199, 40.730492967359886 ], [ -74.057899357016737, 40.734468117101876 ], [ -74.054858618660134, 40.738234627844776 ], [ -74.051346806103723, 40.741756187632774 ], [ -74.047397711132021, 40.744998840720697 ], [ -74.043049358649554, 40.747931316171872 ], [ -74.038343640763244, 40.750525330648465 ], [ -74.03332591276758, 40.752755862414624 ], [ -74.028044554944316, 40.754601393851118 ], [ -74.022550504450535, 40.756044120086315 ], [ -74.016896761887153, 40.757070121679483 ], [ -74.011137877410789, 40.757669499646262 ], [ -74.005329421471984, 40.757836471488339 ], [ -73.999527445428271, 40.757569427275079 ], [ -73.993787937389953, 40.756870945221671 ], [ -73.988166278707411, 40.755747766611201 ], [ -73.982716706501918, 40.754210730311421 ], [ -73.977491787575062, 40.752274667538885 ], [ -73.972541908908951, 40.7499582579171 ], [ -73.967914789789575, 40.747283848257759 ], [ -73.963655020353002, 40.744277235862107 ], [ -73.959803631070713, 40.740967418486619 ], [ -73.956397697361794, 40.737386313443054 ], [ -73.953469983147883, 40.733568448601098 ], [ -73.951048626759103, 40.729550628332042 ], [ -73.949156872159321, 40.725371577669485 ], [ -73.947812847992523, 40.721071568167993 ], [ -73.947029396465595, 40.716692029108152 ], [ -73.946813953580985, 40.712275147829487 ] ] ] } },
{ "type": "Feature", "properties": { "city": "PAR", "radius_km": 5 }, "geometry": { "type": "Polygon", "coordinates": [ [ [ 2.420342440607639, 48.856949491059233 ], [ 2.420063369760722, 48.852540569501301 ], [ 2.419130890366405, 48.848170906586809 ], [ 2.417554142180771, 48.843882570169789 ], [ 2.415348457568142, 48.83971683537866 ], [ 2.412535208188729, 48.835713788034496 ], [ 2.409141594208424, 48.831911939852681 ], [ 2.405200378250431, 48.828347859084928 ], [ 2.4007495668068, 48.825055820100381 ], [ 2.395832042294364, 48.822067475212677 ], [ 2.390495149370887, 48.81941155184078 ], [ 2.384790239521215, 48.817113577843138 ], [ 2.378772178277525, 48.815195637594407 ], [ 2.372498819751126, 48.813676161079925 ], [ 2.366030453424156, 48.812569747970841 ], [ 2.359429228377081, 48.811887028314622 ], [ 2.352758560311481, 48.811634561132571 ], [ 2.34608252686654, 48.811814771864313 ], [ 2.339465256821787, 48.812425929237776 ], [ 2.332970318827621, 48.813462161779171 ], [ 2.326660115308895, 48.814913513809934 ], [ 2.320595287145463, 48.816766040412411 ], [ 2.314834134646955, 48.819001940484561 ], [ 2.309432060207597, 48.821599726649978 ], [ 2.304441037850757, 48.82453443044502 ], [ 2.299909114652613, 48.827777840874035 ], [ 2.295879948770664, 48.831298774108383 ], [ 2.292392388496442, 48.835063371807578 ], [ 2.289480096404231, 48.839035425266786 ], [ 2.287171222280113, 48.843176722342342 ], [ 2.285488128090443, 48.847447413883131 ], [ 2.284447167788071, 48.851806396199166 ], [ 2.284058524261402, 48.856211705934143 ], [ 2.284326105208903, 48.860620923576981 ], [ 2.285247499173942, 48.864991581750225 ], [ 2.286813992406439, 48.869281574352591 ], [ 2.289010646633604, 48.873449562609544 ], [ 2.291816437227654, 48.87745537410067 ], [ 2.295204450659796, 48.881260390886091 ], [ 2.29914213953326, 48.884827922946485 ], [ 2.303591632900669, 48.888123563281596 ], [ 2.30851009899907, 48.891115521179877 ], [ 2.313850156987035, 48.893774930376402 ], [ 2.31956033374889, 48.896076129054379 ], [ 2.325585561348545, 48.897996908916369 ], [ 2.331867710275869, 48.899518730852243 ], [ 2.33834615323839, 48.900626905057479 ], [ 2.344958353915674, 48.901310733806561 ], [ 2.351640474818037, 48.901563615456283 ], [ 2.358327998179255, 48.901383108639301 ], [ 2.364956353667799, 48.900770956006063 ], [ 2.371461546625057, 48.899733067277666 ], [ 2.377780780533129, 48.89827946177914 ], [ 2.383853067479141, 48.896424171027746 ], [ 2.389619820516791, 48.894185102350299 ], [ 2.395025422026787, 48.891583864891068 ], [ 2.400017762443206, 48.888645559745044 ], [ 2.404548744038525, 48.88539853630575 ], [ 2.408574744841472, 48.881874117247833 ], [ 2.412057038193557, 48.878106294869916 ], [ 2.414962163925922, 48.874131401799367 ], [ 2.417262247651895, 48.869987759304401 ], [ 2.418935265215038, 48.865715306669166 ], [ 2.419965249901091, 48.861355215261433 ], [ 2.420342440607639, 48.856949491059233 ] ] ] } },
{ "type": "Feature", "properties": { "city": "SIN", "radius_km": 5 }, "geometry": { "type": "Polygon", "coordinates": [ [ [ 103.864728188322673, 1.352099833687401 ], [ 103.864511790387098, 1.347667676355907 ], [ 103.863864796024544, 1.34327820840415 ], [ 103.862793438352298, 1.338973702424428 ], [ 103.861308037141171, 1.334795612580186 ], [ 103.859422899356474, 1.330784175404895 ], [ 103.857156181311595, 1.326978022333192 ], [ 103.854529713763483, 1.323413807694465 ], [ 103.851568791636225, 1.320125855750085 ], [ 103.848301930398421, 1.317145830172011 ], [ 103.844760591441201, 1.314502429144494 ], [ 103.840978879100973, 1.312221109023806 ], [ 103.836993212244479, 1.310323839216104 ], [ 103.832841973577246, 1.308828890632978 ], [ 103.828565140051495, 1.307750659761018 ], [ 103.824203897930829, 1.307099530038926 ], [ 103.819800246216374, 1.306881771876585 ], [ 103.815396592251403, 1.307099482278491 ], [ 103.811035343396227, 1.307750564652738 ], [ 103.806758498703118, 1.308828748999883 ], [ 103.8026072445209, 1.310323652287304 ], [ 103.798621557921223, 1.312220878427841 ], [ 103.794839821763148, 1.314502156900247 ], [ 103.791298455101071, 1.317145518677019 ], [ 103.788031562492961, 1.320125507766074 ], [ 103.785070605584934, 1.323413426329905 ], [ 103.782444100133489, 1.326977611022686 ], [ 103.780177341382455, 1.330783737885259 ], [ 103.778292160439051, 1.334795152863078 ], [ 103.77680671399574, 1.338973224765475 ], [ 103.775735309423425, 1.343277717268561 ], [ 103.775088266922253, 1.347667176380656 ], [ 103.774871820059403, 1.35209932964014 ], [ 103.775088055654194, 1.356531493202522 ], [ 103.775734893592528, 1.36092098289727 ], [ 103.776806106768362, 1.365225525296518 ], [ 103.778291380963807, 1.369403664837241 ], [ 103.780176414094683, 1.373415163076165 ], [ 103.782443053869429, 1.377221386232016 ], [ 103.785069472538936, 1.380785677282113 ], [ 103.788030377057567, 1.384073709028645 ], [ 103.791297252633328, 1.387053814732896 ], [ 103.794838637324162, 1.389697293131416 ], [ 103.798620425036134, 1.391978684894604 ], [ 103.802606194006017, 1.393876017863118 ], [ 103.806757557604129, 1.39537101869813 ], [ 103.811034534077208, 1.396449288905037 ], [ 103.815395931668277, 1.397100443533512 ], [ 103.819799745401568, 1.397318211216533 ], [ 103.824203561707478, 1.397100494583727 ], [ 103.828564966987031, 1.39644939046645 ], [ 103.832841956176637, 1.395371169699723 ], [ 103.836993337374565, 1.393876216715753 ], [ 103.840979128628021, 1.391978929511515 ], [ 103.844760943056144, 1.389697580954902 ], [ 103.848302358596669, 1.387054142766719 ], [ 103.851569268813279, 1.384074073875499 ], [ 103.854530211383164, 1.380786075185501 ], [ 103.857156671100853, 1.377221813121756 ], [ 103.859423354480057, 1.373415614616741 ], [ 103.861308433310029, 1.369404136478177 ], [ 103.862793754822491, 1.365226012323962 ], [ 103.863865016447576, 1.360921480485988 ], [ 103.864511903478473, 1.35653199646755 ], [ 103.864728188322673, 1.352099833687401 ] ] ] } }
]
}
