{
"type": "FeatureCollection",
"name": "radius_10km",
"crs": { "type": "name", "properties": { "name": "urn:ogc:def:crs:OGC:1.3:CRS84" } },
"features": [
{ "type": "Feature", "properties": { "city": "TYO", "radius_km": 10 }, "geometry": { "type": "Polygon", "coordinates": [ [ [ 139.877539589909617, 35.682248226711408 ], [ 139.877131348354794, 35.673407321421983 ], [ 139.875663247420533, 35.66464161710141 ], [ 139.873149765494816, 35.656035500547027 ], [ 139.86961542488288, 35.647671795440026 ], [ 139.865094543559536, 35.639630966968312 ], [ 139.859630893976799, 35.631990350073295 ], [ 139.853277272616936, 35.624823408628615 ], [ 139.84609498477019, 35.618199032532679 ], [ 139.838153249750121, 35.612180879307729 ], [ 139.829528532435376, 35.606826766353478 ], [ 139.820303807638936, 35.60218811950655 ], [ 139.810567764354772, 35.598309483012599 ], [ 139.800413957413781, 35.5952280954332 ], [ 139.78993991449633, 35.592973535387216 ], [ 139.77924620679542, 35.591567440374554 ], [ 139.768435491904, 35.591023301251717 ], [ 139.757611537710261, 35.591346334231631 ], [ 139.746878236226024, 35.592533431568057 ], [ 139.736338616348519, 35.594573191365136 ], [ 139.726093864560085, 35.597446026229079 ], [ 139.7162423625077, 35.601124349758386 ], [ 139.706878750274939, 35.605572839157006 ], [ 139.698093023958563, 35.610748771555336 ], [ 139.689969675897089, 35.616602430944916 ], [ 139.682586885564945, 35.623077581977213 ], [ 139.676015768744691, 35.63011200625165 ], [ 139.670319692123911, 35.637638096128519 ], [ 139.66555365993085, 35.645583500552284 ], [ 139.661763778627659, 35.653871816866975 ], [ 139.658986805022749, 35.662423322151461 ], [ 139.657249782447849, 35.671155737203947 ], [ 139.656569768874306, 35.679985015965293 ], [ 139.656953660019894, 35.688826152895771 ], [ 139.658398109631605, 35.69759400061087 ], [ 139.660889548220609, 35.70620408994516 ], [ 139.664404300589013, 35.714573444547952 ], [ 139.668908801524736, 35.722621382127059 ], [ 139.674359908066009, 35.730270294544923 ], [ 139.680705305757044, 35.737446399138008 ], [ 139.687884005345779, 35.744080453875064 ], [ 139.69582692542221, 35.750108429289888 ], [ 139.704457555575743, 35.755472130521198 ], [ 139.71369269377422, 35.760119763258913 ], [ 139.723443250848192, 35.764006437932444 ], [ 139.733615114212398, 35.767094607074789 ], [ 139.744110062287206, 35.769354431452612 ], [ 139.754826720501654, 35.770764071258213 ], [ 139.765661549280168, 35.771309899408912 ], [ 139.776509854042729, 35.770986634782645 ], [ 139.787266806989635, 35.769797394027925 ], [ 139.797828470303216, 35.767753661412357 ], [ 139.808092810378724, 35.764875177005152 ], [ 139.817960692799687, 35.761189744319225 ], [ 139.827336847995269, 35.756732959354366 ], [ 139.836130797854196, 35.751547863776601 ], [ 139.844257734018953, 35.745684525731988 ], [ 139.851639339135176, 35.739199552515167 ], [ 139.858204542976523, 35.732155539987431 ], [ 139.863890206095846, 35.724620464258329 ], [ 139.868641724455586, 35.716667021702484 ], [ 139.872413549354604, 35.708371923874061 ], [ 139.875169617880829, 35.699815154301149 ], [ 139.876883690068439, 35.691079194486747 ], [ 139.877539589909617, 35.682248226711408 ] ] ] } },
{ "type": "Feature", "properties": { "city": "LON", "radius_km": 10 }, "geometry": { "type": "Polygon", "coordinates": [ [ [ 0.031572570977321, 51.499531855091753 ], [ 0.03029567027519, 51.490748670160741 ], [ 0.02764667105135, 51.482085833386343 ], [ 0.023651819527464, 51.473626669178763 ], [ 0.018350247244083, 51.465452498569896 ], [ 0.01179356908188, 51.457641861681346 ], [ 0.004045364985692, 51.450269768349067 ], [ -0.004819448823532, 51.443406983849421 ], [ -0.014715352482328, 51.43711935629328 ], [ -0.02554705150162, 51.431467191824659 ], [ -0.037210393994642, 51.426504683284769 ], [ -0.049593367317778, 51.422279397485291 ], [ -0.062577164782495, 51.418831825681636 ], [ -0.076037312632035, 51.416195001252284 ], [ -0.089844847088189, 51.414394187979561 ], [ -0.103867530958158, 51.413446641693099 ], [ -0.117971099046468, 51.413361447386777 ], [ -0.132020521439604, 51.41413943325459 ], [ -0.145881273619868, 51.415773162416166 ], [ -0.159420602318693, 51.418247002423847 ], [ -0.172508776038352, 51.421537271960695 ], [ -0.185020309254866, 51.425612463461917 ], [ -0.196835149465793, 51.430433539719495 ], [ -0.207839816466347, 51.435954301870375 ], [ -0.217928483528617, 51.442121825523799 ], [ -0.227003990525025, 51.448876961159193 ], [ -0.23497877948143, 51.456154894326986 ], [ -0.241775743571295, 51.463885760615035 ], [ -0.247328981172536, 51.471995309810389 ], [ -0.251584447305894, 51.480405613191309 ], [ -0.254500495558974, 51.489035807437688 ], [ -0.256048304473888, 51.497802868250794 ], [ -0.25621218333723, 51.506622406433365 ], [ -0.254989753355855, 51.515409478902924 ], [ -0.252392001325385, 51.524079406899062 ], [ -0.248443204093112, 51.532548593505652 ], [ -0.243180723373516, 51.5407353325431 ], [ -0.236654671780697, 51.548560600900252 ], [ -0.228927452283641, 51.555948826469574 ], [ -0.220073174650812, 51.56282862402756 ], [ -0.210176953812049, 51.569133491664225 ], [ -0.199334096408252, 51.574802460708923 ], [ -0.187649183102139, 51.579780692526917 ], [ -0.175235055465041, 51.584020016064024 ], [ -0.162211717413778, 51.587479400594972 ], [ -0.148705162227374, 51.59012535877666 ], [ -0.134846137105933, 51.591932275814294 ], [ -0.120768858025751, 51.592882661308259 ], [ -0.106609688279894, 51.592967321152329 ], [ -0.092505794559615, 51.592185447691634 ], [ -0.078593794719678, 51.590544627207606 ], [ -0.065008411474003, 51.588060764669258 ], [ -0.051881146185251, 51.584757926561174 ], [ -0.03933898664478, 51.580668103459459 ], [ -0.027503162293517, 51.575830894863813 ], [ -0.016487959718889, 51.570293119599754 ], [ -0.006399610490731, 51.564108355865557 ], [ 0.002664737514788, 51.55733641570842 ], [ 0.010617955191798, 51.550042759363222 ], [ 0.017383764712463, 51.542297855469215 ], [ 0.022897461721851, 51.53417649368923 ], [ 0.02710652076377, 51.525757056687844 ], [ 0.029971078810359, 51.517120758777587 ], [ 0.031464293117384, 51.508350858811838 ], [ 0.031572570977321, 51.499531855091753 ] ] ] } },
{ "type": "Feature", "properties": { "city": "NYC", "radius_km": 10 }, "geometry": { "type": "Polygon", "coordinates": [ [ [ -73.85878927371823, 40.751615730897761 ], [ -73.859510428709996, 40.742793115978515 ], [ -73.861364736014991, 40.734066703407628 ], [ -73.864333912407815, 40.725520474203684 ], [ -73.868388975530394, 40.717236644314731 ], [ -73.873490537810696, 40.709294876286904 ], [ -73.879589198550462, 40.701771516524417 ], [ -73.886626029925608, 40.694738865313454 ], [ -73.894533151835631, 40.688264486435742 ], [ -73.903234389795031, 40.682410562794615 ], [ -73.912646009380623, 40.677233304018216 ], [ -73.922677520137739, 40.672782411500059 ], [ -73.933232541305316, 40.669100605787257 ], [ -73.944209721246736, 40.666223220640298 ], [ -73.955503702068555, 40.664177867467551 ], [ -73.967006120574339, 40.662984173188683 ], [ -73.978606636434236, 40.662653593910655 ], [ -73.990193978252861, 40.663189306109381 ], [ -74.001656998088023, 40.664586176309115 ], [ -74.012885724910106, 40.666830809541437 ], [ -74.023772407498114, 40.669901676154097 ], [ -74.034212537340224, 40.673769315830455 ], [ -74.044105842249522, 40.678396616979839 ], [ -74.053357241614307, 40.683739168969929 ], [ -74.061877754481984, 40.68974568400418 ], [ -74.069585352023708, 40.696358484800193 ], [ -74.076405746346339, 40.703514053608878 ], [ -74.082273108106676, 40.711143637531066 ], [ -74.08713070594203, 40.71917390454545 ], [ -74.090931461360171, 40.727527644162876 ], [ -74.093638413427442, 40.736124506173404 ], [ -74.095225088356557, 40.744881770558585 ], [ -74.095675769919993, 40.753715141306664 ], [ -74.094985667498079, 40.762539556597616 ], [ -74.093160979506109, 40.771270007622363 ], [ -74.090218850926831, 40.77982235816912 ], [ -74.086187224692821, 40.788114157053442 ], [ -74.081104587711479, 40.796065435489012 ], [ -74.075019613388861, 40.803599481595612 ], [ -74.067990703579397, 40.81064358441995 ], [ -74.060085433950363, 40.817129740103084 ], [ -74.051379907791514, 40.82299531316616 ], [ -74.041958024305885, 40.828183646299252 ], [ -74.031910668373172, 40.832644612525186 ], [ -74.021334829668774, 40.836335104166551 ], [ -74.010332659833765, 40.839219453663681 ], [ -73.999010477112748, 40.841269781968464 ], [ -73.987477728493673, 40.842466270966597 ], [ -73.975845919887504, 40.842797357149792 ], [ -73.964227525265954, 40.842259844561518 ], [ -73.952734885926276, 40.840858935866535 ], [ -73.941479111169869, 40.838608181232694 ], [ -73.930568991661644, 40.835529345557646 ], [ -73.920109936582875, 40.831652195408395 ], [ -73.910202945403185, 40.827014207861502 ], [ -73.900943624681574, 40.821660204224578 ], [ -73.892421259772092, 40.815641912376435 ], [ -73.884717950662903, 40.809017462176307 ], [ -73.877907820431801, 40.801850819052333 ], [ -73.872056303967838, 40.794211161481073 ], [ -73.867219523700925, 40.78617220860513 ], [ -73.863443758114073, 40.777811504702683 ], [ -73.860765007799259, 40.769209667613524 ], [ -73.859208662774577, 40.760449608542523 ], [ -73.85878927371823, 40.751615730897761 ] ] ] } },
{ "type": "Feature", "properties": { "city": "PAR", "radius_km": 10 }, "geometry": { "type": "Polygon", "coordinates": [ [ [ 2.48364143608516, 48.855563087162139 ], [ 2.483075794430989, 48.846743030076233 ], [ 2.481203406464079, 48.838002001346091 ], [ 2.478042966842835, 48.829424121678514 ], [ 2.473625524997, 48.821091899447495 ], [ 2.467994162701424, 48.813085440037398 ], [ 2.46120355862858, 48.805481679741817 ], [ 2.453319444847296, 48.798353651386847 ], [ 2.444417961134134, 48.791769788497867 ], [ 2.434584913783572, 48.785793274422311 ], [ 2.42391494634203, 48.780481442364476 ], [ 2.41251063034871, 48.775885231786255 ], [ 2.40048148474373, 48.772048706084782 ], [ 2.387942933102892, 48.769008635880262 ], [ 2.375015208280506, 48.766794151639537 ], [ 2.361822214389272, 48.765426468726716 ], [ 2.348490356321725, 48.764918687319486 ], [ 2.335147347223189, 48.765275668958893 ], [ 2.32192100446335, 48.766493990820152 ], [ 2.308938044723884, 48.768561978103875 ], [ 2.296322888823584, 48.771459814257241 ], [ 2.284196486840496, 48.775159728046049 ], [ 2.272675173961876, 48.779626255817682 ], [ 2.261869567296649, 48.784816576623463 ], [ 2.251883513619337, 48.790680917214026 ], [ 2.242813097677726, 48.797163023285606 ], [ 2.234745720286158, 48.804200692744757 ], [ 2.22775925494032, 48.811726366177226 ], [ 2.221921291125609, 48.819667769160496 ], [ 2.217288471847881, 48.827948600551657 ], [ 2.213905932191875, 48.836489260419683 ], [ 2.211806844908718, 48.845207610877175 ], [ 2.211012078150945, 48.854019762709314 ], [ 2.211529969514109, 48.862840880396924 ], [ 2.213356219512601, 48.871585997896915 ], [ 2.21647390651993, 48.880170837376824 ], [ 2.220853624048514, 48.888512623006321 ], [ 2.226453740041128, 48.896530881891465 ], [ 2.233220776607573, 48.904148224298019 ], [ 2.241089907379887, 48.911291095452697 ], [ 2.249985568393144, 48.917890491433525 ], [ 2.259822177143643, 48.923882631966713 ], [ 2.270504953250514, 48.929209583330895 ], [ 2.281930832969068, 48.933819825034305 ], [ 2.293989468694134, 48.937668754466159 ], [ 2.306564303567868, 48.94071912433138 ], [ 2.319533710387292, 48.942941408346393 ], [ 2.332772183209121, 48.944314091400436 ], [ 2.346151569388019, 48.94482388115928 ], [ 2.359542329272314, 48.944465838900449 ], [ 2.372814810428244, 48.943243428208767 ], [ 2.385840523077113, 48.941168481018494 ], [ 2.398493403412977, 48.938261081353154 ], [ 2.410651051622157, 48.934549367973801 ], [ 2.422195931746826, 48.930069257991263 ], [ 2.433016521016824, 48.924864094316646 ], [ 2.443008396907533, 48.918984220606411 ], [ 2.452075250954455, 48.91248648809492 ], [ 2.460129819253022, 48.905433699389995 ], [ 2.467094720578139, 48.897893994926555 ], [ 2.472903194154448, 48.889940188326399 ], [ 2.477499730276151, 48.881649057390021 ], [ 2.480840588195471, 48.873100597847646 ], [ 2.48289419695223, 48.86437724731806 ], [ 2.48364143608516, 48.855563087162139 ] ] ] } },
{ "type": "Feature", "properties": { "city": "SIN", "radius_km": 10 }, "geometry": { "type": "Polygon", "coordinates": [ [ [ 103.941209561932695, 1.283056322079051 ], [ 103.940780426532854, 1.274189793491743 ], [ 103.939489868599694, 1.265408300207631 ], [ 103.937350327412773, 1.256796418704907 ], [ 103.934382419008301, 1.248437090707611 ], [ 103.930614737236084, 1.2404108242569 ], [ 103.926083577986034, 1.232794918269157 ], [ 103.920832589252655, 1.22566271805162 ], [ 103.914912350418859, 1.219082908946733 ], [ 103.908379884821628, 1.213118854907965 ], [ 103.901298110302847, 1.207827988375772 ], [ 103.893735233045149, 1.203261257327003 ], [ 103.885764090537265, 1.199462634819076 ], [ 103.877461450001704, 1.196468695746939 ], [ 103.868907269045707, 1.194308264882185 ], [ 103.860183925657523, 1.193002139575781 ], [ 103.851375424964715, 1.192562889785576 ], [ 103.842566590391897, 1.19299473734396 ], [ 103.833842247004242, 1.194293515617061 ], [ 103.82528640489565, 1.196446709932165 ], [ 103.816981450477897, 1.19943357837209 ], [ 103.809007353448749, 1.203225351761691 ], [ 103.801440897063415, 1.207785510909931 ], [ 103.794354939108203, 1.213070138428452 ], [ 103.78781771067726, 1.219028341731387 ], [ 103.781892159488763, 1.22560274313816 ], [ 103.776635344047421, 1.232730032357701 ], [ 103.772097884471194, 1.240341576034901 ], [ 103.768323475255556, 1.248364078493908 ], [ 103.765348464654224, 1.256720287323059 ], [ 103.763201504716832, 1.26532973701736 ], [ 103.761903275346924, 1.274109523530573 ], [ 103.761466285035269, 1.282975102293227 ], [ 103.761894750189072, 1.291841102028235 ], [ 103.763184554226186, 1.3006221465441 ], [ 103.765323286838637, 1.309233676608504 ], [ 103.768290363063073, 1.317592764002982 ], [ 103.772057221029769, 1.32561890993265 ], [ 103.776587596507099, 1.333234820112757 ], [ 103.781837871620453, 1.340367149075057 ], [ 103.787757494411011, 1.346947206529624 ], [ 103.794289465216096, 1.35291161897915 ], [ 103.801370885208541, 1.358202940209734 ], [ 103.808933561830187, 1.36277020477076 ], [ 103.816904665302829, 1.366569419102239 ], [ 103.825207429904182, 1.369563985565731 ], [ 103.833761893259378, 1.371725055279269 ], [ 103.842485666527693, 1.373031806341186 ], [ 103.851294728061504, 1.37347164474609 ], [ 103.860104232883259, 1.37304032604136 ], [ 103.868829330170342, 1.371741996537239 ], [ 103.877385980856715, 1.369589153660461 ], [ 103.885691767457217, 1.366602525822629 ], [ 103.893666688293635, 1.362810872952726 ], [ 103.9012339284522, 1.358250709610361 ], [ 103.908320600026599, 1.35296595334517 ], [ 103.914858444498748, 1.347007501690792 ], [ 103.920784490476478, 1.340432741871907 ], [ 103.926041660440788, 1.333304997953241 ], [ 103.930579320649755, 1.325692920763778 ], [ 103.934353768897907, 1.317669826481945 ], [ 103.937328655431685, 1.309312990262785 ], [ 103.939475332969408, 1.300702901721459 ], [ 103.940773132459995, 1.29192248945464 ], [ 103.941209561932695, 1.283056322079051 ] ] ] } }
]
}
