{
"type": "FeatureCollection",
"name": "radius_20km",
"crs": { "type": "name", "properties": { "name": "urn:ogc:def:crs:OGC:1.3:CRS84" } },
"features": [
{ "type": "Feature", "properties": { "city": "TYO", "radius_km": 20 }, "geometry": { "type": "Polygon", "coordinates": [ [ [ 139.988033187218605, 35.683227778780271 ], [ 139.987192369918404, 35.66554629772147 ], [ 139.984232579008278, 35.648017124740065 ], [ 139.979183674771974, 35.630808945000666 ], [ 139.97209554004192, 35.614087248110906 ], [ 139.963037551918575, 35.598012743653051 ], [ 139.952097871459415, 35.582739826319184 ], [ 139.939382559741688, 35.568415104920973 ], [ 139.92501453008893, 35.555176008820538 ], [ 139.909132347496609, 35.543149484498628 ], [ 139.891888887403582, 35.532450794050355 ], [ 139.873449866930827, 35.523182426387443 ], [ 139.853992262556574, 35.515433130840847 ], [ 139.833702628917735, 35.509277081705861 ], [ 139.812775334032381, 35.50477318106639 ], [ 139.791410726728571, 35.501964505982613 ], [ 139.769813252449609, 35.500877904837445 ], [ 139.748189533889303, 35.501523746319762 ], [ 139.726746433095173, 35.503895823185943 ], [ 139.705689111770369, 35.507971411593246 ], [ 139.685219106502672, 35.513711485447445 ], [ 139.665532435557083, 35.521061083861476 ], [ 139.646817753682598, 35.529949828489343 ], [ 139.62925457110552, 35.540292586187483 ], [ 139.61301155250311, 35.551990271174134 ], [ 139.598244911273952, 35.564930779611586 ], [ 139.585096913836111, 35.578990048338227 ], [ 139.573694507985493, 35.594033228330687 ], [ 139.564148088533159, 35.609915962396201 ], [ 139.556550412500314, 35.62648575558412 ], [ 139.550975675083521, 35.643583425877814 ], [ 139.547478756404388, 35.661044621890056 ], [ 139.546094647724971, 35.6787013935486 ], [ 139.546838064345735, 35.6963838011322 ], [ 139.549703250806658, 35.713921547511134 ], [ 139.554663982292396, 35.731145618071579 ], [ 139.56167376430929, 35.747889912565668 ], [ 139.570666230768126, 35.763992853041131 ], [ 139.5815557385896, 35.779298952070448 ], [ 139.594238154874347, 35.793660325727551 ], [ 139.608591830566894, 35.806938136152816 ], [ 139.624478752427194, 35.819003949108328 ], [ 139.641745863034316, 35.82974099265401 ], [ 139.660226536518934, 35.83904530396844 ], [ 139.67974219579142, 35.846826752391195 ], [ 139.700104055237233, 35.853009927966738 ], [ 139.721114971223784, 35.857534886112475 ], [ 139.74257138133936, 35.860357740500511 ], [ 139.764265312095091, 35.861451097817024 ], [ 139.785986433888041, 35.86080432972458 ], [ 139.80752414137379, 35.858423679080758 ], [ 139.82866963703944, 35.854332199235401 ], [ 139.849217995716231, 35.84856952701692 ], [ 139.868970188022075, 35.841191491798064 ], [ 139.887735041276045, 35.832269564780098 ], [ 139.905331117265547, 35.821890154326745 ], [ 139.921588487352892, 35.8101537547929 ], [ 139.936350386760864, 35.797173957807168 ], [ 139.949474731442166, 35.783076336363258 ], [ 139.960835482690698, 35.767997213336272 ], [ 139.970323846548865, 35.752082327154568 ], [ 139.97784929707899, 35.735485408313295 ], [ 139.983340414652758, 35.718366681207989 ], [ 139.986745532540681, 35.700891306387774 ], [ 139.988033187218605, 35.683227778780271 ] ] ] } },
{ "type": "Feature", "properties": { "city": "LON", "radius_km": 20 }, "geometry": { "type": "Polygon", "coordinates": [ [ [ 0.175419375570591, 51.495722157898932 ], [ 0.172811226251751, 51.478159836544393 ], [ 0.167462217875332, 51.46084139932983 ], [ 0.159426791734868, 51.443933213197582 ], [ 0.148784952165995, 51.427597527786226 ], [ 0.135641397045538, 51.411990935760329 ], [ 0.120124426449247, 51.397262892982667 ], [ 0.102384643003691, 51.383554311674978 ], [ 0.082593458732992, 51.370996238862638 ], [ 0.060941424250981, 51.359708631475669 ], [ 0.037636397004607, 51.349799238499266 ], [ 0.012901565958147, 51.341362599538037 ], [ -0.013026649356282, 51.334479168090454 ], [ -0.039900807084288, 51.329214566730073 ], [ -0.067464739942278, 51.325618980264743 ], [ -0.09545592187937, 51.323726691798996 ], [ -0.123607885462298, 51.323555765462935 ], [ -0.15165267081914, 51.325107878396402 ], [ -0.179323286897965, 51.328368303393312 ], [ -0.206356165749147, 51.33330604242073 ], [ -0.232493590523632, 51.339874110032447 ], [ -0.257486077896594, 51.34800996450118 ], [ -0.281094695683934, 51.357636083300314 ], [ -0.303093296529236, 51.368660678377012 ], [ -0.323270648716386, 51.380978545481732 ], [ -0.341432445426401, 51.394472040654662 ], [ -0.357403174127414, 51.409012175829496 ], [ -0.371027828287267, 51.424459824401843 ], [ -0.382173444252753, 51.440667026534449 ], [ -0.390730446972648, 51.457478382944736 ], [ -0.396613789275665, 51.474732524951314 ], [ -0.399763870670328, 51.492263647659549 ], [ -0.400147223127916, 51.509903092354214 ], [ -0.397756953053894, 51.52748096345514 ], [ -0.392612930653161, 51.544827764793965 ], [ -0.384761720147719, 51.561776039502611 ], [ -0.374276246802053, 51.578161997480898 ], [ -0.361255199431579, 51.593827114247567 ], [ -0.345822169984495, 51.608619684986991 ], [ -0.328124534858382, 51.622396317795982 ], [ -0.308332085792691, 51.635023350518111 ], [ -0.286635421411022, 51.646378176132913 ], [ -0.263244113710215, 51.656350462446923 ], [ -0.238384666939424, 51.66484325280819 ], [ -0.212298289310744, 51.671773935731508 ], [ -0.185238500762748, 51.677075072665716 ], [ -0.157468602490789, 51.680695074641292 ], [ -0.129259036098842, 51.682598720187336 ], [ -0.100884661960738, 51.682767508677578 ], [ -0.072621987656937, 51.681199845128184 ], [ -0.044746378141541, 51.677911054396141 ], [ -0.017529279571563, 51.672933224685373 ], [ 0.008764511511078, 51.666314882224476 ], [ 0.033879502707212, 51.658120500904829 ], [ 0.05757205430301, 51.648429852527244 ], [ 0.079612793830629, 51.637337205072008 ], [ 0.09978887075645, 51.624950378053363 ], [ 0.117906027864665, 51.611389665522168 ], [ 0.133790468650363, 51.596786638620593 ], [ 0.14729050300211, 51.581282840755172 ], [ 0.158277956568397, 51.565028389429102 ], [ 0.166649332395113, 51.548180499555087 ], [ 0.172326716624911, 51.530901943654989 ], [ 0.175258423201844, 51.513359464743672 ], [ 0.175419375570591, 51.495722157898932 ] ] ] } },
{ "type": "Feature", "properties": { "city": "NYC", "radius_km": 20 }, "geometry": { "type": "Polygon", "coordinates": [ [ [ -73.740356113420887, 40.750383753621726 ], [ -73.741829434872287, 40.732740435308152 ], [ -73.74556756908008, 40.715291751223866 ], [ -73.751532819975779, 40.69820550151691 ], [ -73.759666196333711, 40.681645877419577 ], [ -73.769888038435838, 40.665771894070886 ], [ -73.782098835472723, 40.650735877103187 ], [ -73.79618022395627, 40.636682016860142 ], [ -73.811996156075878, 40.623745003348532 ], [ -73.829394225739648, 40.612048754167581 ], [ -73.848207139002156, 40.601705246716385 ], [ -73.868254314681693, 40.592813464964678 ], [ -73.889343600203745, 40.585458469991401 ], [ -73.911273087064032, 40.579710602360997 ], [ -73.933833009774375, 40.575624823224707 ], [ -73.956807711727791, 40.57324019981489 ], [ -73.979977661088725, 40.572579539746421 ], [ -74.003121499571236, 40.573649177265182 ], [ -74.026018106809204, 40.57643891328847 ], [ -74.048448662942462, 40.580922109778633 ], [ -74.070198692042169, 40.58705593768255 ], [ -74.091060069076008, 40.594781776363867 ], [ -74.110832973273304, 40.604025761157466 ], [ -74.129327770995914, 40.614699474396247 ], [ -74.146366811558437, 40.626700774002188 ], [ -74.161786119880688, 40.639914752507956 ], [ -74.175436970402629, 40.654214818188635 ], [ -74.187187327360263, 40.66946388884363 ], [ -74.196923137316489, 40.685515687686731 ], [ -74.204549460777457, 40.702216129786379 ], [ -74.209991430806923, 40.719404786559707 ], [ -74.213195027789766, 40.736916414972043 ], [ -74.214127660891691, 40.754582537341626 ], [ -74.212778548321225, 40.772233057006332 ], [ -74.209158890216585, 40.789697894588926 ], [ -74.203301829850389, 40.806808629209243 ], [ -74.195262200856931, 40.823400128746904 ], [ -74.185116060324376, 40.839312153168613 ], [ -74.172960009836615, 40.854390915004252 ], [ -74.15891030886894, 40.868490581297465 ], [ -74.143101787308311, 40.881474701771118 ], [ -74.125686566245264, 40.893217548539553 ], [ -74.106832598531639, 40.903605353468294 ], [ -74.086722042874328, 40.912537430222685 ], [ -74.065549487394861, 40.919927169155962 ], [ -74.043520040586458, 40.925702894451831 ], [ -74.020847309398803, 40.929808574345188 ], [ -73.997751285739, 40.932204376780192 ], [ -73.97445616395791, 40.932867064507782 ], [ -73.95118811286514, 40.9317902253526 ], [ -73.92817302646003, 40.928984335168437 ], [ -73.905634277865047, 40.924476652825973 ], [ -73.883790500894605, 40.918310948409321 ], [ -73.86285342328793, 40.91054706761242 ], [ -73.843025774889512, 40.901260337096844 ], [ -73.824499292992854, 40.890540817272417 ], [ -73.807452845698194, 40.878492410569052 ], [ -73.792050692504546, 40.865231834761104 ], [ -73.778440899497696, 40.850887472265448 ], [ -73.766753924450072, 40.835598107546716 ], [ -73.757101384957537, 40.819511565815986 ], [ -73.749575020447949, 40.802783267093467 ], [ -73.744245856547778, 40.785574710417087 ], [ -73.741163577929512, 40.768051903515044 ], [ -73.740356113420887, 40.750383753621726 ] ] ] } },
{ "type": "Feature", "properties": { "city": "PAR", "radius_km": 20 }, "geometry": { "type": "Polygon", "coordinates": [ [ [ 2.619963596534783, 48.856093009126319 ], [ 2.618784605809735, 48.838454103679773 ], [ 2.614993835193124, 48.820976274020957 ], [ 2.608630434609971, 48.803827595302856 ], [ 2.599758125887355, 48.787172809206751 ], [ 2.58846449649602, 48.771171753531959 ], [ 2.57486007516947, 48.755977844556632 ], [ 2.559077201284171, 48.741736625927601 ], [ 2.541268701289868, 48.728584397029699 ], [ 2.521606386676243, 48.7166469328915 ], [ 2.500279388965586, 48.706038306720181 ], [ 2.477492348047476, 48.696859825132719 ], [ 2.453463470839784, 48.689199085074534 ], [ 2.428422477789983, 48.683129160299856 ], [ 2.402608455141267, 48.678707924138088 ], [ 2.37626763119767, 48.675977514094171 ], [ 2.349651095047646, 48.674963942635074 ], [ 2.323012476360556, 48.675676857304666 ], [ 2.296605604966402, 48.678109452089146 ], [ 2.27068216897359, 48.68223853073021 ], [ 2.245489390176977, 48.688024721456529 ], [ 2.221267735459388, 48.695412841380389 ], [ 2.19824868279098, 48.704332407588126 ], [ 2.176652560275752, 48.71469829074627 ], [ 2.156686476472592, 48.726411505852539 ], [ 2.138542359916676, 48.739360133588519 ], [ 2.12239512536973, 48.753420364583967 ], [ 2.10840098381683, 48.768457657788318 ], [ 2.096695912584019, 48.784328003070563 ], [ 2.087394301155504, 48.800879277142243 ], [ 2.08058778730233, 48.817952680931491 ], [ 2.076344296978925, 48.835384245636646 ], [ 2.074707300084747, 48.853006393872022 ], [ 2.075695292614208, 48.870649541593387 ], [ 2.07930151392314, 48.888143725876276 ], [ 2.085493905823541, 48.90532024312386 ], [ 2.094215317987072, 48.922013281921529 ], [ 2.105383961705399, 48.938061534543422 ], [ 2.118894111444309, 48.953309771064355 ], [ 2.134617050868605, 48.967610360151355 ], [ 2.152402257144268, 48.980824720909148 ], [ 2.172078814389112, 48.99282469064196 ], [ 2.193457044194991, 49.003493794071538 ], [ 2.216330338241047, 49.012728400418624 ], [ 2.240477175219134, 49.020438755808996 ], [ 2.2656633016617, 49.026549879695708 ], [ 2.291644053860683, 49.031002315385415 ], [ 2.318166795951884, 49.033752726301792 ], [ 2.344973447466427, 49.03477433129266 ], [ 2.371803072265127, 49.03405717406465 ], [ 2.398394499809742, 49.031608223686874 ], [ 2.424488949213094, 49.027451305009052 ], [ 2.449832626461821, 49.02162685976527 ], [ 2.474179265622499, 49.014191541046273 ], [ 2.497292585712917, 49.00521764569411 ], [ 2.518948636221988, 48.994792390971774 ], [ 2.538938005959667, 48.983017043560416 ], [ 2.55706787196834, 48.970005910513407 ], [ 2.573163867577283, 48.955885203228938 ], [ 2.587071751274449, 48.94079178677223 ], [ 2.598658860843834, 48.924871827973689 ], [ 2.607815340109504, 48.908279356637998 ], [ 2.614455128578042, 48.89117475491966 ], [ 2.618516707221001, 48.873723190448239 ], [ 2.619963596534783, 48.856093009126319 ] ] ] } },
{ "type": "Feature", "properties": { "city": "SIN", "radius_km": 20 }, "geometry": { "type": "Polygon", "coordinates": [ [ [ 104.03108524818839, 1.283092168049827 ], [ 104.030226316593414, 1.265358647268054 ], [ 104.027644474642386, 1.247795272866834 ], [ 104.023364627470301, 1.230571211073769 ], [ 104.017428034451882, 1.213852355556971 ], [ 104.009891910446157, 1.197799729319493 ], [ 104.000828873435765, 1.182567933648806 ], [ 103.990326243909209, 1.168303659060149 ], [ 103.978485202754996, 1.155144272575413 ], [ 103.965419815795642, 1.143216494944252 ], [ 103.951255934369215, 1.13263518054799 ], [ 103.936129982559606, 1.123502211737422 ], [ 103.920187642767516, 1.115905518251889 ], [ 103.903582452294444, 1.109918231159306 ], [ 103.886474324469674, 1.105597979456792 ], [ 103.869028008578056, 1.10298633609158 ], [ 103.851411503435102, 1.102108418715759 ], [ 103.833794439899933, 1.102972648990323 ], [ 103.816346447911513, 1.105570672719221 ], [ 103.79923552377565, 1.109877441537933 ], [ 103.782626413418384, 1.115851455319517 ], [ 103.766679027156769, 1.12343516290964 ], [ 103.751546901221133, 1.132555517276594 ], [ 103.737375720800316, 1.143124679677699 ], [ 103.724301918775311, 1.155040866014454 ], [ 103.712451363567737, 1.168189327188961 ], [ 103.701938148662322, 1.182443453996362 ], [ 103.692863495379356, 1.197665995903913 ], [ 103.685314779382281, 1.213710381987627 ], [ 103.67936469021916, 1.230422131331272 ], [ 103.675070531925684, 1.247640339348336 ], [ 103.672473671373993, 1.265199225772125 ], [ 103.671599139648265, 1.282929729478352 ], [ 103.672455390276738, 1.300661134862902 ], [ 103.675034216663775, 1.318222714198527 ], [ 103.679310829557735, 1.335445370240318 ], [ 103.685244093872441, 1.352163263342394 ], [ 103.692776922666567, 1.368215407487418 ], [ 103.701836824589009, 1.383447219915686 ], [ 103.712336599630518, 1.39771200946958 ], [ 103.724175176599559, 1.410872389339116 ], [ 103.737238584372733, 1.422801600601029 ], [ 103.751401047673667, 1.433384733781601 ], [ 103.766526196919315, 1.442519836635842 ], [ 103.782468380553993, 1.450118897414318 ], [ 103.799074067279804, 1.456108694074711 ], [ 103.816183324698329, 1.460431501177394 ], [ 103.83363136011549, 1.463045647570936 ], [ 103.851250108634616, 1.463925919411537 ], [ 103.868869853183071, 1.463063804555835 ], [ 103.886320860789382, 1.460467575904289 ], [ 103.903435019256179, 1.456162212836935 ], [ 103.92004745836087, 1.450189161458473 ], [ 103.935998139862036, 1.442605935939283 ], [ 103.951133400893539, 1.433485564786583 ], [ 103.965307435786116, 1.422915887389723 ], [ 103.978383701963807, 1.41099870763994 ], [ 103.990236236310778, 1.39784881281304 ], [ 104.000750869287799, 1.383592867209573 ], [ 104.009826325081931, 1.368368191258264 ], [ 104.017375197192692, 1.352321437893209 ], [ 104.023324790075122, 1.335607179003275 ], [ 104.027617818766913, 1.318386415614205 ], [ 104.030212959806363, 1.300825026192606 ], [ 104.03108524818839, 1.283092168049827 ] ] ] } }
]
}
