{
"type": "FeatureCollection",
"name": "LON_20km",
"crs": { "type": "name", "properties": { "name": "urn:ogc:def:crs:OGC:1.3:CRS84" } },
"features": [
{ "type": "Feature", "properties": { "city": "LON", "radius_km": 20 }, "geometry": { "type": "Polygon", "coordinates": [ [ [ 0.175419375570591, 51.495722157898932 ], [ 0.172811226251751, 51.478159836544393 ], [ 0.167462217875332, 51.46084139932983 ], [ 0.159426791734868, 51.443933213197582 ], [ 0.148784952165995, 51.427597527786226 ], [ 0.135641397045538, 51.411990935760329 ], [ 0.120124426449247, 51.397262892982667 ], [ 0.102384643003691, 51.383554311674978 ], [ 0.082593458732992, 51.370996238862638 ], [ 0.060941424250981, 51.359708631475669 ], [ 0.037636397004607, 51.349799238499266 ], [ 0.012901565958147, 51.341362599538037 ], [ -0.013026649356282, 51.334479168090454 ], [ -0.039900807084288, 51.329214566730073 ], [ -0.067464739942278, 51.325618980264743 ], [ -0.09545592187937, 51.323726691798996 ], [ -0.123607885462298, 51.323555765462935 ], [ -0.15165267081914, 51.325107878396402 ], [ -0.179323286897965, 51.328368303393312 ], [ -0.206356165749147, 51.33330604242073 ], [ -0.232493590523632, 51.339874110032447 ], [ -0.257486077896594, 51.34800996450118 ], [ -0.281094695683934, 51.357636083300314 ], [ -0.303093296529236, 51.368660678377012 ], [ -0.323270648716386, 51.380978545481732 ], [ -0.341432445426401, 51.394472040654662 ], [ -0.357403174127414, 51.409012175829496 ], [ -0.371027828287267, 51.424459824401843 ], [ -0.382173444252753, 51.440667026534449 ], [ -0.390730446972648, 51.457478382944736 ], [ -0.396613789275665, 51.474732524951314 ], [ -0.399763870670328, 51.492263647659549 ], [ -0.400147223127916, 51.509903092354214 ], [ -0.397756953053894, 51.52748096345514 ], [ -0.392612930653161, 51.544827764793965 ], [ -0.384761720147719, 51.561776039502611 ], [ -0.374276246802053, 51.578161997480898 ], [ -0.361255199431579, 51.593827114247567 ], [ -0.345822169984495, 51.608619684986991 ], [ -0.328124534858382, 51.622396317795982 ], [ -0.308332085792691, 51.635023350518111 ], [ -0.286635421411022, 51.646378176132913 ], [ -0.263244113710215, 51.656350462446923 ], [ -0.238384666939424, 51.66484325280819 ], [ -0.212298289310744, 51.671773935731508 ], [ -0.185238500762748, 51.677075072665716 ], [ -0.157468602490789, 51.680695074641292 ], [ -0.129259036098842, 51.682598720187336 ], [ -0.100884661960738, 51.682767508677578 ], [ -0.072621987656937, 51.681199845128184 ], [ -0.044746378141541, 51.677911054396141 ], [ -0.017529279571563, 51.672933224685373 ], [ 0.008764511511078, 51.666314882224476 ], [ 0.033879502707212, 51.658120500904829 ], [ 0.05757205430301, 51.648429852527244 ], [ 0.079612793830629, 51.637337205072008 ], [ 0.09978887075645, 51.624950378053363 ], [ 0.117906027864665, 51.611389665522168 ], [ 0.133790468650363, 51.596786638620593 ], [ 0.14729050300211, 51.581282840755172 ], [ 0.158277956568397, 51.565028389429102 ], [ 0.166649332395113, 51.548180499555087 ], [ 0.172326716624911, 51.530901943654989 ], [ 0.175258423201844, 51.513359464743672 ], [ 0.175419375570591, 51.495722157898932 ] ] ] } }
]
}
