{
"type": "FeatureCollection",
"name": "NYC_20km",
"crs": { "type": "name", "properties": { "name": "urn:ogc:def:crs:OGC:1.3:CRS84" } },
"features": [
{ "type": "Feature", "properties": { "city": "NYC", "radius_km": 20 }, "geometry": { "type": "Polygon", "coordinates": [ [ [ -73.740356113420887, 40.750383753621726 ], [ -73.741829434872287, 40.732740435308152 ], [ -73.74556756908008, 40.715291751223866 ], [ -73.751532819975779, 40.69820550151691 ], [ -73.759666196333711, 40.681645877419577 ], [ -73.769888038435838, 40.665771894070886 ], [ -73.782098835472723, 40.650735877103187 ], [ -73.79618022395627, 40.636682016860142 ], [ -73.811996156075878, 40.623745003348532 ], [ -73.829394225739648, 40.612048754167581 ], [ -73.848207139002156, 40.601705246716385 ], [ -73.868254314681693, 40.592813464964678 ], [ -73.889343600203745, 40.585458469991401 ], [ -73.911273087064032, 40.579710602360997 ], [ -73.933833009774375, 40.575624823224707 ], [ -73.956807711727791, 40.57324019981489 ], [ -73.979977661088725, 40.572579539746421 ], [ -74.003121499571236, 40.573649177265182 ], [ -74.026018106809204, 40.57643891328847 ], [ -74.048448662942462, 40.580922109778633 ], [ -74.070198692042169, 40.58705593768255 ], [ -74.091060069076008, 40.594781776363867 ], [ -74.110832973273304, 40.604025761157466 ], [ -74.129327770995914, 40.614699474396247 ], [ -74.146366811558437, 40.626700774002188 ], [ -74.161786119880688, 40.639914752507956 ], [ -74.175436970402629, 40.654214818188635 ], [ -74.187187327360263, 40.66946388884363 ], [ -74.196923137316489, 40.685515687686731 ], [ -74.204549460777457, 40.702216129786379 ], [ -74.209991430806923, 40.719404786559707 ], [ -74.213195027789766, 40.736916414972043 ], [ -74.214127660891691, 40.754582537341626 ], [ -74.212778548321225, 40.772233057006332 ], [ -74.209158890216585, 40.789697894588926 ], [ -74.203301829850389, 40.806808629209243 ], [ -74.195262200856931, 40.823400128746904 ], [ -74.185116060324376, 40.839312153168613 ], [ -74.172960009836615, 40.854390915004252 ], [ -74.15891030886894, 40.868490581297465 ], [ -74.143101787308311, 40.881474701771118 ], [ -74.125686566245264, 40.893217548539553 ], [ -74.106832598531639, 40.903605353468294 ], [ -74.086722042874328, 40.912537430222685 ], [ -74.065549487394861, 40.919927169155962 ], [ -74.043520040586458, 40.925702894451831 ], [ -74.020847309398803, 40.929808574345188 ], [ -73.997751285739, 40.932204376780192 ], [ -73.97445616395791, 40.932867064507782 ], [ -73.95118811286514, 40.9317902253526 ], [ -73.92817302646003, 40.928984335168437 ], [ -73.905634277865047, 40.924476652825973 ], [ -73.883790500894605, 40.918310948409321 ], [ -73.86285342328793, 40.91054706761242 ], [ -73.843025774889512, 40.901260337096844 ], [ -73.824499292992854, 40.890540817272417 ], [ -73.807452845698194, 40.878492410569052 ], [ -73.792050692504546, 40.865231834761104 ], [ -73.778440899497696, 40.850887472265448 ], [ -73.766753924450072, 40.835598107546716 ], [ -73.757101384957537, 40.819511565815986 ], [ -73.749575020447949, 40.802783267093467 ], [ -73.744245856547778, 40.785574710417087 ], [ -73.741163577929512, 40.768051903515044 ], [ -73.740356113420887, 40.750383753621726 ] ] ] } }
]
}
