{
"type": "FeatureCollection",
"name": "PAR_20km",
"crs": { "type": "name", "properties": { "name": "urn:ogc:def:crs:OGC:1.3:CRS84" } },
"features": [
{ "type": "Feature", "properties": { "city": "PAR", "radius_km": 20 }, "geometry": { "type": "Polygon", "coordinates": [ [ [ 2.619963596534783, 48.856093009126319 ], [ 2.618784605809735, 48.838454103679773 ], [ 2.614993835193124, 48.820976274020957 ], [ 2.608630434609971, 48.803827595302856 ], [ 2.599758125887355, 48.787172809206751 ], [ 2.58846449649602, 48.771171753531959 ], [ 2.57486007516947, 48.755977844556632 ], [ 2.559077201284171, 48.741736625927601 ], [ 2.541268701289868, 48.728584397029699 ], [ 2.521606386676243, 48.7166469328915 ], [ 2.500279388965586, 48.706038306720181 ], [ 2.477492348047476, 48.696859825132719 ], [ 2.453463470839784, 48.689199085074534 ], [ 2.428422477789983, 48.683129160299856 ], [ 2.402608455141267, 48.678707924138088 ], [ 2.37626763119767, 48.675977514094171 ], [ 2.349651095047646, 48.674963942635074 ], [ 2.323012476360556, 48.675676857304666 ], [ 2.296605604966402, 48.678109452089146 ], [ 2.27068216897359, 48.68223853073021 ], [ 2.245489390176977, 48.688024721456529 ], [ 2.221267735459388, 48.695412841380389 ], [ 2.19824868279098, 48.704332407588126 ], [ 2.176652560275752, 48.71469829074627 ], [ 2.156686476472592, 48.726411505852539 ], [ 2.138542359916676, 48.739360133588519 ], [ 2.12239512536973, 48.753420364583967 ], [ 2.10840098381683, 48.768457657788318 ], [ 2.096695912584019, 48.784328003070563 ], [ 2.087394301155504, 48.800879277142243 ], [ 2.08058778730233, 48.817952680931491 ], [ 2.076344296978925, 48.835384245636646 ], [ 2.074707300084747, 48.853006393872022 ], [ 2.075695292614208, 48.870649541593387 ], [ 2.07930151392314, 48.888143725876276 ], [ 2.085493905823541, 48.90532024312386 ], [ 2.094215317987072, 48.922013281921529 ], [ 2.105383961705399, 48.938061534543422 ], [ 2.118894111444309, 48.953309771064355 ], [ 2.134617050868605, 48.967610360151355 ], [ 2.152402257144268, 48.980824720909148 ], [ 2.172078814389112, 48.99282469064196 ], [ 2.193457044194991, 49.003493794071538 ], [ 2.216330338241047, 49.012728400418624 ], [ 2.240477175219134, 49.020438755808996 ], [ 2.2656633016617, 49.026549879695708 ], [ 2.291644053860683, 49.031002315385415 ], [ 2.318166795951884, 49.033752726301792 ], [ 2.344973447466427, 49.03477433129266 ], [ 2.371803072265127, 49.03405717406465 ], [ 2.398394499809742, 49.031608223686874 ], [ 2.424488949213094, 49.027451305009052 ], [ 2.449832626461821, 49.02162685976527 ], [ 2.474179265622499, 49.014191541046273 ], [ 2.497292585712917, 49.00521764569411 ], [ 2.518948636221988, 48.994792390971774 ], [ 2.538938005959667, 48.983017043560416 ], [ 2.55706787196834, 48.970005910513407 ], [ 2.573163867577283, 48.955885203228938 ], [ 2.587071751274449, 48.94079178677223 ], [ 2.598658860843834, 48.924871827973689 ], [ 2.607815340109504, 48.908279356637998 ], [ 2.614455128578042, 48.89117475491966 ], [ 2.618516707221001, 48.873723190448239 ], [ 2.619963596534783, 48.856093009126319 ] ] ] } }
]
}
