{
"type": "FeatureCollection",
"name": "SIN_20km",
"crs": { "type": "name", "properties": { "name": "urn:ogc:def:crs:OGC:1.3:CRS84" } },
"features": [
{ "type": "Feature", "properties": { "city": "SIN", "radius_km": 20 }, "geometry": { "type": "Polygon", "coordinates": [ [ [ 104.03108524818839, 1.283092168049827 ], [ 104.030226316593414, 1.265358647268054 ], [ 104.027644474642386, 1.247795272866834 ], [ 104.023364627470301, 1.230571211073769 ], [ 104.017428034451882, 1.213852355556971 ], [ 104.009891910446157, 1.197799729319493 ], [ 104.000828873435765, 1.182567933648806 ], [ 103.990326243909209, 1.168303659060149 ], [ 103.978485202754996, 1.155144272575413 ], [ 103.965419815795642, 1.143216494944252 ], [ 103.951255934369215, 1.13263518054799 ], [ 103.936129982559606, 1.123502211737422 ], [ 103.920187642767516, 1.115905518251889 ], [ 103.903582452294444, 1.109918231159306 ], [ 103.886474324469674, 1.105597979456792 ], [ 103.869028008578056, 1.10298633609158 ], [ 103.851411503435102, 1.102108418715759 ], [ 103.833794439899933, 1.102972648990323 ], [ 103.816346447911513, 1.105570672719221 ], [ 103.79923552377565, 1.109877441537933 ], [ 103.782626413418384, 1.115851455319517 ], [ 103.766679027156769, 1.12343516290964 ], [ 103.751546901221133, 1.132555517276594 ], [ 103.737375720800316, 1.143124679677699 ], [ 103.724301918775311, 1.155040866014454 ], [ 103.712451363567737, 1.168189327188961 ], [ 103.701938148662322, 1.182443453996362 ], [ 103.692863495379356, 1.197665995903913 ], [ 103.685314779382281, 1.213710381987627 ], [ 103.67936469021916, 1.230422131331272 ], [ 103.675070531925684, 1.247640339348336 ], [ 103.672473671373993, 1.265199225772125 ], [ 103.671599139648265, 1.282929729478352 ], [ 103.672455390276738, 1.300661134862902 ], [ 103.675034216663775, 1.318222714198527 ], [ 103.679310829557735, 1.335445370240318 ], [ 103.685244093872441, 1.352163263342394 ], [ 103.692776922666567, 1.368215407487418 ], [ 103.701836824589009, 1.383447219915686 ], [ 103.712336599630518, 1.39771200946958 ], [ 103.724175176599559, 1.410872389339116 ], [ 103.737238584372733, 1.422801600601029 ], [ 103.751401047673667, 1.433384733781601 ], [ 103.766526196919315, 1.442519836635842 ], [ 103.782468380553993, 1.450118897414318 ], [ 103.799074067279804, 1.456108694074711 ], [ 103.816183324698329, 1.460431501177394 ], [ 103.83363136011549, 1.463045647570936 ], [ 103.851250108634616, 1.463925919411537 ], [ 103.868869853183071, 1.463063804555835 ], [ 103.886320860789382, 1.460467575904289 ], [ 103.903435019256179, 1.456162212836935 ], [ 103.92004745836087, 1.450189161458473 ], [ 103.935998139862036, 1.442605935939283 ], [ 103.951133400893539, 1.433485564786583 ], [ 103.965307435786116, 1.422915887389723 ], [ 103.978383701963807, 1.41099870763994 ], [ 103.990236236310778, 1.39784881281304 ], [ 104.000750869287799, 1.383592867209573 ], [ 104.009826325081931, 1.368368191258264 ], [ 104.017375197192692, 1.352321437893209 ], [ 104.023324790075122, 1.335607179003275 ], [ 104.027617818766913, 1.318386415614205 ], [ 104.030212959806363, 1.300825026192606 ], [ 104.03108524818839, 1.283092168049827 ] ] ] } }
]
}
