{
"type": "FeatureCollection",
"name": "TYO_20km",
"crs": { "type": "name", "properties": { "name": "urn:ogc:def:crs:OGC:1.3:CRS84" } },
"features": [
{ "type": "Feature", "properties": { "city": "TYO", "radius_km": 20 }, "geometry": { "type": "Polygon", "coordinates": [ [ [ 139.988033187218605, 35.683227778780271 ], [ 139.987192369918404, 35.66554629772147 ], [ 139.984232579008278, 35.648017124740065 ], [ 139.979183674771974, 35.630808945000666 ], [ 139.97209554004192, 35.614087248110906 ], [ 139.963037551918575, 35.598012743653051 ], [ 139.952097871459415, 35.582739826319184 ], [ 139.939382559741688, 35.568415104920973 ], [ 139.92501453008893, 35.555176008820538 ], [ 139.909132347496609, 35.543149484498628 ], [ 139.891888887403582, 35.532450794050355 ], [ 139.873449866930827, 35.523182426387443 ], [ 139.853992262556574, 35.515433130840847 ], [ 139.833702628917735, 35.509277081705861 ], [ 139.812775334032381, 35.50477318106639 ], [ 139.791410726728571, 35.501964505982613 ], [ 139.769813252449609, 35.500877904837445 ], [ 139.748189533889303, 35.501523746319762 ], [ 139.726746433095173, 35.503895823185943 ], [ 139.705689111770369, 35.507971411593246 ], [ 139.685219106502672, 35.513711485447445 ], [ 139.665532435557083, 35.521061083861476 ], [ 139.646817753682598, 35.529949828489343 ], [ 139.62925457110552, 35.540292586187483 ], [ 139.61301155250311, 35.551990271174134 ], [ 139.598244911273952, 35.564930779611586 ], [ 139.585096913836111, 35.578990048338227 ], [ 139.573694507985493, 35.594033228330687 ], [ 139.564148088533159, 35.609915962396201 ], [ 139.556550412500314, 35.62648575558412 ], [ 139.550975675083521, 35.643583425877814 ], [ 139.547478756404388, 35.661044621890056 ], [ 139.546094647724971, 35.6787013935486 ], [ 139.546838064345735, 35.6963838011322 ], [ 139.549703250806658, 35.713921547511134 ], [ 139.554663982292396, 35.731145618071579 ], [ 139.56167376430929, 35.747889912565668 ], [ 139.570666230768126, 35.763992853041131 ], [ 139.5815557385896, 35.779298952070448 ], [ 139.594238154874347, 35.793660325727551 ], [ 139.608591830566894, 35.806938136152816 ], [ 139.624478752427194, 35.819003949108328 ], [ 139.641745863034316, 35.82974099265401 ], [ 139.660226536518934, 35.83904530396844 ], [ 139.67974219579142, 35.846826752391195 ], [ 139.700104055237233, 35.853009927966738 ], [ 139.721114971223784, 35.857534886112475 ], [ 139.74257138133936, 35.860357740500511 ], [ 139.764265312095091, 35.861451097817024 ], [ 139.785986433888041, 35.86080432972458 ], [ 139.80752414137379, 35.858423679080758 ], [ 139.82866963703944, 35.854332199235401 ], [ 139.849217995716231, 35.84856952701692 ], [ 139.868970188022075, 35.841191491798064 ], [ 139.887735041276045, 35.832269564780098 ], [ 139.905331117265547, 35.821890154326745 ], [ 139.921588487352892, 35.8101537547929 ], [ 139.936350386760864, 35.797173957807168 ], [ 139.949474731442166, 35.783076336363258 ], [ 139.960835482690698, 35.767997213336272 ], [ 139.970323846548865, 35.752082327154568 ], [ 139.97784929707899, 35.735485408313295 ], [ 139.983340414652758, 35.718366681207989 ], [ 139.986745532540681, 35.700891306387774 ], [ 139.988033187218605, 35.683227778780271 ] ] ] } }
]
}
