{
"type": "FeatureCollection",
"name": "NYC_50km",
"crs": { "type": "name", "properties": { "name": "urn:ogc:def:crs:OGC:1.3:CRS84" } },
"features": [
{ "type": "Feature", "properties": { "city": "NYC", "radius_km": 50 }, "geometry": { "type": "Polygon", "coordinates": [ [ [ -73.38510564771029, 40.745959001131453 ], [ -73.389021105443504, 40.701866151173562 ], [ -73.398586823767545, 40.658276520091007 ], [ -73.413700179203516, 40.615608327746315 ], [ -73.434206125613287, 40.574270193840718 ], [ -73.459899040674216, 40.534657295438898 ], [ -73.490525004653975, 40.497147676776173 ], [ -73.525784479297869, 40.462098742205143 ], [ -73.56533535339058, 40.429843960829224 ], [ -73.60879632080561, 40.400689808992745 ], [ -73.655750556513212, 40.374912974374062 ], [ -73.705749655985827, 40.352757842975947 ], [ -73.758317803629112, 40.334434287836551 ], [ -73.812956136196021, 40.320115775800481 ], [ -73.869147267539304, 40.309937806195357 ], [ -73.926359941463204, 40.30399669275748 ], [ -73.984053779799424, 40.302348697637257 ], [ -74.04168409311653, 40.30500952379419 ], [ -74.098706721649606, 40.311954169558405 ], [ -74.154582874089826, 40.32311714659366 ], [ -74.208783931796404, 40.338393059943499 ], [ -74.260796185788919, 40.357637546280273 ], [ -74.310125473558699, 40.380668563906006 ], [ -74.356301682328734, 40.407268025476036 ], [ -74.398883084923852, 40.437183761833346 ], [ -74.437460473932916, 40.470131802754715 ], [ -74.471661059404951, 40.50579895782343 ], [ -74.501152094989195, 40.543845678061381 ], [ -74.525644197277742, 40.58390917638328 ], [ -74.54489432322471, 40.625606782389745 ], [ -74.558708370987574, 40.668539504506192 ], [ -74.566943370459526, 40.712295770026643 ], [ -74.569509231230896, 40.756455311258321 ], [ -74.566370017825363, 40.800593163723576 ], [ -74.557544724880827, 40.844283740299971 ], [ -74.543107528553932, 40.887104943318668 ], [ -74.523187494862526, 40.928642275050748 ], [ -74.497967730958479, 40.96849290575409 ], [ -74.467683971426638, 41.006269657591666 ], [ -74.432622598579187, 41.041604862331205 ], [ -74.39311810326339, 41.074154050857807 ], [ -74.349550000789094, 41.103599433226812 ], [ -74.302339225035752, 41.129653129300046 ], [ -74.251944032408559, 41.152060111971814 ], [ -74.19885545584269, 41.170600827613633 ], [ -74.14359235724983, 41.185093461640633 ], [ -74.086696134400171, 41.195395820996872 ], [ -74.028725144980314, 41.201406809818934 ], [ -73.97024891622759, 41.203067479494024 ], [ -73.911842212906876, 41.200361639685568 ], [ -73.854079039307067, 41.193316022547151 ], [ -73.797526652280581, 41.181999998161395 ], [ -73.74273966207916, 41.166524845096134 ], [ -73.690254295864804, 41.147042585733594 ], [ -73.640582895366123, 41.123744401573425 ], [ -73.594208715339292, 41.096858648918626 ], [ -73.55158108345401, 41.066648500122028 ], [ -73.51311097518014, 41.033409239812286 ], [ -73.47916704944106, 40.997465249169373 ], [ -73.450072182488597, 40.959166714334287 ], [ -73.426100528899113, 40.918886097398932 ], [ -73.407475130043082, 40.87701441012576 ], [ -73.394366082067549, 40.833957331617768 ], [ -73.386889267551922, 40.790131211629394 ], [ -73.38510564771029, 40.745959001131453 ] ] ] } }
]
}
