{
"type": "FeatureCollection",
"name": "PAR_50km",
"crs": { "type": "name", "properties": { "name": "urn:ogc:def:crs:OGC:1.3:CRS84" } },
"features": [
{ "type": "Feature", "properties": { "city": "PAR", "radius_km": 50 }, "geometry": { "type": "Polygon", "coordinates": [ [ [ 3.028945481904857, 48.856715685844925 ], [ 3.025640672596096, 48.812628966715138 ], [ 3.015820256836956, 48.768967484391993 ], [ 2.999595184009917, 48.726150089368865 ], [ 2.977136727296661, 48.684586498142693 ], [ 2.948674275356635, 48.644673455019088 ], [ 2.914492642687647, 48.606791051406546 ], [ 2.874928941043367, 48.571299232311432 ], [ 2.830369054658954, 48.538534517106783 ], [ 2.781243761701996, 48.508806959012922 ], [ 2.728024543481796, 48.482397365123845 ], [ 2.671219121672002, 48.459554796263483 ], [ 2.611366762276677, 48.440494363469746 ], [ 2.549033383432045, 48.425395335488403 ], [ 2.484806502503695, 48.414399569311804 ], [ 2.419290056413394, 48.407610273515715 ], [ 2.353099127794837, 48.405091111922012 ], [ 2.286854608500303, 48.406865652937057 ], [ 2.221177831210314, 48.412917167774594 ], [ 2.156685199469587, 48.423188778655252 ], [ 2.093982846402817, 48.437583955970979 ], [ 2.033661352655874, 48.455967361299471 ], [ 1.976290554748716, 48.478166031037517 ], [ 1.922414475987435, 48.503970893282144 ], [ 1.872546413319328, 48.533138608410489 ], [ 1.827164214965063, 48.565393721583817 ], [ 1.786705785246588, 48.600431113117104 ], [ 1.751564854651485, 48.63791873030695 ], [ 1.722087054719452, 48.677500581892431 ], [ 1.698566338673773, 48.718799973840149 ], [ 1.681241789705322, 48.761422962601188 ], [ 1.670294859293285, 48.804961999405343 ], [ 1.665847077754868, 48.848999736558277 ], [ 1.667958278195831, 48.893112964132605 ], [ 1.676625373034004, 48.936876642937818 ], [ 1.691781719156208, 48.979867997280692 ], [ 1.71329710344026, 49.021670628854572 ], [ 1.740978374760998, 49.061878611202722 ], [ 1.774570741682969, 49.100100522674929 ], [ 1.813759746858847, 49.135963374722081 ], [ 1.858173919799841, 49.169116391842358 ], [ 1.907388099325508, 49.199234599581125 ], [ 1.96092740586321, 49.226022177768243 ], [ 2.018271832139513, 49.249215537701488 ], [ 2.078861409025772, 49.268586084288543 ], [ 2.14210189174406, 49.283942627247704 ], [ 2.207370900704586, 49.295133409321807 ], [ 2.27402444132984, 49.302047724028583 ], [ 2.341403718701871, 49.304617100679849 ], [ 2.408842156083857, 49.302816040142737 ], [ 2.47567252159095, 49.296662290964512 ], [ 2.541234064715721, 49.286216661888041 ], [ 2.60487956415824, 49.271582373294414 ], [ 2.665982190480661, 49.252903956555549 ], [ 2.723942091414909, 49.230365716506029 ], [ 2.778192614021183, 49.204189778099291 ], [ 2.82820608606544, 49.174633743665289 ], [ 2.873499088631351, 49.141987991924573 ], [ 2.913637162736191, 49.106572653951858 ], [ 2.948238904185573, 49.068734304565218 ], [ 2.97697941268012, 49.028842410116589 ], [ 2.999593072895943, 48.98728557537688 ], [ 3.015875656552141, 48.944467633170142 ], [ 3.025685745052637, 48.900803620665386 ], [ 3.028945481904857, 48.856715685844925 ] ] ] } }
]
}
