{
"type": "FeatureCollection",
"name": "LON_40km",
"crs": { "type": "name", "properties": { "name": "urn:ogc:def:crs:OGC:1.3:CRS84" } },
"features": [
{ "type": "Feature", "properties": { "city": "LON", "radius_km": 40 }, "geometry": { "type": "Polygon", "coordinates": [ [ [ 0.463014579470011, 51.487574372142355 ], [ 0.457581398460921, 51.452466565229898 ], [ 0.446680304812538, 51.41785921272443 ], [ 0.430427892340548, 51.38408388400903 ], [ 0.408991019346812, 51.35146348019807 ], [ 0.382584817477956, 51.320309218653406 ], [ 0.351470301632475, 51.290917750372344 ], [ 0.315951614838867, 51.26356843346074 ], [ 0.276372942520669, 51.238520783909834 ], [ 0.233115130540489, 51.21601212289189 ], [ 0.186592040991463, 51.196255437797085 ], [ 0.137246678996108, 51.179437472267416 ], [ 0.085547122888138, 51.165717058550257 ], [ 0.031982289191807, 51.155223703596931 ], [ -0.022942437135872, 51.148056438471357 ], [ -0.07870967759723, 51.144282938802299 ], [ -0.13479461129165, 51.143938922207099 ], [ -0.19066957392878, 51.147027826823084 ], [ -0.245808676636953, 51.153520773297878 ], [ -0.299692416528801, 51.163356810801076 ], [ -0.351812250776075, 51.176443445816489 ], [ -0.401675105492413, 51.192657450649257 ], [ -0.448807790049684, 51.211845946725049 ], [ -0.492761286597058, 51.233827755863317 ], [ -0.533114883563123, 51.258395010768446 ], [ -0.569480120863897, 51.285315013996815 ], [ -0.601504513490715, 51.314332332626051 ], [ -0.628875019200691, 51.34517111377717 ], [ -0.651321215278394, 51.377537604028731 ], [ -0.668618148888754, 51.411122853628207 ], [ -0.680588825511686, 51.445605584265614 ], [ -0.68710630045383, 51.480655197056102 ], [ -0.688095339584733, 51.515934895309002 ], [ -0.683533617347773, 51.551104894683199 ], [ -0.673452422839523, 51.585825691483272 ], [ -0.657936848403735, 51.61976135819183 ], [ -0.6371254397884, 51.652582833913272 ], [ -0.611209292473698, 51.683971176282647 ], [ -0.580430585263227, 51.713620740628976 ], [ -0.545080549566276, 51.741242251831466 ], [ -0.505496880866029, 51.766565734423864 ], [ -0.462060607503769, 51.789343267129006 ], [ -0.415192440908559, 51.809351529177142 ], [ -0.36534864052522, 51.826394107498515 ], [ -0.313016435674814, 51.840303536183768 ], [ -0.258709055139074, 51.850943042464174 ], [ -0.202960423108505, 51.858207976840717 ], [ -0.146319586999376, 51.862026908837741 ], [ -0.089344948279445, 51.862362374100172 ], [ -0.032598371635917, 51.859211263109835 ], [ 0.023360749586539, 51.852604846567083 ], [ 0.077981392854988, 51.84260843736039 ], [ 0.130726692839831, 51.829320693919264 ], [ 0.181079539281341, 51.812872574500766 ], [ 0.228547915021626, 51.793425956492726 ], [ 0.272669908471657, 51.771171939028655 ], [ 0.313018341594303, 51.746328851015804 ], [ 0.349204962278731, 51.719139990012856 ], [ 0.380884158485218, 51.689871120203655 ], [ 0.40775616046681, 51.658807759971175 ], [ 0.429569706442905, 51.626252291266759 ], [ 0.446124156042837, 51.592520924101215 ], [ 0.457271044414872, 51.557940550079834 ], [ 0.462915077903248, 51.522845518996299 ], [ 0.463014579470011, 51.487574372142355 ] ] ] } }
]
}
