{
"type": "FeatureCollection",
"name": "NYC_40km",
"crs": { "type": "name", "properties": { "name": "urn:ogc:def:crs:OGC:1.3:CRS84" } },
"features": [
{ "type": "Feature", "properties": { "city": "NYC", "radius_km": 40 }, "geometry": { "type": "Polygon", "coordinates": [ [ [ -73.503513578796259, 40.747555363757478 ], [ -73.506584096196576, 40.71227681713362 ], [ -73.514178038456919, 40.677396422000413 ], [ -73.526215530330333, 40.643249104519604 ], [ -73.542574535523372, 40.610162263081733 ], [ -73.563092260793553, 40.578452673632299 ], [ -73.587566918088058, 40.548423512256861 ], [ -73.615759820913667, 40.520361520757362 ], [ -73.647397789553779, 40.494534339189066 ], [ -73.682175838558948, 40.471188027467548 ], [ -73.719760119078884, 40.450544796215532 ], [ -73.75979108801593, 40.432800965017123 ], [ -73.801886875609213, 40.418125164197356 ], [ -73.845646822849574, 40.406656794155715 ], [ -73.890655160031244, 40.398504754162325 ], [ -73.936484797723878, 40.393746450380569 ], [ -73.982701201463925, 40.392427090714008 ], [ -74.02886632148666, 40.394559271893378 ], [ -74.074542548832483, 40.400122862022108 ], [ -74.119296669146934, 40.409065179593277 ], [ -74.162703785449821, 40.421301467774796 ], [ -74.204351181077399, 40.436715660541616 ], [ -74.243842093910757, 40.455161435013835 ], [ -74.280799372913094, 40.476463542142788 ], [ -74.314868987932158, 40.500419405679345 ], [ -74.345723363712992, 40.526800977163205 ], [ -74.373064509150879, 40.555356832498369 ], [ -74.396626913038915, 40.585814493534045 ], [ -74.416180177979086, 40.617882955965086 ], [ -74.431531364785073, 40.651255402813284 ], [ -74.442527020665409, 40.685612080767299 ], [ -74.449054865794636, 40.720623314765653 ], [ -74.451045114609357, 40.755952634425647 ], [ -74.448471410358437, 40.791259984282583 ], [ -74.441351354127619, 40.826204988336208 ], [ -74.42974661277897, 40.860450238143329 ], [ -74.413762594005263, 40.893664572683775 ], [ -74.393547680992356, 40.925526317499973 ], [ -74.369292023980847, 40.955726450210094 ], [ -74.341225891268479, 40.983971659457261 ], [ -74.309617587825201, 41.009987264718603 ], [ -74.274770955599323, 41.033519965185015 ], [ -74.237022475660169, 41.054340387159172 ], [ -74.196737998406832, 41.072245401113747 ], [ -74.154309134022839, 41.087060181705858 ], [ -74.110149341010271, 41.098639986644898 ], [ -74.064689755831012, 41.106871633330741 ], [ -74.018374811260813, 41.111674655581822 ], [ -73.971657694877422, 41.113002126501208 ], [ -73.924995702036469, 41.110841137524055 ], [ -73.878845539637226, 41.10521292787417 ], [ -73.83365863788255, 41.096172662953805 ], [ -73.789876527059889, 41.083808864511738 ], [ -73.747926335122798, 41.068242499697327 ], [ -73.708216459574587, 41.049625740226162 ], [ -73.671132463928032, 41.028140406782114 ], [ -73.637033244941904, 41.003996117386286 ], [ -73.606247512050629, 40.977428161722237 ], [ -73.579070615055869, 40.948695126265662 ], [ -73.555761750399583, 40.918076297496711 ], [ -73.536541570350551, 40.885868872451255 ], [ -73.521590213369009, 40.852385007386523 ], [ -73.511045767918148, 40.817948736404318 ], [ -73.505003176197434, 40.782892792504072 ], [ -73.503513578796259, 40.747555363757478 ] ] ] } }
]
}
