{
"type": "FeatureCollection",
"name": "PAR_40km",
"crs": { "type": "name", "properties": { "name": "urn:ogc:def:crs:OGC:1.3:CRS84" } },
"features": [
{ "type": "Feature", "properties": { "city": "PAR", "radius_km": 40 }, "geometry": { "type": "Polygon", "coordinates": [ [ [ 2.89261682982328, 48.85666931475172 ], [ 2.89006820500604, 48.821396930534419 ], [ 2.882303270887892, 48.786458736222855 ], [ 2.869407318133588, 48.752190180844266 ], [ 2.851514201063069, 48.718919617518083 ], [ 2.828804686621563, 48.686965208684789 ], [ 2.801504400644845, 48.656631950763362 ], [ 2.769881402203442, 48.62820884329853 ], [ 2.73424341796887, 48.601966225686866 ], [ 2.694934769163098, 48.578153302544017 ], [ 2.652333023825055, 48.556995876719078 ], [ 2.606845406952568, 48.538694306895387 ], [ 2.558905000649715, 48.523421704658183 ], [ 2.508966765817738, 48.511322383864744 ], [ 2.45750341625433, 48.502510573131048 ], [ 2.405001175343331, 48.497069400250574 ], [ 2.351955444886343, 48.495050155387283 ], [ 2.298866415099303, 48.496471837932233 ], [ 2.246234644409069, 48.501320989978346 ], [ 2.19455663746346, 48.50955181744628 ], [ 2.144320449727262, 48.521086597978922 ], [ 2.096001347178049, 48.535816372807865 ], [ 2.05005754992935, 48.553601917876804 ], [ 2.006926089071949, 48.574274987576274 ], [ 1.967018806602605, 48.597639822500128 ], [ 1.930718528956324, 48.623474910668804 ], [ 1.898375445315259, 48.651534989680478 ], [ 1.870303722464765, 48.681553275245122 ], [ 1.846778388425453, 48.713243899535499 ], [ 1.828032517321265, 48.746304540758814 ], [ 1.814254747853292, 48.78041922332747 ], [ 1.80558716723972, 48.815261266004129 ], [ 1.802123591456964, 48.850496353439794 ], [ 1.803908270983547, 48.885785704644952 ], [ 1.810935048924548, 48.920789310168026 ], [ 1.823146995313839, 48.955169208147851 ], [ 1.84043653750811, 48.988592768003329 ], [ 1.862646101881943, 49.02073594937626 ], [ 1.889569276518884, 49.051286503107249 ], [ 1.920952498317027, 49.079947080551165 ], [ 1.956497260973902, 49.106438217480687 ], [ 1.995862832807365, 49.130501159227705 ], [ 2.038669465466265, 49.151900494610437 ], [ 2.084502066479297, 49.170426567614676 ], [ 2.132914300501383, 49.185897637751509 ], [ 2.183433076281549, 49.198161762500206 ], [ 2.235563369039965, 49.207098378238364 ], [ 2.288793321347009, 49.21261955953026 ], [ 2.342599559971087, 49.214670940526084 ], [ 2.396452661705153, 49.213232286455842 ], [ 2.449822698057031, 49.208317707691073 ], [ 2.502184787012258, 49.199975513505841 ], [ 2.553024579913211, 49.188287707390401 ], [ 2.601843612851353, 49.173369130454006 ], [ 2.648164454789746, 49.1553662639948 ], [ 2.69153558881586, 49.134455706617075 ], [ 2.731535968316945, 49.110842345252294 ], [ 2.767779196279168, 49.084757243016874 ], [ 2.79991728311488, 49.056455269954554 ], [ 2.827643946180223, 49.026212505325425 ], [ 2.850697422211796, 48.994323442188922 ], [ 2.868862772046537, 48.961098026578178 ], [ 2.881973664969583, 48.926858564585757 ], [ 2.889913637661659, 48.891936531196862 ], [ 2.89261682982328, 48.85666931475172 ] ] ] } }
]
}
