{
"type": "FeatureCollection",
"name": "SIN_40km",
"crs": { "type": "name", "properties": { "name": "urn:ogc:def:crs:OGC:1.3:CRS84" } },
"features": [
{ "type": "Feature", "properties": { "city": "SIN", "radius_km": 40 }, "geometry": { "type": "Polygon", "coordinates": [ [ [ 104.210843602930126, 1.283154329939779 ], [ 104.209123134447424, 1.247685694980185 ], [ 104.203956657547494, 1.212557638617095 ], [ 104.195394079206835, 1.178108530489113 ], [ 104.183518012288388, 1.144670185670543 ], [ 104.16844297585466, 1.11256466855149 ], [ 104.150314288853934, 1.082101190823606 ], [ 104.129306667777882, 1.053573133374879 ], [ 104.105622541692682, 1.027255220743042 ], [ 104.079490100742774, 1.003400875352105 ], [ 104.051161096791262, 0.982239777068017 ], [ 104.020908417270434, 0.963975651668136 ], [ 103.989023455539723, 0.948784309638713 ], [ 103.955813303063437, 0.936811954312006 ], [ 103.921597790497557, 0.92817377575095 ], [ 103.886706406290728, 0.922952844009042 ], [ 103.851475122635293, 0.921199312464596 ], [ 103.816243159532831, 0.922929938883324 ], [ 103.781349718348679, 0.928127928735496 ], [ 103.747130716512729, 0.936743102119916 ], [ 103.713915554975941, 0.948692382463932 ], [ 103.682023949654223, 0.963860602013901 ], [ 103.651762857392583, 0.982101616040574 ], [ 103.623423525974061, 1.003239714693382 ], [ 103.597278696400025, 1.02707131857867 ], [ 103.573579984099823, 1.053366941438441 ], [ 103.552555463914885, 1.081873400793058 ], [ 103.534407481671423, 1.112316255104931 ], [ 103.519310712932423, 1.144402443937433 ], [ 103.507410487132375, 1.177823105737558 ], [ 103.498821392772228, 1.212256546272124 ], [ 103.493626176710521, 1.247371329402637 ], [ 103.491874947854768, 1.282829460798012 ], [ 103.493584692751824, 1.318289634360411 ], [ 103.498739107719075, 1.353410510579326 ], [ 103.507288749264248, 1.387853995734362 ], [ 103.519151501630105, 1.421288490838835 ], [ 103.534213357385127, 1.453392079455555 ], [ 103.552329504081683, 1.483855624023726 ], [ 103.573325707137727, 1.512385741112368 ], [ 103.596999976287279, 1.538707627060727 ], [ 103.623124500212029, 1.562567706778169 ], [ 103.651447831338231, 1.583736080051498 ], [ 103.681697300286189, 1.602008741540304 ], [ 103.71358163712506, 1.617209552721304 ], [ 103.746793774444612, 1.629191946357495 ], [ 103.781013805337864, 1.637840346599741 ], [ 103.815912067726615, 1.643071290555428 ], [ 103.851152325081756, 1.64483424005469 ], [ 103.88639501251788, 1.643112075379392 ], [ 103.921300516496927, 1.637921265859506 ], [ 103.955532455973511, 1.629311715449381 ], [ 103.98876093276229, 1.617366284633843 ], [ 104.020665719209887, 1.602199993241879 ], [ 104.050939351902585, 1.583958911924302 ], [ 104.079290101128407, 1.562818753143278 ], [ 104.105444787118131, 1.538983175489819 ], [ 104.129151415695489, 1.512681817957308 ], [ 104.150181607843507, 1.48416808342534 ], [ 104.168332799814706, 1.453716693023193 ], [ 104.183430192746158, 1.421621035224732 ], [ 104.195328433255753, 1.388190335459452 ], [ 104.203913009161639, 1.353746673694312 ], [ 104.209101347254119, 1.318621878838324 ], [ 104.210843602930126, 1.283154329939779 ] ] ] } }
]
}
