{
"type": "FeatureCollection",
"name": "TYO_40km",
"crs": { "type": "name", "properties": { "name": "urn:ogc:def:crs:OGC:1.3:CRS84" } },
"features": [
{ "type": "Feature", "properties": { "city": "TYO", "radius_km": 40 }, "geometry": { "type": "Polygon", "coordinates": [ [ [ 140.209034997640487, 35.684882697827689 ], [ 140.207256095931541, 35.649521445086492 ], [ 140.201242411242276, 35.614472409901516 ], [ 140.191057255973874, 35.580072584752529 ], [ 140.176803712693157, 35.546652297686215 ], [ 140.158623453570783, 35.514532070170517 ], [ 140.136695212084874, 35.484019583094707 ], [ 140.111232927550304, 35.455406777977139 ], [ 140.082483584983208, 35.428967118762692 ], [ 140.050724774408877, 35.404953037769367 ], [ 140.01626199500447, 35.383593587401734 ], [ 139.979425730477004, 35.365092317205388 ], [ 139.940568322850027, 35.34962539371061 ], [ 139.90006067240634, 35.337339978316678 ], [ 139.858288791949207, 35.328352876216663 ], [ 139.81565024382661, 35.322749467065606 ], [ 139.772550488345274, 35.320582925763752 ], [ 139.729399172305108, 35.321873739372101 ], [ 139.686606386425694, 35.326609523807328 ], [ 139.644578920433389, 35.334745141588066 ], [ 139.603716544531437, 35.346203119531978 ], [ 139.564408345894435, 35.360874362942432 ], [ 139.527029148706163, 35.378619160481534 ], [ 139.491936046088796, 35.39926847161275 ], [ 139.45946507203854, 35.422625486216369 ], [ 139.4299280411675, 35.448467443744434 ], [ 139.403609583631379, 35.476547697094752 ], [ 139.380764402064926, 35.506598004255387 ], [ 139.361614776621849, 35.538331028710694 ], [ 139.346348343283267, 35.57144302761818 ], [ 139.335116169419621, 35.605616704876518 ], [ 139.328031149126559, 35.640524204422526 ], [ 139.32516673906332, 35.675830217439163 ], [ 139.326556053372911, 35.711195175649408 ], [ 139.332191333719379, 35.746278501535542 ], [ 139.34202380752663, 35.780741885191418 ], [ 139.355963944130792, 35.814252556614271 ], [ 139.373882114770254, 35.846486521607893 ], [ 139.395609658157127, 35.877131729132223 ], [ 139.420940348837291, 35.905891137928954 ], [ 139.449632260712008, 35.932485650607958 ], [ 139.481410013038925, 35.956656884121934 ], [ 139.515967381044732, 35.978169746705468 ], [ 139.552970248077315, 35.996814792921477 ], [ 139.592059871120568, 36.012410330446158 ], [ 139.632856426617309, 36.024804254623227 ], [ 139.674962799028236, 36.0338755896111 ], [ 139.717968570521663, 36.039535718099614 ], [ 139.761454166762718, 36.041729285044241 ], [ 139.804995111053614, 36.040434764601194 ], [ 139.848166337154538, 36.035664683383089 ], [ 139.890546510051848, 36.027465497223567 ], [ 139.931722303765696, 36.015917122763931 ], [ 139.971292586017228, 36.001132129280236 ], [ 140.008872461173581, 35.983254600178654 ], [ 140.044097125316654, 35.962458677427691 ], [ 140.076625490454546, 35.938946805801201 ], [ 140.106143538721653, 35.912947697118135 ], [ 140.132367371777661, 35.88471403763365 ], [ 140.155045925395143, 35.854519964325235 ], [ 140.173963324286603, 35.822658337999215 ], [ 140.188940857440514, 35.789437842903936 ], [ 140.199838559481236, 35.755179943871667 ], [ 140.206556388732253, 35.720215732928793 ], [ 140.209034997640487, 35.684882697827689 ] ] ] } }
]
}
