{
"type": "FeatureCollection",
"name": "LON_5km",
"crs": { "type": "name", "properties": { "name": "urn:ogc:def:crs:OGC:1.3:CRS84" } },
"features": [
{ "type": "Feature", "properties": { "city": "LON", "radius_km": 5 }, "geometry": { "type": "Polygon", "coordinates": [ [ [ -0.040362497044649, 51.501370614565587 ], [ -0.040994146145984, 51.496978526087503 ], [ -0.042312254622642, 51.492646212210083 ], [ -0.044303944262707, 51.488415369789749 ], [ -0.046949868743781, 51.484326707943758 ], [ -0.050224406274397, 51.480419557396743 ], [ -0.054095911699429, 51.476731493449861 ], [ -0.058527025438371, 51.473297976136138 ], [ -0.063475036123562, 51.470152010949739 ], [ -0.068892293339286, 51.467323833330823 ], [ -0.074726666435393, 51.46484061985484 ], [ -0.080922045002048, 51.462726228817161 ], [ -0.08741887624754, 51.461000972623125 ], [ -0.094154734219591, 51.459681424093475 ], [ -0.101064915553416, 51.458780258477276 ], [ -0.108083056217485, 51.458306132632707 ], [ -0.115141763560887, 51.458263602491229 ], [ -0.122173257844944, 51.458653079569117 ], [ -0.12911001736614, 51.45947082693008 ], [ -0.135885421248051, 51.460708994640768 ], [ -0.142434383996558, 51.462355694398084 ], [ -0.14869397597542, 51.464395112646578 ], [ -0.154604024068307, 51.466807661148415 ], [ -0.160107686948388, 51.469570163621654 ], [ -0.165151999577582, 51.472656076725521 ], [ -0.16968838180414, 51.476035743348902 ], [ -0.173673106218786, 51.479676675851849 ], [ -0.177067720765614, 51.483543866622909 ], [ -0.179839421982793, 51.487600123050065 ], [ -0.181961375168955, 51.491806423762682 ], [ -0.183412978231221, 51.496122292788215 ], [ -0.184180066468443, 51.500506188083854 ], [ -0.184255056074739, 51.504915900750795 ], [ -0.183637024710442, 51.509308961119885 ], [ -0.182331728075842, 51.513643047814668 ], [ -0.180351552032608, 51.517876395850699 ], [ -0.177715400442979, 51.52196819982175 ], [ -0.174448519531701, 51.525879008253618 ], [ -0.170582260213439, 51.529571105275188 ], [ -0.166153780462129, 51.53300887586493 ], [ -0.161205690420621, 51.536159151077904 ], [ -0.15578564355192, 51.538991529842029 ], [ -0.149945877708824, 51.541478674134027 ], [ -0.14374271053975, 51.543596574599079 ], [ -0.137235994147123, 51.545324783966088 ], [ -0.130488534363865, 51.546646615925006 ], [ -0.12356548040673, 51.547549307475393 ], [ -0.116533690996577, 51.548024143117914 ], [ -0.109461083300115, 51.548066539643784 ], [ -0.102415971241121, 51.547676090671487 ], [ -0.095466399848723, 51.546856570486874 ], [ -0.088679482354028, 51.545615897152288 ], [ -0.082120746713744, 51.543966055260974 ], [ -0.075853498130884, 51.541922979119377 ], [ -0.069938203959901, 51.539506397536549 ], [ -0.064431907129834, 51.536739641783853 ], [ -0.059387673897841, 51.53364941865339 ], [ -0.054854081362157, 51.530265550888203 ], [ -0.050874749723644, 51.526620687575551 ], [ -0.04748792379519, 51.522749987385318 ], [ -0.044726107725477, 51.518690777794113 ], [ -0.042615756335181, 51.514482193660484 ], [ -0.041177025867552, 51.510164798707088 ], [ -0.040423586338769, 51.505780193616907 ], [ -0.040362497044649, 51.501370614565587 ] ] ] } }
]
}
