{
"type": "FeatureCollection",
"name": "SIN_5km",
"crs": { "type": "name", "properties": { "name": "urn:ogc:def:crs:OGC:1.3:CRS84" } },
"features": [
{ "type": "Feature", "properties": { "city": "SIN", "radius_km": 5 }, "geometry": { "type": "Polygon", "coordinates": [ [ [ 103.896272689009876, 1.283037208023941 ], [ 103.896058204500449, 1.278604005759268 ], [ 103.895413018033125, 1.274213311404951 ], [ 103.894343345775908, 1.269907411292748 ], [ 103.892859492098395, 1.265727774801831 ], [ 103.890975750229188, 1.261714654942353 ], [ 103.888710264496908, 1.257906700667138 ], [ 103.886084855485109, 1.254340584646108 ], [ 103.883124809788541, 1.251050650088679 ], [ 103.879858636399334, 1.248068580015446 ], [ 103.876317792071688, 1.245423092163732 ], [ 103.872536378313043, 1.243139662464273 ], [ 103.868550812921939, 1.241240279750662 ], [ 103.864399479237434, 1.239743234061956 ], [ 103.860122356478954, 1.238662940574957 ], [ 103.855760634737152, 1.238009800859204 ], [ 103.851356318323298, 1.237790102788035 ], [ 103.846951821296074, 1.238005960066613 ], [ 103.842589559059817, 1.23865529195622 ], [ 103.838311539964764, 1.239731843387053 ], [ 103.834158960839986, 1.241225245262907 ], [ 103.830171810350421, 1.24312111437436 ], [ 103.826388483994805, 1.245401191955989 ], [ 103.822845414447812, 1.248043519551443 ], [ 103.819576720802175, 1.251022650491516 ], [ 103.816613880085114, 1.254309894947996 ], [ 103.813985424207701, 1.257873596203442 ], [ 103.811716665262722, 1.261679435477102 ], [ 103.809829451812845, 1.265690762372907 ], [ 103.80834195851368, 1.269868947769348 ], [ 103.807268511096026, 1.274173755755545 ], [ 103.806619448391899, 1.278563731034819 ], [ 103.806401022732672, 1.282996598068518 ], [ 103.80661533968032, 1.287429668119928 ], [ 103.807260337673313, 1.29182025028207 ], [ 103.808329807786606, 1.29612606253466 ], [ 103.809813453418869, 1.300305638874927 ], [ 103.811696989336511, 1.304318728604274 ], [ 103.813962279125562, 1.308126683927765 ], [ 103.816587509732457, 1.311692832135202 ], [ 103.81954740141839, 1.314982828780268 ], [ 103.822813451109823, 1.317964988456382 ], [ 103.826354206806201, 1.320610589982839 ], [ 103.830135570406171, 1.322894153060447 ], [ 103.83412112603871, 1.324793683729965 ], [ 103.83827249073984, 1.326290886266472 ], [ 103.842549684098145, 1.327371339465589 ], [ 103.846911513309905, 1.328024635620121 ], [ 103.851315969933808, 1.328244480844871 ], [ 103.855720634522996, 1.328028755779642 ], [ 103.860083085233796, 1.327379536082257 ], [ 103.864361306472972, 1.326303072511036 ], [ 103.868514093643199, 1.324809730785787 ], [ 103.872501450084414, 1.322913891804381 ], [ 103.876284972383289, 1.320633813174365 ], [ 103.87982822033517, 1.317991453392385 ], [ 103.883097067991287, 1.315012260364565 ], [ 103.886060032405922, 1.311724926305118 ], [ 103.888688576914404, 1.308161111374885 ], [ 103.890957386017874, 1.304355138723076 ], [ 103.892844609226145, 1.300343663871409 ], [ 103.8943320715086, 1.296165321627251 ], [ 103.895405448326358, 1.291860353929047 ], [ 103.896054403560598, 1.287470222211112 ], [ 103.896272689009876, 1.283037208023941 ] ] ] } }
]
}
