{
"type": "FeatureCollection",
"name": "TYO_5km",
"crs": { "type": "name", "properties": { "name": "urn:ogc:def:crs:OGC:1.3:CRS84" } },
"features": [
{ "type": "Feature", "properties": { "city": "TYO", "radius_km": 5 }, "geometry": { "type": "Polygon", "coordinates": [ [ [ 139.822294859564067, 35.681720434141589 ], [ 139.82209378159655, 35.677299946423339 ], [ 139.82136268367185, 35.672916820567899 ], [ 139.820108691705485, 35.668613260649352 ], [ 139.81834396151487, 35.66443069791071 ], [ 139.816085558716964, 35.660409392315657 ], [ 139.81335529168544, 35.656588045610192 ], [ 139.810179499279428, 35.653003429590065 ], [ 139.806588795472919, 35.649690033115739 ], [ 139.802617773409025, 35.646679731230471 ], [ 139.798304671771092, 35.644001479519545 ], [ 139.793691006701323, 35.641681036603032 ], [ 139.788821172804205, 35.639740717383461 ], [ 139.783742017044773, 35.638199179373999 ], [ 139.778502389590386, 35.637071244118658 ], [ 139.773152675844386, 35.636367755382011 ], [ 139.767744314083444, 35.636095475438964 ], [ 139.762329303234139, 35.636257020436091 ], [ 139.756959705409344, 35.636850835428426 ], [ 139.751687147867898, 35.637871209323471 ], [ 139.74656232906753, 35.639308329589539 ], [ 139.741634533443232, 35.641148376212591 ], [ 139.736951159468759, 35.643373654017438 ], [ 139.732557265443006, 35.645962762108084 ], [ 139.728495137289116, 35.648890798832532 ], [ 139.72480388246197, 35.652129600341325 ], [ 139.721519053830662, 35.655648010490154 ], [ 139.718672307138149, 35.659412179538187 ], [ 139.71629109534166, 35.663385888816848 ], [ 139.714398402807063, 35.667530898293307 ], [ 139.71301252197091, 35.671807313728813 ], [ 139.712146874695947, 35.676173969939114 ], [ 139.71180988013495, 35.68058882650223 ], [ 139.712004870485174, 35.685009372131361 ], [ 139.712730055566112, 35.68939303383825 ], [ 139.713978536688984, 35.693697586956446 ], [ 139.71573836981463, 35.697881562074947 ], [ 139.717992677517429, 35.701904644953309 ], [ 139.720719808795963, 35.705728065545657 ], [ 139.72389354529659, 35.709314972358108 ], [ 139.727483352053099, 35.712630788496469 ], [ 139.731454670396062, 35.715643545931172 ], [ 139.735769250256823, 35.718324194711542 ], [ 139.740385518686395, 35.720646884099352 ], [ 139.74525898103505, 35.722589212861365 ], [ 139.750342650898517, 35.724132446258615 ], [ 139.75558750463486, 35.725261697594114 ], [ 139.760942955997393, 35.725966072526923 ], [ 139.766357346215642, 35.726238774725992 ], [ 139.77177844469216, 35.726077171817664 ], [ 139.777153955369499, 35.725482820972395 ], [ 139.782432023760663, 35.724461453875293 ], [ 139.7875617396287, 35.723022921226395 ], [ 139.792493630346939, 35.721181097316979 ], [ 139.797180140069486, 35.718953745622521 ], [ 139.801576089992693, 35.716362346737604 ], [ 139.805639115186892, 35.713431890348268 ], [ 139.809330073725022, 35.710190633290367 ], [ 139.812613424124748, 35.706669826073579 ], [ 139.815457567451205, 35.702903410556651 ], [ 139.817835150793485, 35.698927691738533 ], [ 139.819723329225241, 35.694780986877362 ], [ 139.821103983784326, 35.690503255364405 ], [ 139.821963893450629, 35.686135712959867 ], [ 139.822294859564067, 35.681720434141589 ] ] ] } }
]
}
