{
"type": "FeatureCollection",
"name": "LON_50km",
"crs": { "type": "name", "properties": { "name": "urn:ogc:def:crs:OGC:1.3:CRS84" } },
"features": [
{ "type": "Feature", "properties": { "city": "LON", "radius_km": 50 }, "geometry": { "type": "Polygon", "coordinates": [ [ [ 0.606760080963342, 51.483236476659215 ], [ 0.599833380488933, 51.439362640406294 ], [ 0.586080698896514, 51.396122259387539 ], [ 0.565652544355275, 51.353929044653775 ], [ 0.538761698125919, 51.313185606282865 ], [ 0.505680574391293, 51.274279725314159 ], [ 0.466738110343728, 51.237580799431527 ], [ 0.422316232586018, 51.20343648942719 ], [ 0.372845945230145, 51.17216959085777 ], [ 0.31880308375727, 51.144075152753487 ], [ 0.260703776922989, 51.119417862778853 ], [ 0.19909965693277, 51.098429715881046 ], [ 0.134572855936724, 51.081307981200702 ], [ 0.067730824744989, 51.068213479852282 ], [ -0.000798992331367, 51.059269184098838 ], [ -0.070374594351452, 51.05455914643111 ], [ -0.140344941572574, 51.054127765099167 ], [ -0.210055524491361, 51.057979390716419 ], [ -0.278853954928204, 51.06607827664191 ], [ -0.346095550098751, 51.078348873931411 ], [ -0.411148880264399, 51.094676469709299 ], [ -0.47340124974857, 51.114908165839005 ], [ -0.532264079876912, 51.138854192740297 ], [ -0.58717816079482, 51.16628955110405 ], [ -0.637618737200818, 51.196955972077149 ], [ -0.683100390894634, 51.230564184218117 ], [ -0.723181680779021, 51.266796473154336 ], [ -0.757469498699667, 51.30530951739631 ], [ -0.785623097401756, 51.345737481188173 ], [ -0.807357745086794, 51.387695342603656 ], [ -0.822447959745091, 51.43078243234914 ], [ -0.830730275803782, 51.474586155937764 ], [ -0.832105495856063, 51.518685869087101 ], [ -0.826540381508632, 51.562656873417524 ], [ -0.814068739869791, 51.606074496848684 ], [ -0.794791866043118, 51.648518220582638 ], [ -0.768878307296339, 51.689575812302976 ], [ -0.736562921396997, 51.728847423305325 ], [ -0.698145209941098, 51.765949605795697 ], [ -0.653986917273684, 51.800519205650794 ], [ -0.604508896662048, 51.832217085614488 ], [ -0.550187257506733, 51.860731634293913 ], [ -0.491548820262137, 51.885782017479094 ], [ -0.429165919020805, 51.907121130291145 ], [ -0.363650604973711, 51.924538211482648 ], [ -0.295648316738421, 51.937861084864352 ], [ -0.225831095380616, 51.946957997272371 ], [ -0.154890432386398, 51.951739027648571 ], [ -0.083529847455157, 51.952157047582226 ], [ -0.01245729941948, 51.948208219921824 ], [ 0.057622462411737, 51.939932028661872 ], [ 0.126015497819307, 51.927410840073144 ], [ 0.19204611878581, 51.910769001799032 ], [ 0.255064072714191, 51.890171493212968 ], [ 0.314451368686167, 51.865822146553342 ], [ 0.369628658244178, 51.837961464074532 ], [ 0.420061092553181, 51.806864061545539 ], [ 0.465263589574658, 51.772835772795119 ], [ 0.504805457607937, 51.736210453570365 ], [ 0.538314334755001, 51.697346525713179 ], [ 0.565479417087746, 51.656623304556959 ], [ 0.586053961120298, 51.614437153530915 ], [ 0.599857058245173, 51.571197510281443 ], [ 0.60677468977994, 51.527322828248678 ], [ 0.606760080963342, 51.483236476659215 ] ] ] } }
]
}
