{
"type": "FeatureCollection",
"name": "SIN_50km",
"crs": { "type": "name", "properties": { "name": "urn:ogc:def:crs:OGC:1.3:CRS84" } },
"features": [
{ "type": "Feature", "properties": { "city": "SIN", "radius_km": 50 }, "geometry": { "type": "Polygon", "coordinates": [ [ [ 104.300725825975434, 1.283180645093316 ], [ 104.298573635786369, 1.238844018688708 ], [ 104.292113863671105, 1.194933283378392 ], [ 104.281408947787284, 1.151871414510906 ], [ 104.266562203593921, 1.110073190052035 ], [ 104.247716823696905, 1.069941196169118 ], [ 104.225054495000748, 1.031861950238401 ], [ 104.198793646264434, 0.996202178443019 ], [ 104.169187342627097, 0.963305283733511 ], [ 104.136520847025892, 0.933488038192258 ], [ 104.101108871642808, 0.907037531782502 ], [ 104.063292545558141, 0.88420840707973 ], [ 104.023436127616137, 0.865220406890633 ], [ 103.981923496087987, 0.850256258680468 ], [ 103.939154449007049, 0.839459916477213 ], [ 103.895540851013735, 0.832935177430578 ], [ 103.851502664148597, 0.830744686511887 ], [ 103.807463901240268, 0.832909338989018 ], [ 103.76384854132823, 0.839408086345621 ], [ 103.721076446921515, 0.85017814728576 ], [ 103.679559322819259, 0.865115621425994 ], [ 103.639696755708272, 0.884076499279096 ], [ 103.601872372820225, 0.906878058227786 ], [ 103.566450156597483, 0.933300630420978 ], [ 103.533770950609181, 0.963089724942161 ], [ 103.504149189914358, 0.995958483237417 ], [ 103.477869886722246, 1.031590443680358 ], [ 103.455185899594426, 1.069642588317533 ], [ 103.436315511606722, 1.109748642298529 ], [ 103.421440339881471, 1.151522594262018 ], [ 103.410703595746526, 1.194562404029053 ], [ 103.404208711508261, 1.238453862350546 ], [ 103.402018346467628, 1.28277456616698 ], [ 103.404153781382831, 1.327097971863106 ], [ 103.410594707107165, 1.370997488336668 ], [ 103.421279409619416, 1.4140505713466 ], [ 103.436105350131697, 1.455842780562506 ], [ 103.45493013541477, 1.495971761005244 ], [ 103.477572869941426, 1.534051111151215 ], [ 103.503815877928034, 1.569714100874952 ], [ 103.533406779874952, 1.602617203630569 ], [ 103.566060904795634, 1.632443408826706 ], [ 103.601464016010283, 1.658905282233715 ], [ 103.639275325203414, 1.681747744474918 ], [ 103.679130766444558, 1.700750540189692 ], [ 103.720646499093746, 1.715730373303242 ], [ 103.76342260600542, 1.726542686977711 ], [ 103.807046951251479, 1.733083070226098 ], [ 103.851099159750945, 1.735288276811336 ], [ 103.895154679759329, 1.733136845887983 ], [ 103.938788888167309, 1.726649317827385 ], [ 103.981581198008911, 1.715888042748092 ], [ 104.023119127499768, 1.700956583397654 ], [ 104.063002290316462, 1.681998718144094 ], [ 104.100846267683806, 1.659197053880021 ], [ 104.136286324136933, 1.63277126256634 ], [ 104.168980930546226, 1.602975958896399 ], [ 104.198615060095378, 1.570098240100964 ], [ 104.224903225350914, 1.534454912201519 ], [ 104.247592227306939, 1.496389430022621 ], [ 104.266463590287998, 1.456268580969116 ], [ 104.281335659800433, 1.41447894494288 ], [ 104.292065343794846, 1.37142316480476 ], [ 104.298549481299688, 1.327516063473649 ], [ 104.300725825975434, 1.283180645093316 ] ] ] } }
]
}
