{
"type": "FeatureCollection",
"name": "TYO_50km",
"crs": { "type": "name", "properties": { "name": "urn:ogc:def:crs:OGC:1.3:CRS84" } },
"features": [
{ "type": "Feature", "properties": { "city": "TYO", "radius_km": 50 }, "geometry": { "type": "Polygon", "coordinates": [ [ [ 140.319542107179387, 35.685558038284235 ], [ 140.317257734019222, 35.641357785156956 ], [ 140.309681974246985, 35.597552540027912 ], [ 140.296896199074098, 35.554563292321667 ], [ 140.279031312065598, 35.512802532619141 ], [ 140.256266197932007, 35.472670342736073 ], [ 140.22882574739495, 35.43455062626397 ], [ 140.19697848595203, 35.398807512417967 ], [ 140.161033836265943, 35.365781963823096 ], [ 140.121339045338118, 35.335788616524937 ], [ 140.078275808665438, 35.309112878058571 ], [ 140.032256624283974, 35.286008306871686 ], [ 139.98372091004731, 35.266694293789762 ], [ 139.933130917724185, 35.251354063547943 ], [ 139.880967477587888, 35.240133011704458 ], [ 139.827725607156367, 35.233137389506886 ], [ 139.773910017664548, 35.230433346510438 ], [ 139.72003055174153, 35.232046337959247 ], [ 139.666597585655097, 35.237960901142891 ], [ 139.614117429380912, 35.248120802141202 ], [ 139.563087757677209, 35.262429551579437 ], [ 139.513993105291206, 35.28075128524042 ], [ 139.467300459392192, 35.30291200262802 ], [ 139.423454982307589, 35.328701153855789 ], [ 139.382875897611143, 35.357873562548335 ], [ 139.34595257255458, 35.390151669799899 ], [ 139.313040829707461, 35.425228081636448 ], [ 139.284459520432989, 35.462768399881149 ], [ 139.260487392432282, 35.502414313832531 ], [ 139.24136028297093, 35.54378692773917 ], [ 139.227268668502091, 35.586490296703445 ], [ 139.218355600147675, 35.630115141386028 ], [ 139.214715052822356, 35.674242709730962 ], [ 139.21639071362128, 35.718448751915325 ], [ 139.223375232373343, 35.762307572879671 ], [ 139.235609953944135, 35.8053961251549 ], [ 139.252985147914728, 35.847298103312426 ], [ 139.275340746656099, 35.887608000279492 ], [ 139.302467597568949, 35.925935085030702 ], [ 139.334109229409052, 35.961907260848307 ], [ 139.36996412623472, 35.995174763487476 ], [ 139.409688495698333, 36.025413659238978 ], [ 139.452899511292202, 36.052329104088898 ], [ 139.499179000904576, 36.075658326962916 ], [ 139.548077546833724, 36.095173302425785 ], [ 139.599118955440503, 36.110683081181421 ], [ 139.651805048101238, 36.122035750267216 ], [ 139.705620719257666, 36.129119998914447 ], [ 139.760039202342995, 36.131866270599815 ], [ 139.814527480361988, 36.130247486759842 ], [ 139.868551775063054, 36.124279332893103 ], [ 139.921583047058078, 36.114020103224767 ], [ 139.973102438985563, 36.099570105646379 ], [ 140.02260659487817, 36.081070634151466 ], [ 140.069612791253633, 36.058702521351385 ], [ 140.113663819013482, 36.032684288766056 ], [ 140.154332559879094, 36.003269917342024 ], [ 140.19122620666505, 35.970746264971197 ], [ 140.223990082996522, 35.93543016159888 ], [ 140.252311024921397, 35.897665215768086 ], [ 140.275920294043658, 35.857818369120892 ], [ 140.294595999107031, 35.816276237450396 ], [ 140.30816501019919, 35.77344127837717 ], [ 140.316504356756184, 35.729727826630871 ], [ 140.319542107179387, 35.685558038284235 ] ] ] } }
]
}
