{
"type": "FeatureCollection",
"name": "LON_10km",
"crs": { "type": "name", "properties": { "name": "urn:ogc:def:crs:OGC:1.3:CRS84" } },
"features": [
{ "type": "Feature", "properties": { "city": "LON", "radius_km": 10 }, "geometry": { "type": "Polygon", "coordinates": [ [ [ 0.031572570977321, 51.499531855091753 ], [ 0.03029567027519, 51.490748670160741 ], [ 0.02764667105135, 51.482085833386343 ], [ 0.023651819527464, 51.473626669178763 ], [ 0.018350247244083, 51.465452498569896 ], [ 0.01179356908188, 51.457641861681346 ], [ 0.004045364985692, 51.450269768349067 ], [ -0.004819448823532, 51.443406983849421 ], [ -0.014715352482328, 51.43711935629328 ], [ -0.02554705150162, 51.431467191824659 ], [ -0.037210393994642, 51.426504683284769 ], [ -0.049593367317778, 51.422279397485291 ], [ -0.062577164782495, 51.418831825681636 ], [ -0.076037312632035, 51.416195001252284 ], [ -0.089844847088189, 51.414394187979561 ], [ -0.103867530958158, 51.413446641693099 ], [ -0.117971099046468, 51.413361447386777 ], [ -0.132020521439604, 51.41413943325459 ], [ -0.145881273619868, 51.415773162416166 ], [ -0.159420602318693, 51.418247002423847 ], [ -0.172508776038352, 51.421537271960695 ], [ -0.185020309254866, 51.425612463461917 ], [ -0.196835149465793, 51.430433539719495 ], [ -0.207839816466347, 51.435954301870375 ], [ -0.217928483528617, 51.442121825523799 ], [ -0.227003990525025, 51.448876961159193 ], [ -0.23497877948143, 51.456154894326986 ], [ -0.241775743571295, 51.463885760615035 ], [ -0.247328981172536, 51.471995309810389 ], [ -0.251584447305894, 51.480405613191309 ], [ -0.254500495558974, 51.489035807437688 ], [ -0.256048304473888, 51.497802868250794 ], [ -0.25621218333723, 51.506622406433365 ], [ -0.254989753355855, 51.515409478902924 ], [ -0.252392001325385, 51.524079406899062 ], [ -0.248443204093112, 51.532548593505652 ], [ -0.243180723373516, 51.5407353325431 ], [ -0.236654671780697, 51.548560600900252 ], [ -0.228927452283641, 51.555948826469574 ], [ -0.220073174650812, 51.56282862402756 ], [ -0.210176953812049, 51.569133491664225 ], [ -0.199334096408252, 51.574802460708923 ], [ -0.187649183102139, 51.579780692526917 ], [ -0.175235055465041, 51.584020016064024 ], [ -0.162211717413778, 51.587479400594972 ], [ -0.148705162227374, 51.59012535877666 ], [ -0.134846137105933, 51.591932275814294 ], [ -0.120768858025751, 51.592882661308259 ], [ -0.106609688279894, 51.592967321152329 ], [ -0.092505794559615, 51.592185447691634 ], [ -0.078593794719678, 51.590544627207606 ], [ -0.065008411474003, 51.588060764669258 ], [ -0.051881146185251, 51.584757926561174 ], [ -0.03933898664478, 51.580668103459459 ], [ -0.027503162293517, 51.575830894863813 ], [ -0.016487959718889, 51.570293119599754 ], [ -0.006399610490731, 51.564108355865557 ], [ 0.002664737514788, 51.55733641570842 ], [ 0.010617955191798, 51.550042759363222 ], [ 0.017383764712463, 51.542297855469215 ], [ 0.022897461721851, 51.53417649368923 ], [ 0.02710652076377, 51.525757056687844 ], [ 0.029971078810359, 51.517120758777587 ], [ 0.031464293117384, 51.508350858811838 ], [ 0.031572570977321, 51.499531855091753 ] ] ] } }
]
}
