{
"type": "FeatureCollection",
"name": "NYC_10km",
"crs": { "type": "name", "properties": { "name": "urn:ogc:def:crs:OGC:1.3:CRS84" } },
"features": [
{ "type": "Feature", "properties": { "city": "NYC", "radius_km": 10 }, "geometry": { "type": "Polygon", "coordinates": [ [ [ -73.85878927371823, 40.751615730897761 ], [ -73.859510428709996, 40.742793115978515 ], [ -73.861364736014991, 40.734066703407628 ], [ -73.864333912407815, 40.725520474203684 ], [ -73.868388975530394, 40.717236644314731 ], [ -73.873490537810696, 40.709294876286904 ], [ -73.879589198550462, 40.701771516524417 ], [ -73.886626029925608, 40.694738865313454 ], [ -73.894533151835631, 40.688264486435742 ], [ -73.903234389795031, 40.682410562794615 ], [ -73.912646009380623, 40.677233304018216 ], [ -73.922677520137739, 40.672782411500059 ], [ -73.933232541305316, 40.669100605787257 ], [ -73.944209721246736, 40.666223220640298 ], [ -73.955503702068555, 40.664177867467551 ], [ -73.967006120574339, 40.662984173188683 ], [ -73.978606636434236, 40.662653593910655 ], [ -73.990193978252861, 40.663189306109381 ], [ -74.001656998088023, 40.664586176309115 ], [ -74.012885724910106, 40.666830809541437 ], [ -74.023772407498114, 40.669901676154097 ], [ -74.034212537340224, 40.673769315830455 ], [ -74.044105842249522, 40.678396616979839 ], [ -74.053357241614307, 40.683739168969929 ], [ -74.061877754481984, 40.68974568400418 ], [ -74.069585352023708, 40.696358484800193 ], [ -74.076405746346339, 40.703514053608878 ], [ -74.082273108106676, 40.711143637531066 ], [ -74.08713070594203, 40.71917390454545 ], [ -74.090931461360171, 40.727527644162876 ], [ -74.093638413427442, 40.736124506173404 ], [ -74.095225088356557, 40.744881770558585 ], [ -74.095675769919993, 40.753715141306664 ], [ -74.094985667498079, 40.762539556597616 ], [ -74.093160979506109, 40.771270007622363 ], [ -74.090218850926831, 40.77982235816912 ], [ -74.086187224692821, 40.788114157053442 ], [ -74.081104587711479, 40.796065435489012 ], [ -74.075019613388861, 40.803599481595612 ], [ -74.067990703579397, 40.81064358441995 ], [ -74.060085433950363, 40.817129740103084 ], [ -74.051379907791514, 40.82299531316616 ], [ -74.041958024305885, 40.828183646299252 ], [ -74.031910668373172, 40.832644612525186 ], [ -74.021334829668774, 40.836335104166551 ], [ -74.010332659833765, 40.839219453663681 ], [ -73.999010477112748, 40.841269781968464 ], [ -73.987477728493673, 40.842466270966597 ], [ -73.975845919887504, 40.842797357149792 ], [ -73.964227525265954, 40.842259844561518 ], [ -73.952734885926276, 40.840858935866535 ], [ -73.941479111169869, 40.838608181232694 ], [ -73.930568991661644, 40.835529345557646 ], [ -73.920109936582875, 40.831652195408395 ], [ -73.910202945403185, 40.827014207861502 ], [ -73.900943624681574, 40.821660204224578 ], [ -73.892421259772092, 40.815641912376435 ], [ -73.884717950662903, 40.809017462176307 ], [ -73.877907820431801, 40.801850819052333 ], [ -73.872056303967838, 40.794211161481073 ], [ -73.867219523700925, 40.78617220860513 ], [ -73.863443758114073, 40.777811504702683 ], [ -73.860765007799259, 40.769209667613524 ], [ -73.859208662774577, 40.760449608542523 ], [ -73.85878927371823, 40.751615730897761 ] ] ] } }
]
}
