{
"type": "FeatureCollection",
"name": "PAR_10km",
"crs": { "type": "name", "properties": { "name": "urn:ogc:def:crs:OGC:1.3:CRS84" } },
"features": [
{ "type": "Feature", "properties": { "city": "PAR", "radius_km": 10 }, "geometry": { "type": "Polygon", "coordinates": [ [ [ 2.48364143608516, 48.855563087162139 ], [ 2.483075794430989, 48.846743030076233 ], [ 2.481203406464079, 48.838002001346091 ], [ 2.478042966842835, 48.829424121678514 ], [ 2.473625524997, 48.821091899447495 ], [ 2.467994162701424, 48.813085440037398 ], [ 2.46120355862858, 48.805481679741817 ], [ 2.453319444847296, 48.798353651386847 ], [ 2.444417961134134, 48.791769788497867 ], [ 2.434584913783572, 48.785793274422311 ], [ 2.42391494634203, 48.780481442364476 ], [ 2.41251063034871, 48.775885231786255 ], [ 2.40048148474373, 48.772048706084782 ], [ 2.387942933102892, 48.769008635880262 ], [ 2.375015208280506, 48.766794151639537 ], [ 2.361822214389272, 48.765426468726716 ], [ 2.348490356321725, 48.764918687319486 ], [ 2.335147347223189, 48.765275668958893 ], [ 2.32192100446335, 48.766493990820152 ], [ 2.308938044723884, 48.768561978103875 ], [ 2.296322888823584, 48.771459814257241 ], [ 2.284196486840496, 48.775159728046049 ], [ 2.272675173961876, 48.779626255817682 ], [ 2.261869567296649, 48.784816576623463 ], [ 2.251883513619337, 48.790680917214026 ], [ 2.242813097677726, 48.797163023285606 ], [ 2.234745720286158, 48.804200692744757 ], [ 2.22775925494032, 48.811726366177226 ], [ 2.221921291125609, 48.819667769160496 ], [ 2.217288471847881, 48.827948600551657 ], [ 2.213905932191875, 48.836489260419683 ], [ 2.211806844908718, 48.845207610877175 ], [ 2.211012078150945, 48.854019762709314 ], [ 2.211529969514109, 48.862840880396924 ], [ 2.213356219512601, 48.871585997896915 ], [ 2.21647390651993, 48.880170837376824 ], [ 2.220853624048514, 48.888512623006321 ], [ 2.226453740041128, 48.896530881891465 ], [ 2.233220776607573, 48.904148224298019 ], [ 2.241089907379887, 48.911291095452697 ], [ 2.249985568393144, 48.917890491433525 ], [ 2.259822177143643, 48.923882631966713 ], [ 2.270504953250514, 48.929209583330895 ], [ 2.281930832969068, 48.933819825034305 ], [ 2.293989468694134, 48.937668754466159 ], [ 2.306564303567868, 48.94071912433138 ], [ 2.319533710387292, 48.942941408346393 ], [ 2.332772183209121, 48.944314091400436 ], [ 2.346151569388019, 48.94482388115928 ], [ 2.359542329272314, 48.944465838900449 ], [ 2.372814810428244, 48.943243428208767 ], [ 2.385840523077113, 48.941168481018494 ], [ 2.398493403412977, 48.938261081353154 ], [ 2.410651051622157, 48.934549367973801 ], [ 2.422195931746826, 48.930069257991263 ], [ 2.433016521016824, 48.924864094316646 ], [ 2.443008396907533, 48.918984220606411 ], [ 2.452075250954455, 48.91248648809492 ], [ 2.460129819253022, 48.905433699389995 ], [ 2.467094720578139, 48.897893994926555 ], [ 2.472903194154448, 48.889940188326399 ], [ 2.477499730276151, 48.881649057390021 ], [ 2.480840588195471, 48.873100597847646 ], [ 2.48289419695223, 48.86437724731806 ], [ 2.48364143608516, 48.855563087162139 ] ] ] } }
]
}
