{
"type": "FeatureCollection",
"name": "SIN_10km",
"crs": { "type": "name", "properties": { "name": "urn:ogc:def:crs:OGC:1.3:CRS84" } },
"features": [
{ "type": "Feature", "properties": { "city": "SIN", "radius_km": 10 }, "geometry": { "type": "Polygon", "coordinates": [ [ [ 103.941209561932695, 1.283056322079051 ], [ 103.940780426532854, 1.274189793491743 ], [ 103.939489868599694, 1.265408300207631 ], [ 103.937350327412773, 1.256796418704907 ], [ 103.934382419008301, 1.248437090707611 ], [ 103.930614737236084, 1.2404108242569 ], [ 103.926083577986034, 1.232794918269157 ], [ 103.920832589252655, 1.22566271805162 ], [ 103.914912350418859, 1.219082908946733 ], [ 103.908379884821628, 1.213118854907965 ], [ 103.901298110302847, 1.207827988375772 ], [ 103.893735233045149, 1.203261257327003 ], [ 103.885764090537265, 1.199462634819076 ], [ 103.877461450001704, 1.196468695746939 ], [ 103.868907269045707, 1.194308264882185 ], [ 103.860183925657523, 1.193002139575781 ], [ 103.851375424964715, 1.192562889785576 ], [ 103.842566590391897, 1.19299473734396 ], [ 103.833842247004242, 1.194293515617061 ], [ 103.82528640489565, 1.196446709932165 ], [ 103.816981450477897, 1.19943357837209 ], [ 103.809007353448749, 1.203225351761691 ], [ 103.801440897063415, 1.207785510909931 ], [ 103.794354939108203, 1.213070138428452 ], [ 103.78781771067726, 1.219028341731387 ], [ 103.781892159488763, 1.22560274313816 ], [ 103.776635344047421, 1.232730032357701 ], [ 103.772097884471194, 1.240341576034901 ], [ 103.768323475255556, 1.248364078493908 ], [ 103.765348464654224, 1.256720287323059 ], [ 103.763201504716832, 1.26532973701736 ], [ 103.761903275346924, 1.274109523530573 ], [ 103.761466285035269, 1.282975102293227 ], [ 103.761894750189072, 1.291841102028235 ], [ 103.763184554226186, 1.3006221465441 ], [ 103.765323286838637, 1.309233676608504 ], [ 103.768290363063073, 1.317592764002982 ], [ 103.772057221029769, 1.32561890993265 ], [ 103.776587596507099, 1.333234820112757 ], [ 103.781837871620453, 1.340367149075057 ], [ 103.787757494411011, 1.346947206529624 ], [ 103.794289465216096, 1.35291161897915 ], [ 103.801370885208541, 1.358202940209734 ], [ 103.808933561830187, 1.36277020477076 ], [ 103.816904665302829, 1.366569419102239 ], [ 103.825207429904182, 1.369563985565731 ], [ 103.833761893259378, 1.371725055279269 ], [ 103.842485666527693, 1.373031806341186 ], [ 103.851294728061504, 1.37347164474609 ], [ 103.860104232883259, 1.37304032604136 ], [ 103.868829330170342, 1.371741996537239 ], [ 103.877385980856715, 1.369589153660461 ], [ 103.885691767457217, 1.366602525822629 ], [ 103.893666688293635, 1.362810872952726 ], [ 103.9012339284522, 1.358250709610361 ], [ 103.908320600026599, 1.35296595334517 ], [ 103.914858444498748, 1.347007501690792 ], [ 103.920784490476478, 1.340432741871907 ], [ 103.926041660440788, 1.333304997953241 ], [ 103.930579320649755, 1.325692920763778 ], [ 103.934353768897907, 1.317669826481945 ], [ 103.937328655431685, 1.309312990262785 ], [ 103.939475332969408, 1.300702901721459 ], [ 103.940773132459995, 1.29192248945464 ], [ 103.941209561932695, 1.283056322079051 ] ] ] } }
]
}
