{
"type": "FeatureCollection",
"name": "TYO_10km",
"crs": { "type": "name", "properties": { "name": "urn:ogc:def:crs:OGC:1.3:CRS84" } },
"features": [
{ "type": "Feature", "properties": { "city": "TYO", "radius_km": 10 }, "geometry": { "type": "Polygon", "coordinates": [ [ [ 139.877539589909617, 35.682248226711408 ], [ 139.877131348354794, 35.673407321421983 ], [ 139.875663247420533, 35.66464161710141 ], [ 139.873149765494816, 35.656035500547027 ], [ 139.86961542488288, 35.647671795440026 ], [ 139.865094543559536, 35.639630966968312 ], [ 139.859630893976799, 35.631990350073295 ], [ 139.853277272616936, 35.624823408628615 ], [ 139.84609498477019, 35.618199032532679 ], [ 139.838153249750121, 35.612180879307729 ], [ 139.829528532435376, 35.606826766353478 ], [ 139.820303807638936, 35.60218811950655 ], [ 139.810567764354772, 35.598309483012599 ], [ 139.800413957413781, 35.5952280954332 ], [ 139.78993991449633, 35.592973535387216 ], [ 139.77924620679542, 35.591567440374554 ], [ 139.768435491904, 35.591023301251717 ], [ 139.757611537710261, 35.591346334231631 ], [ 139.746878236226024, 35.592533431568057 ], [ 139.736338616348519, 35.594573191365136 ], [ 139.726093864560085, 35.597446026229079 ], [ 139.7162423625077, 35.601124349758386 ], [ 139.706878750274939, 35.605572839157006 ], [ 139.698093023958563, 35.610748771555336 ], [ 139.689969675897089, 35.616602430944916 ], [ 139.682586885564945, 35.623077581977213 ], [ 139.676015768744691, 35.63011200625165 ], [ 139.670319692123911, 35.637638096128519 ], [ 139.66555365993085, 35.645583500552284 ], [ 139.661763778627659, 35.653871816866975 ], [ 139.658986805022749, 35.662423322151461 ], [ 139.657249782447849, 35.671155737203947 ], [ 139.656569768874306, 35.679985015965293 ], [ 139.656953660019894, 35.688826152895771 ], [ 139.658398109631605, 35.69759400061087 ], [ 139.660889548220609, 35.70620408994516 ], [ 139.664404300589013, 35.714573444547952 ], [ 139.668908801524736, 35.722621382127059 ], [ 139.674359908066009, 35.730270294544923 ], [ 139.680705305757044, 35.737446399138008 ], [ 139.687884005345779, 35.744080453875064 ], [ 139.69582692542221, 35.750108429289888 ], [ 139.704457555575743, 35.755472130521198 ], [ 139.71369269377422, 35.760119763258913 ], [ 139.723443250848192, 35.764006437932444 ], [ 139.733615114212398, 35.767094607074789 ], [ 139.744110062287206, 35.769354431452612 ], [ 139.754826720501654, 35.770764071258213 ], [ 139.765661549280168, 35.771309899408912 ], [ 139.776509854042729, 35.770986634782645 ], [ 139.787266806989635, 35.769797394027925 ], [ 139.797828470303216, 35.767753661412357 ], [ 139.808092810378724, 35.764875177005152 ], [ 139.817960692799687, 35.761189744319225 ], [ 139.827336847995269, 35.756732959354366 ], [ 139.836130797854196, 35.751547863776601 ], [ 139.844257734018953, 35.745684525731988 ], [ 139.851639339135176, 35.739199552515167 ], [ 139.858204542976523, 35.732155539987431 ], [ 139.863890206095846, 35.724620464258329 ], [ 139.868641724455586, 35.716667021702484 ], [ 139.872413549354604, 35.708371923874061 ], [ 139.875169617880829, 35.699815154301149 ], [ 139.876883690068439, 35.691079194486747 ], [ 139.877539589909617, 35.682248226711408 ] ] ] } }
]
}
